eventName,eventYear,region,originalGridCode,monitoringProgramme,programmeName,occurredBefore,occurredBeforeText,waterDiscoloration,highPhyto,seafoodToxin,massMortal,foamMucil,otherEffect,otherEffectText,days,months,locationText,latitude,longitude,additionalLocationInfo,eventDate,initialDate,finalDate,quarantineStartDate,quarantineEndDate,additionalDateInfo,causativeKnown,pigmentAnalysisInfo,additionalAlgaeInfo,toxicityDetected,toxicityRange,humansAffected,fishAffected,naturalFishAffected,aquacultureFishAffected,planktonicAffected,benthicAffected,shellfishAffected,birdsAffected,otherTerrestrialAffected,aquaticMammalsAffected,seaweedAffected,effectsComments,unexplainedToxicity,toxicityComments,transvectors,eventBiblio,syndromeText,active,created_at,updated_at,checked_at,countryName,syndromeName,speciesContaining,additionalHarmfulEffectInfo,toxinAssayComments,assaytype,concentration,toxinType,toxin,causativeSpeciesName0,cellsPerLitre0,comments0,additionalSpeciesName0,additionalCellsPerLitre0,additionalComments0,causativeSpeciesName1,cellsPerLitre1,comments1,causativeSpeciesName2,cellsPerLitre2,comments2,causativeSpeciesName3,cellsPerLitre3,comments3,additionalSpeciesName1,additionalCellsPerLitre1,additionalComments1,additionalSpeciesName2,additionalCellsPerLitre2,additionalComments2
US-16-002,2016,US Virgin islands,,1,CFP monitoring programme of French Polynesia,1,,0,0,1,0,0,0,,0,0,St Thomas island,,,,9/18/2016,,,,,,0,,,0,,1,0,0,0,0,0,0,0,0,0,0,,NULL,,Lutjanus mahogoni,,,,9/21/2016 9:12,,,UNITED STATES,CFP (Ciguatera Fish Poisoning),,,,,,,,,,,,,,,,,,,,,,,,,,,,
US-16-001,2016,US virgin islands,,0,,1,,0,0,1,0,0,0,,0,0,St Thomas island,,,,9/18/2016,,,,,,0,,,1,CFP monitotoring programme of French Polynesia,1,0,0,0,0,0,0,0,0,0,0,,NULL,,Lutjanus Mahogoni,,,,9/21/2016 8:52,,,UNITED STATES,CFP (Ciguatera Fish Poisoning),,,,,,,,,,,,,,,,,,,,,,,,,,,,
REU-90-001,1990,,,0,,0,,0,0,1,0,0,0,,0,0,Saint Paul,-20.983333,55.266667,shark caught in the bay by local fishermen,,,,,,,0,,,0,,1,0,0,0,0,0,0,0,0,0,0,,0,,"shark, probably Carcharinus leucas",,,,10/10/2017 9:22,,,LA REUNION,CFP (Ciguatera Fish Poisoning),,,,,,,,,,,,,,,,,,,,,,,,,,,,
REU-87-005,1987,,,0,,NULL,,0,0,1,0,0,0,,0,0,Réunion,-20.866667,55.416667,,12/17/1987,,,,,,1,,,0,,1,0,0,0,0,0,0,0,0,0,0,,NULL,,snapper (Lethrinus sp),,,,10/7/2017 4:26,10/10/2017 9:17,,LA REUNION,CFP (Ciguatera Fish Poisoning),,,,,,,,Gambierdiscus sp.,,,,,,,,,,,,,,,,,,,,
REU-87-004,1987,,,0,,NULL,,0,0,1,0,0,0,,0,0,Réunion,20.866667,55.416667,,12/1/1987,,,,,,1,,,0,,1,0,0,0,0,0,0,0,0,0,0,fish caught in Réunion coastal waters,NULL,,Variola louti,,,,10/7/2017 4:24,,,LA REUNION,CFP (Ciguatera Fish Poisoning),,,,,,,,Gambierdiscus sp.,,,,,,,,,,,,,,,,,,,,
REU-87-003,1987,,,0,,NULL,,0,0,1,0,0,0,,0,0,Réunion,20.866667,55.416667,,11/27/1987,,,,,,1,,,0,,1,0,0,0,0,0,0,0,0,0,0,,NULL,,grouper,,,,10/7/2017 4:22,,,LA REUNION,CFP (Ciguatera Fish Poisoning),,,,,,,,Gambierdiscus sp.,,,,,,,,,,,,,,,,,,,,
REU-87-002,1987,,,0,,NULL,offshore banks are risky areas for CFP at that time,0,0,1,0,0,0,,0,0,Réunion,-20.866667,55.416667,,6/25/1987,,,,,,1,,,0,,1,0,0,0,0,0,0,0,0,0,0,fish caught on Soudan offshore bank,NULL,,snapper (Lethrinus sp),,,,10/7/2017 4:20,,,LA REUNION,CFP (Ciguatera Fish Poisoning),,,,,,,,Gambierdiscus sp.,,,,,,,,,,,,,,,,,,,,
REU-87-001,1987,,,0,,NULL,offshore banks are risky areas for CFP at that time,0,0,1,0,0,0,,0,0,Réunion,20.866667,55.416667,,3/1/1987,,,,,,1,,,0,,1,0,0,0,0,0,0,0,0,0,0,,NULL,,grouper,,,,10/7/2017 4:17,,,LA REUNION,CFP (Ciguatera Fish Poisoning),,,,,,,,Gambierdiscus sp.,,,,,,,,,,,,,,,,,,,,
REU-86-002,1986,,,0,,1,offshore banks are risky areas for CFP at that time,0,0,1,0,0,0,,0,0,Saint Denis,-20.866667,55.416667,,,,,,,,1,,,0,,1,0,0,0,0,0,0,0,0,0,0,fish caught on Soudan offshore bank,1,,grouper,,,,10/7/2017 4:14,,,LA REUNION,CFP (Ciguatera Fish Poisoning),,,,,,,,Gambierdiscus sp.,,,,,,,,,,,,,,,,,,,,
REU-86-001,1986,,,0,,1,this species is regularly involved in CFP,0,0,1,0,0,0,,0,0,Réunion,-20.866667,55.416667,,5/13/1986,,,,,,1,,,0,,1,0,0,0,0,0,0,0,0,0,0,toxic fish bought outside Réunion,0,,Variola louti,,,,10/7/2017 4:09,,,LA REUNION,CFP (Ciguatera Fish Poisoning),,,,,,,,Gambierdiscus sp.,,,,,,,,,,,,,,,,,,,,
REU-16-002,2016,,,0,,NULL,,0,0,1,0,0,0,,0,0,Saint Pierre,-21.333056,55.466667,,7/23/2016,,,,,,1,,,0,,1,0,0,0,0,0,0,0,0,0,0,fish bought in Mauritius,0,,Snapper ?,,,,9/27/2017 2:00,9/27/2017 2:01,,LA REUNION,CFP (Ciguatera Fish Poisoning),,,,,,,,Gambierdiscus sp.,,,,,,,,,,,,,,,,,,,,
REU-16-001,2016,,,0,,NULL,,0,0,1,0,0,0,,0,0,Saint Pierre,-21.333333,55.466667,,12/19/2016,,,,,,1,,,0,,1,0,0,0,0,0,0,0,0,0,0,,0,,Variola louti,,,,9/27/2017 10:48,,,LA REUNION,CFP (Ciguatera Fish Poisoning),,,,,,,,Gambierdiscus sp.,,,,,,,,,,,,,,,,,,,,
REU-15-002,2015,,,0,,0,,0,0,1,0,0,0,,0,0,Saint Paul,-21,55.266667,,6/22/2015,,,,,,1,,,0,,1,0,0,0,0,0,0,0,0,0,0,"fish bought in Mauritius (3,5 kgs)",0,,grouper,,,,9/27/2017 1:55,9/27/2017 1:56,,LA REUNION,CFP (Ciguatera Fish Poisoning),,,,,,,,Geminigera sp.,,,,,,,,,,,,,,,,,,,,
REU-15-001,2015,,,0,,1,this species is regularly involved in CFP,0,0,1,0,0,0,,0,0,Saint Denis,-20.866667,55.45,,3/26/2015,,,,,,1,,,0,,1,0,0,0,0,0,0,0,0,0,0,"fish bought in Mauritius (3,5 kgs)",NULL,,Variola louti,,,,9/26/2017 4:44,9/26/2017 4:45,,LA REUNION,CFP (Ciguatera Fish Poisoning),,,,,,,,Gambierdiscus sp.,,,,,,,,,,,,,,,,,,,,
REU-14-001,2014,,,0,,1,this species is regularly involved in CFP,0,0,1,0,0,0,,0,0,Saint Denis,-20.866667,55.45,,6/5/2014,,,,,,1,,,0,,1,0,0,0,0,0,0,0,0,0,0,fish bought in Mauritius,NULL,,Variola louti,,,,9/26/2017 4:32,9/26/2017 4:47,,LA REUNION,CFP (Ciguatera Fish Poisoning),,,,,,,,Gambierdiscus sp.,,,,,,,,,,,,,,,,,,,,
REU-13-001,2013,,,0,,NULL,,0,0,1,0,0,0,,0,0,Saint Denis,-20.866667,55.45,,5/28/2013,,,,,,1,,,0,,1,0,0,0,0,0,0,0,0,0,0,,0,,grouper,,,,9/27/2017 1:49,,,LA REUNION,CFP (Ciguatera Fish Poisoning),,,,,,,,Gambierdiscus sp.,,,,,,,,,,,,,,,,,,,,
PHL-10-001,2010,,,1,,NULL,,0,0,1,0,0,0,,0,0,"Mina, Iloilo",,,,6/1/2010,,,,,June 2010 - no specific date,0,,,1,,1,0,0,0,0,0,0,0,0,0,0,,NULL,,red snapper,"Mendoza, C. O., A. C. Rabanes, E. C. Jimenez, R. V. Azanza, J. Cortez-Akhunzadah, and L. J. Cruz. 2010. Detection of ciguatera fish poisoning in the Philippines. Journal of Environmental Science and Management 1-2013:50-55",,,9/28/2017 2:57,,,PHILIPPINES,CFP (Ciguatera Fish Poisoning),,22 people with CFP,22 people with CFP,Used Mass spectrometer in this paper; also tested separately by the Bureau of Fisheries and Agriculture by Cigua-Check,LC-UV,1123.67 [M+H-H2O]+,Ciguatoxins,,,,,,,,,,,,,,,,,,,,,
PF-19-031,2019,Marquesas archipelago,,1,CFP monitoring programme of French Polynesia,1,,0,0,1,0,0,0,,0,0,NUKU HIVA,,,,4/10/2019,,,,,,0,,,0,,1,0,0,0,0,0,0,0,0,0,0,,NULL,,Variola louti,,,,4/16/2019 1:24,,,FRENCH POLYNESIA,CFP (Ciguatera Fish Poisoning),,,,,,,,,,,,,,,,,,,,,,,,,,,,
PF-19-030,2019,Marquesas archipelago,,1,CFP monitoring programme of French Polynesia,1,,0,0,1,0,0,0,,0,0,NUKU HIVA,,,,4/12/2019,,,,,,0,,,0,,1,0,0,0,0,0,0,0,0,0,0,,NULL,,Lutjanus bohar,,,,4/16/2019 1:23,,,FRENCH POLYNESIA,CFP (Ciguatera Fish Poisoning),,,,,,,,,,,,,,,,,,,,,,,,,,,,
PF-19-029,2019,Tuamotu archipelago,,1,CFP monitoring programme of French Polynesia,1,,0,0,1,0,0,0,,0,0,MAKATEA,,,,3/29/2019,,,,,,0,,,0,,1,0,0,0,0,0,0,0,0,0,0,,NULL,,Monotaxis granducolis,,,,4/11/2019 1:31,,,FRENCH POLYNESIA,CFP (Ciguatera Fish Poisoning),,,,,,,,,,,,,,,,,,,,,,,,,,,,
PF-19-028,2019,Tuamotu archipelago,,1,CFP monitoring programme of French Polynesia,1,,0,0,1,0,0,0,,0,0,MAKEMO,,,,1/3/2019,,,,,,0,,,0,,1,0,0,0,0,0,0,0,0,0,0,,NULL,,Lutjanus bohar,,,,4/11/2019 1:30,,,FRENCH POLYNESIA,CFP (Ciguatera Fish Poisoning),,,,,,,,,,,,,,,,,,,,,,,,,,,,
PF-19-027,2019,Tuamotu archipelago,,1,CFP monitoring programme of French Polynesia,1,,0,0,1,0,0,0,,0,0,MAKEMO,,,,4/8/2019,,,,,,0,,,0,,1,0,0,0,0,0,0,0,0,0,0,,NULL,,Plectropomus laevis,,,,4/11/2019 1:28,,,FRENCH POLYNESIA,CFP (Ciguatera Fish Poisoning),,,,,,,,,,,,,,,,,,,,,,,,,,,,
PF-19-026,2019,Tuamotu archipelago,,1,CFP monitoring programme of French Polynesia,1,,0,0,1,0,0,0,,0,0,HAO,,,,2/4/2019,,,,,,0,,,0,,1,0,0,0,0,0,0,0,0,0,0,,NULL,,Crenimugil crenilabis,,,,4/11/2019 1:28,,,FRENCH POLYNESIA,CFP (Ciguatera Fish Poisoning),,,,,,,,,,,,,,,,,,,,,,,,,,,,
PF-19-025,2019,Tuamotu archipelago,,1,CFP monitoring programme of French Polynesia,1,,0,0,1,0,0,0,,0,0,ARUTUA,,,,2/4/2019,,,,,,0,,,0,,1,0,0,0,0,0,0,0,0,0,0,,NULL,,Plectropomus laevis,,,,4/11/2019 1:26,,,FRENCH POLYNESIA,CFP (Ciguatera Fish Poisoning),,,,,,,,,,,,,,,,,,,,,,,,,,,,
PF-19-024,2019,Tuamotu archipelago,,1,CFP monitoring programme of French Polynesia,1,,0,0,1,0,0,0,,0,0,RARAKA,,,,3/18/2019,,,,,,0,,,0,,1,0,0,0,0,0,0,0,0,0,0,,NULL,,Epinephelus polyphekadion,,,,4/11/2019 1:25,,,FRENCH POLYNESIA,CFP (Ciguatera Fish Poisoning),,,,,,,,,,,,,,,,,,,,,,,,,,,,
PF-19-023,2019,Tuamotu archipelago,,1,CFP monitoring programme of French Polynesia,1,,0,0,1,0,0,0,,0,0,ANAA,,,,2/22/2019,,,,,,0,,,0,,1,0,0,0,0,0,0,0,0,0,0,,NULL,,Balistidae,,,,4/11/2019 1:23,,,FRENCH POLYNESIA,CFP (Ciguatera Fish Poisoning),,,,,,,,,,,,,,,,,,,,,,,,,,,,
PF-19-022,2019,Tuamotu archipelago,,1,CFP monitoring programme of French Polynesia,1,,0,0,1,0,0,0,,0,0,APATAKI,,,,3/19/2019,,,,,,0,,,0,,1,0,0,0,0,0,0,0,0,0,0,,NULL,,Epinephelus polyphekadion,,,,4/11/2019 1:22,,,FRENCH POLYNESIA,CFP (Ciguatera Fish Poisoning),,,,,,,,,,,,,,,,,,,,,,,,,,,,
PF-19-021,2019,,,1,CFP monitoring programme of French Polynesia,1,,0,0,1,0,0,0,,0,0,TUAMOTU,,,,3/22/2019,,,,,,0,,,0,,1,0,0,0,0,0,0,0,0,0,0,,NULL,,Cephalopholis argus,,,,4/11/2019 1:21,,,FRENCH POLYNESIA,CFP (Ciguatera Fish Poisoning),,,,,,,,,,,,,,,,,,,,,,,,,,,,
PF-19-020,2019,Australes archipelago,,1,CFP monitoring programme of French Polynesia,1,,0,0,1,0,0,0,,0,0,RURUTU,,,,3/26/2019,,,,,,0,,,0,,1,0,0,0,0,0,0,0,0,0,0,,NULL,,Scarus altipinnis,,,,4/11/2019 1:20,,,FRENCH POLYNESIA,CFP (Ciguatera Fish Poisoning),,,,,,,,,,,,,,,,,,,,,,,,,,,,
PF-19-019,2019,Australes archipelago,,1,CFP monitoring programme of French Polynesia,1,,0,0,1,0,0,0,,0,0,RURUTU,,,,3/25/2019,,,,,,0,,,0,,1,0,0,0,0,0,0,0,0,0,0,,NULL,,Siganus argenteus,,,,4/11/2019 1:18,,,FRENCH POLYNESIA,CFP (Ciguatera Fish Poisoning),,,,,,,,,,,,,,,,,,,,,,,,,,,,
PF-19-018,2019,Australes archipelgo,,1,CFP monitoring programme of French Polynesia,1,,0,0,1,0,0,0,,0,0,RURUTU,,,,1/15/2019,,,,,,0,,,0,,1,0,0,0,0,0,0,0,0,0,0,,NULL,,Unknown,,,,4/11/2019 1:17,,,FRENCH POLYNESIA,CFP (Ciguatera Fish Poisoning),,,,,,,,,,,,,,,,,,,,,,,,,,,,
PF-19-017,2019,Australes archipelago,,1,CFP monitoring programme of French Polynesia,1,,0,0,1,0,0,0,,0,0,RAPA,,,,1/31/2019,,,,,,0,,,0,,1,0,0,0,0,0,0,0,0,0,0,,NULL,,Kyphosus vaigiensis,,,,4/11/2019 1:10,,,FRENCH POLYNESIA,CFP (Ciguatera Fish Poisoning),,,,,,,,,,,,,,,,,,,,,,,,,,,,
PF-19-016,2019,Australes archipelago,,1,CFP monitoring programme of French Polynesia,1,,0,0,1,0,0,0,,0,0,RAPA,,,,2/27/2019,,,,,,0,,,0,,1,0,0,0,0,0,0,0,0,0,0,,NULL,,Seriola lalandi,,,,4/11/2019 1:09,,,FRENCH POLYNESIA,CFP (Ciguatera Fish Poisoning),,,,,,,,,,,,,,,,,,,,,,,,,,,,
PF-19-015,2019,Australes archipelago,,1,CFP monitoring programme of French Polynesia,1,,0,0,1,0,0,0,,0,0,RAIVAVAE,,,,2/26/2019,,,,,,0,,,0,,1,0,0,0,0,0,0,0,0,0,0,,NULL,,Lutjanus fulvus,,,,4/11/2019 1:08,,,FRENCH POLYNESIA,CFP (Ciguatera Fish Poisoning),,,,,,,,,,,,,,,,,,,,,,,,,,,,
PF-19-014,2019,Marquesas archipelago,,1,CFP monitoring programme of French Polynesia,1,,0,0,1,0,0,0,,0,0,UA POU,,,,3/12/2019,,,,,,0,,,0,,1,0,0,0,0,0,0,0,0,0,0,,NULL,,Lutjanidae,,,,4/11/2019 1:06,,,FRENCH POLYNESIA,CFP (Ciguatera Fish Poisoning),,,,,,,,,,,,,,,,,,,,,,,,,,,,
PF-19-013,2019,Marquesas archipelago,,1,CFP monitoring programme of French Polynesia,1,,0,0,1,0,0,0,,0,0,UA POU,,,,1/10/2019,,,,,,0,,,0,,1,0,0,0,0,0,0,0,0,0,0,,NULL,,Lutjanus bohar,,,,4/11/2019 1:05,,,FRENCH POLYNESIA,CFP (Ciguatera Fish Poisoning),,,,,,,,,,,,,,,,,,,,,,,,,,,,
PF-19-012,2019,Marquesas archipelago,,1,CFP monitoring programme of French Polynesia,1,,0,0,1,0,0,0,,0,0,UA POU,,,,2/1/2019,,,,,,0,,,0,,1,0,0,0,0,0,0,0,0,0,0,,NULL,,Myripristis amena,,,,4/11/2019 1:04,,,FRENCH POLYNESIA,CFP (Ciguatera Fish Poisoning),,,,,,,,,,,,,,,,,,,,,,,,,,,,
PF-19-011,2019,Gambier archipelago,,0,CFP monitoring programme of French Polynesia,1,,0,0,1,0,0,0,,0,0,MANGAREVA,,,,4/8/2019,,,,,,0,,,0,,1,0,0,0,0,0,0,0,0,0,0,,NULL,,Scaridae,,,,4/11/2019 1:03,,,FRENCH POLYNESIA,CFP (Ciguatera Fish Poisoning),,,,,,,,,,,,,,,,,,,,,,,,,,,,
PF-19-010,2019,Gambier archipelago,,1,CFP monitoring programme of French Polynesia,1,,0,0,1,0,0,0,,0,0,MANGAREVA,,,,3/15/2019,,,,,,0,,,0,,1,0,0,0,0,0,0,0,0,0,0,,NULL,,Lutjanus fulvus,,,,4/11/2019 1:02,,,FRENCH POLYNESIA,CFP (Ciguatera Fish Poisoning),,,,,,,,,,,,,,,,,,,,,,,,,,,,
PF-19-009,2019,Gambier archipelago,,1,CFP monitoring programme of French Polynesia,1,,0,0,1,0,0,0,,0,0,MANGAREVA,,,,3/7/2019,,,,,,0,,,0,,1,0,0,0,0,0,0,0,0,0,0,,NULL,,Siganus argenteus,,,,4/11/2019 1:01,,,FRENCH POLYNESIA,CFP (Ciguatera Fish Poisoning),,,,,,,,,,,,,,,,,,,,,,,,,,,,
PF-19-008,2019,Gambier archipelago,,1,CFP monitoring programme of French Polynesia,1,,0,0,1,0,0,0,,0,0,MANGAREVA,,,,3/4/2019,,,,,,0,,,0,,1,0,0,0,0,0,0,0,0,0,0,,NULL,,Scaridae,,,,4/11/2019 12:51,,,FRENCH POLYNESIA,CFP (Ciguatera Fish Poisoning),,,,,,,,,,,,,,,,,,,,,,,,,,,,
PF-19-007,2019,Gambier archipelago,,1,CFP monitoring programme of French Polynesia,1,,0,0,1,0,0,0,,0,0,MANGAREVA,,,,2/24/2019,,,,,,0,,,0,,1,0,0,0,0,0,0,0,0,0,0,,NULL,,Scarus microrhinos and Myripristis amena,,,,4/11/2019 12:50,,,FRENCH POLYNESIA,CFP (Ciguatera Fish Poisoning),,,,,,,,,,,,,,,,,,,,,,,,,,,,
PF-19-006,2019,Society archipelago,,1,CFP monitoring programme of French Polynesia,1,,0,0,1,0,0,0,,0,0,MOOREA,,,,3/31/2019,,,,,,0,,,0,,1,0,0,0,0,0,0,0,0,0,0,,NULL,,Unknown,,,,4/11/2019 12:48,,,FRENCH POLYNESIA,CFP (Ciguatera Fish Poisoning),,,,,,,,,,,,,,,,,,,,,,,,,,,,
PF-19-005,2019,Society archipelago,,1,CFP monitoring programme of French Polynesia,1,,0,0,1,0,0,0,,0,0,RAIATEA,,,,2/10/2019,,,,,,0,,,1,CFP monitoring programme of French Polynesia,1,0,0,0,0,0,0,0,0,0,0,,NULL,,Ctenochaetus striatus,,,,4/11/2019 12:47,,,FRENCH POLYNESIA,CFP (Ciguatera Fish Poisoning),,,,,,,,,,,,,,,,,,,,,,,,,,,,
PF-19-004,2019,Society archipelago,,1,CFP monitoring programme of French Polynesia,1,,0,0,1,0,0,0,,0,0,TAHITI,,,,1/31/2019,,,,,,0,,,0,,1,0,0,0,0,0,0,0,0,0,0,,NULL,,,,,,4/11/2019 12:45,,,FRENCH POLYNESIA,CFP (Ciguatera Fish Poisoning),,,,,,,,,,,,,,,,,,,,,,,,,,,,
PF-19-003,2019,Society archipelago,,1,CFP monitoring programme of French Polynesia,1,,0,0,1,0,0,0,,0,0,TAHITI,,,,1/1/2019,,,,,,0,,,0,,1,0,0,0,0,0,0,0,0,0,0,,NULL,,Unknown,,,,4/11/2019 12:44,,,FRENCH POLYNESIA,CFP (Ciguatera Fish Poisoning),,,,,,,,,,,,,,,,,,,,,,,,,,,,
PF-19-002,2019,Society archipelago,,1,CFP monitoring programme of French Polynesia,1,,0,0,1,0,0,0,,0,0,TAHITI,,,,1/17/2019,,,,,,0,,,0,,1,0,0,0,0,0,0,0,0,0,0,,NULL,,Crenimugil crenilabis,,,,4/11/2019 12:43,,,FRENCH POLYNESIA,CFP (Ciguatera Fish Poisoning),,,,,,,,,,,,,,,,,,,,,,,,,,,,
PF-19-001,2019,Society archipelago,,1,CFP monitoring programme of French Polynesia,1,,0,0,1,0,0,0,,0,0,TAHITI,,,,1/18/2019,,,,,,0,,,0,,1,0,0,0,0,0,0,0,0,0,0,,NULL,,Lethrinidae,,,,4/11/2019 12:42,,,FRENCH POLYNESIA,CFP (Ciguatera Fish Poisoning),,,,,,,,,,,,,,,,,,,,,,,,,,,,
PF-18-118,2018,Tuamotu archipelago,,1,CFP monitoring programme of French Polynesia,1,,0,0,1,0,0,0,,0,0,ANAA,,,,2/16/2018,,,,,,0,,,1,,0,0,0,0,0,0,0,0,0,0,0,,NULL,,Lethrinidae,,,,2/20/2019 6:49,,,FRENCH POLYNESIA,CFP (Ciguatera Fish Poisoning),,,,,,,,,,,,,,,,,,,,,,,,,,,,
PF-18-117,2018,tUAMOTU ARCHIPELAGO,,1,CFP monitoring programme of French Polynesia,1,,0,0,1,0,0,0,,0,0,ANAA,,,,12/4/2018,,,,,,0,,,0,,1,0,0,0,0,0,0,0,0,0,0,,NULL,,Lutjanus monostigma,,,,2/20/2019 6:47,,,FRENCH POLYNESIA,CFP (Ciguatera Fish Poisoning),,,,,,,,,,,,,,,,,,,,,,,,,,,,
PF-18-116,2018,Australes archipelago,,1,CFP monitoring programme of French Polynesia,1,,0,0,1,0,0,0,,0,0,RAIVAVAE,,,,4/6/2018,,,,,,0,,,0,,1,0,0,0,0,0,0,0,0,0,0,,NULL,,Balistidae,,,,2/19/2019 10:04,,,FRENCH POLYNESIA,CFP (Ciguatera Fish Poisoning),,,,,,,,,,,,,,,,,,,,,,,,,,,,
PF-18-115,2018,Tuamotu archipelago,,1,CFP moniroting programme of French Polynesia,1,,0,0,1,0,0,0,,0,0,RANGIROA,,,,12/1/2018,,,,,,0,,,0,,1,0,0,0,0,0,0,0,0,0,0,,NULL,,Lethrinus xanthochilus,,,,2/5/2019 9:35,,,FRENCH POLYNESIA,CFP (Ciguatera Fish Poisoning),,,,,,,,,,,,,,,,,,,,,,,,,,,,
PF-18-114,2018,Society archipelago,,1,CFP moniroting programme of French Polynesia,1,,0,0,1,0,0,0,,0,0,TAHITI,,,,12/1/2018,,,,,,0,,,0,,1,0,0,0,0,0,0,0,0,0,0,,NULL,,Unknown,,,,2/5/2019 9:26,,,FRENCH POLYNESIA,CFP (Ciguatera Fish Poisoning),,,,,,,,,,,,,,,,,,,,,,,,,,,,
PF-18-113,2018,Australes archipelago,,1,CFP moniroting programme of French Polynesia,1,,0,0,1,0,0,0,,0,0,RAIVAVAE,,,,5/7/2018,,,,,,0,,,0,,1,0,0,0,0,0,0,0,0,0,0,,NULL,,Unknown,,,,2/5/2019 9:20,,,FRENCH POLYNESIA,CFP (Ciguatera Fish Poisoning),,,,,,,,,,,,,,,,,,,,,,,,,,,,
PF-18-112,2018,Society archipelago,,1,CFP moniroting programme of French Polynesia,1,,0,0,1,0,0,0,,0,0,TAHITI,,,,9/3/2018,,,,,,0,,,0,,1,0,0,0,0,0,0,0,0,0,0,,NULL,,Unknown,,,,2/5/2019 9:18,,,FRENCH POLYNESIA,CFP (Ciguatera Fish Poisoning),,,,,,,,,,,,,,,,,,,,,,,,,,,,
PF-18-111,2018,Society archipelago,,0,CFP moniroting programme of French Polynesia,1,,0,0,1,0,0,0,,0,0,RAIATEA,,,,11/14/2018,,,,,,0,,,0,,1,0,0,0,0,0,0,0,0,0,0,,NULL,,Naso lituratus,,,,2/5/2019 9:15,,,FRENCH POLYNESIA,CFP (Ciguatera Fish Poisoning),,,,,,,,,,,,,,,,,,,,,,,,,,,,
PF-18-110,2018,Tuamotu archipelago,,1,CFP monitoring programme of French Polynesia,NULL,,0,0,1,0,0,0,,0,0,ANAA,,,,12/8/2018,,,,,,0,,,0,,1,0,0,0,0,0,0,0,0,0,0,,NULL,,Scarus gobban,,,,2/5/2019 9:04,,,FRENCH POLYNESIA,CFP (Ciguatera Fish Poisoning),,,,,,,,,,,,,,,,,,,,,,,,,,,,
PF-18-109,2018,Australes archipelago,,1,CFP monitoring programme of french polynesie,1,,0,0,1,0,0,0,,0,0,RAIVAVAE,,,,5/13/2018,,,,,,0,,,0,,1,0,0,0,0,0,0,0,0,0,0,,NULL,,Cephalopholis argus,,,,1/22/2019 1:22,,,FRENCH POLYNESIA,CFP (Ciguatera Fish Poisoning),,,,,,,,,,,,,,,,,,,,,,,,,,,,
PF-18-108,2018,Society archipelago,,1,CFP monitoring programme of french polynesie,1,,0,0,1,0,0,0,,0,0,MOOREA,,,,5/4/2018,,,,,,0,,,0,,1,0,0,0,0,0,0,0,0,0,0,,NULL,,UNKNOWN,,,,1/22/2019 1:13,,,FRENCH POLYNESIA,CFP (Ciguatera Fish Poisoning),,,,,,,,,,,,,,,,,,,,,,,,,,,,
PF-18-107,2018,Society archipelago,,1,CFP monitoring programme of french polynesie,1,,0,0,1,0,0,0,,0,0,RAIATEA,,,,12/20/2018,,,,,,0,,,0,,1,0,0,0,0,0,0,0,0,0,0,,NULL,,Aprion virescens,,,,1/22/2019 1:02,,,FRENCH POLYNESIA,CFP (Ciguatera Fish Poisoning),,,,,,,,,,,,,,,,,,,,,,,,,,,,
PF-18-106,2018,Marquesas archipelago,,1,CFP monitoring programme of french polynesie,1,,0,0,1,0,0,0,,0,0,NUKU HIVA,,,,12/28/2018,,,,,,0,,,0,,1,0,0,0,0,0,0,0,0,0,0,,NULL,,Caranx ignobilis,,,,1/22/2019 12:53,,,FRENCH POLYNESIA,CFP (Ciguatera Fish Poisoning),,,,,,,,,,,,,,,,,,,,,,,,,,,,
PF-18-105,2018,Marquesas archipelago,,1,CFP monitoring programme of french polynesie,1,,0,0,1,0,0,0,,0,0,NUKU HIVA,,,,12/30/2018,,,,,,0,,,0,,1,0,0,0,0,0,0,0,0,0,0,,NULL,,Scaridae,,,,1/22/2019 12:47,,,FRENCH POLYNESIA,CFP (Ciguatera Fish Poisoning),,,,,,,,,,,,,,,,,,,,,,,,,,,,
PF-18-104,2018,Society archipelago,,1,CFP monitoring programme of french polynesie,1,,0,0,1,0,0,0,,0,0,RAIATEA,,,,12/20/2018,,,,,,0,,,0,,1,0,0,0,0,0,0,0,0,0,0,,NULL,,Lutjanus fulvus,,,,1/22/2019 12:45,,,FRENCH POLYNESIA,CFP (Ciguatera Fish Poisoning),,,,,,,,,,,,,,,,,,,,,,,,,,,,
PF-18-103,2018,Tuamotu archipelago,,1,CFP monitoring programme of french polynesie,1,,0,0,1,0,0,0,,0,0,MAKEMO,,,,1/3/2019,,,,,,0,,,0,,1,0,0,0,0,0,0,0,0,0,0,,NULL,,Lutjanus bohar,,,,1/22/2019 12:38,,,FRENCH POLYNESIA,CFP (Ciguatera Fish Poisoning),,,,,,,,,,,,,,,,,,,,,,,,,,,,
PF-18-102,2018,Society archipelago,,1,,1,,0,0,1,0,0,0,,0,0,TAHITI,,,,1/2/2019,,,,,,0,,,0,,1,0,0,0,0,0,0,0,0,0,0,,NULL,,Acanthurus xanthopterus,,,,1/22/2019 12:34,,,FRENCH POLYNESIA,CFP (Ciguatera Fish Poisoning),,,,,,,,,,,,,,,,,,,,,,,,,,,,
PF-18-101,2018,,,1,CFP monitoring programme of french polynesie,1,,0,0,1,0,0,0,,0,0,TAHITI,,,,10/14/2018,,,,,,0,,,0,,1,0,0,0,0,0,0,0,0,0,0,,NULL,,Lutjanus monostigma,,,,1/21/2019 11:52,,,FRENCH POLYNESIA,CFP (Ciguatera Fish Poisoning),,,,,,,,,,,,,,,,,,,,,,,,,,,,
PF-18-100,2018,Society archipelago,,1,CFP monitoring programme of french polynesie,1,,0,0,1,0,0,0,,0,0,HUAHINE,,,,9/21/2018,,,,,,0,,,0,,1,0,0,0,0,0,0,0,0,0,0,,NULL,,Sphyraena barracuda,,,,1/21/2019 11:45,,,FRENCH POLYNESIA,CFP (Ciguatera Fish Poisoning),,,,,,,,,,,,,,,,,,,,,,,,,,,,
PF-18-099,2018,Society archipelago,,1,CFP monitoring programme of french polynesie,1,,0,0,1,0,0,0,,0,0,TAHAA,,,,11/23/2018,,,,,,0,,,0,,1,0,0,0,0,0,0,0,0,0,0,,NULL,,Lethrinus obsoletus,,,,1/21/2019 11:44,,,FRENCH POLYNESIA,CFP (Ciguatera Fish Poisoning),,,,,,,,,,,,,,,,,,,,,,,,,,,,
PF-18-098,2018,Society archipelago,,1,CFP monitoring programme of french polynesie,1,,0,0,1,0,0,0,,0,0,TAHAA,,,,10/11/2018,,,,,,0,,,0,,1,0,0,0,0,0,0,0,0,0,0,,NULL,,Sphyraena barracuda,,,,1/21/2019 11:27,,,FRENCH POLYNESIA,CFP (Ciguatera Fish Poisoning),,,,,,,,,,,,,,,,,,,,,,,,,,,,
PF-18-097,2018,Society archipelago,,1,CFP monitoring programme of french polynesie,1,,0,0,1,0,0,0,,0,0,TAHAA,,,,8/23/2018,,,,,,0,,,0,,1,0,0,0,0,0,0,0,0,0,0,,NULL,,Lutjanus monostigma,,,,1/21/2019 11:22,,,FRENCH POLYNESIA,CFP (Ciguatera Fish Poisoning),,,,,,,,,,,,,,,,,,,,,,,,,,,,
PF-18-096,2018,Society archipelago,,1,CFP monitoring programme of french polynesie,1,,0,0,0,0,0,0,,0,0,RAIATEA,,,,12/8/2018,,,,,,0,,,0,,1,0,0,0,0,0,0,0,0,0,0,,NULL,,Scarus psittacus,,,,1/21/2019 11:19,,,FRENCH POLYNESIA,CFP (Ciguatera Fish Poisoning),,,,,,,,,,,,,,,,,,,,,,,,,,,,
PF-18-095,2018,Society archipelago,,1,CFP monitoring programme of french polynesie,1,,0,0,1,0,0,0,,0,0,RAIATEA,,,,10/17/2018,,,,,,0,,,0,,1,0,0,0,0,0,0,0,0,0,0,,NULL,,Sphyraena barracuda,,,,1/21/2019 11:16,,,FRENCH POLYNESIA,CFP (Ciguatera Fish Poisoning),,,,,,,,,,,,,,,,,,,,,,,,,,,,
PF-18-094,2018,Society archipelago,,1,CFP monitoring programme of french polynesie,1,,0,0,1,0,0,0,,0,0,MOOREA,,,,11/12/2018,,,,,,0,,,0,,1,0,0,0,0,0,0,0,0,0,0,,NULL,,Tridacna maxima,,,,1/21/2019 11:12,,,FRENCH POLYNESIA,CFP (Ciguatera Fish Poisoning),,,,,,,,,,,,,,,,,,,,,,,,,,,,
PF-18-093,2018,Society archipelago,,1,CFP monitoring programme of french polynesie,1,,0,0,1,0,0,0,,0,0,TAHITI,,,,11/25/2018,,,,,,0,,,0,,1,0,0,0,0,0,0,0,0,0,0,,NULL,,Lethrinidae,,,,1/21/2019 11:06,,,FRENCH POLYNESIA,CFP (Ciguatera Fish Poisoning),,,,,,,,,,,,,,,,,,,,,,,,,,,,
PF-18-092,2018,Society archipelago,,1,CFP monitoring programme of french polynesie,1,,0,0,1,0,0,0,,0,0,TAHITI,,,,11/11/2018,,,,,,0,,,0,,1,0,0,0,0,0,0,0,0,0,0,,NULL,,Plectropomus laevis,,,,1/21/2019 10:58,,,FRENCH POLYNESIA,CFP (Ciguatera Fish Poisoning),,,,,,,,,,,,,,,,,,,,,,,,,,,,
PF-18-091,2018,Tuamotu archipelago,,1,CFP monitoring programme of french polynesie,1,,0,0,1,0,0,0,,0,0,ARUTUA,,,,7/30/2018,,,,,,0,,,0,,1,0,0,0,0,0,0,0,0,0,0,,NULL,,Plectropomus laevis,,,,1/21/2019 10:56,,,FRENCH POLYNESIA,CFP (Ciguatera Fish Poisoning),,,,,,,,,,,,,,,,,,,,,,,,,,,,
PF-18-090,2018,Tuamotu archipelago,,1,CFP monitoring programme of french polynesie,1,,0,0,1,0,0,0,,0,0,REAO,,,,8/28/2018,,,,,,0,,,0,,1,0,0,0,0,0,0,0,0,0,0,,NULL,,Acanthurus achilles,,,,1/21/2019 10:52,,,FRENCH POLYNESIA,CFP (Ciguatera Fish Poisoning),,,,,,,,,,,,,,,,,,,,,,,,,,,,
PF-18-088,2018,Tuamotu archipelago,,1,CFP monitoring programme of french polynesie,1,,0,0,1,0,0,0,,0,0,REAO,,,,9/12/2018,,,,,,0,,,0,,1,0,0,0,0,0,0,0,0,0,0,,NULL,,Cheilinus undulatus,,,,1/21/2019 10:43,,,FRENCH POLYNESIA,CFP (Ciguatera Fish Poisoning),,,,,,,,,,,,,,,,,,,,,,,,,,,,
PF-18-087,2018,Tuamotu archipelago,,1,CFP monitoring programme of french polynesie,1,,0,0,1,0,0,0,,0,0,REAO,,,,9/14/2018,,,,,,0,,,0,,1,0,0,0,0,0,0,0,0,0,0,,NULL,,Cheilinus undulatus,,,,1/21/2019 10:42,,,FRENCH POLYNESIA,CFP (Ciguatera Fish Poisoning),,,,,,,,,,,,,,,,,,,,,,,,,,,,
PF-18-086,2018,,,1,CFP monitoring programme of french polynesie,1,,0,0,1,0,0,0,,0,0,HAO,,,,1/28/2018,,,,,,0,,,0,,1,0,0,0,0,0,0,0,0,0,0,,NULL,,Lutjanus monostigma,,,,1/21/2019 10:37,,,FRENCH POLYNESIA,CFP (Ciguatera Fish Poisoning),,,,,,,,,,,,,,,,,,,,,,,,,,,,
PF-18-085,2018,Tuamotu archipelago,,1,CFP monitoring programme of french polynesie,1,,0,0,1,0,0,0,,0,0,HAO,,,,9/22/2018,,,,,,0,,,0,,1,0,0,0,0,0,0,0,0,0,0,,NULL,,Plectropomus laevis,,,,1/21/2019 10:31,,,FRENCH POLYNESIA,CFP (Ciguatera Fish Poisoning),,,,,,,,,,,,,,,,,,,,,,,,,,,,
PF-18-084,2018,Tuamotu archipelago,,1,CFP monitoring programme of french polynesie,1,,0,0,1,0,0,0,,0,0,HAO,,,,11/6/2018,,,,,,0,,,0,,1,0,0,0,0,0,0,0,0,0,0,,NULL,,Plectropomus laevis,,,,1/21/2019 10:30,,,FRENCH POLYNESIA,CFP (Ciguatera Fish Poisoning),,,,,,,,,,,,,,,,,,,,,,,,,,,,
PF-18-083,2018,Tuamotu archipelago,,1,CFP monitoring programme of french polynesie,NULL,,0,0,1,0,0,0,,0,0,APATAKI,,,,1/20/2018,,,,,,0,,,0,,1,0,0,0,0,0,0,0,0,0,0,,NULL,,Cheilinus undulatus,,,,1/21/2019 10:21,,,FRENCH POLYNESIA,CFP (Ciguatera Fish Poisoning),,,,,,,,,,,,,,,,,,,,,,,,,,,,
PF-18-082,2018,Tuamotu archipelago,,1,CFP monitoring programme of french polynesie,1,,0,0,1,0,0,0,,0,0,APATAKI,,,,1/28/2018,,,,,,0,,,0,,1,0,0,0,0,0,0,0,0,0,0,,NULL,,Cheilinus undulatus,,,,1/21/2019 10:20,,,FRENCH POLYNESIA,CFP (Ciguatera Fish Poisoning),,,,,,,,,,,,,,,,,,,,,,,,,,,,
PF-18-081,2018,Tuamotu archipelago,,1,CFP monitoring programme of french polynesie,1,,0,0,1,0,0,0,,0,0,APATAKI,,,,11/11/2018,,,,,,0,,,0,,1,0,0,0,0,0,0,0,0,0,0,,NULL,,Cheilinus undulatus,,,,1/21/2019 10:13,,,FRENCH POLYNESIA,CFP (Ciguatera Fish Poisoning),,,,,,,,,,,,,,,,,,,,,,,,,,,,
PF-18-080,2018,Tuamotu archipelago,,1,,1,,0,0,1,0,0,0,,0,0,FAKARAVA,,,,11/27/2018,,,,,,0,,,0,,1,0,0,0,0,0,0,0,0,0,0,,NULL,,Caphalopholis argus,,,,1/21/2019 10:12,,,FRENCH POLYNESIA,CFP (Ciguatera Fish Poisoning),,,,,,,,,,,,,,,,,,,,,,,,,,,,
PF-18-079,2018,Tuamotu archipelago,,1,CFP monitoring programme of french polynesie,1,,0,0,1,0,0,0,,0,0,FAKARAVA,,,,11/25/2018,,,,,,0,,,0,,1,0,0,0,0,0,0,0,0,0,0,,NULL,,Priacanthus hamrur,,,,1/21/2019 10:07,,,FRENCH POLYNESIA,CFP (Ciguatera Fish Poisoning),,,,,,,,,,,,,,,,,,,,,,,,,,,,
PF-18-078,2018,Tuamotu archipelago,,1,CFP monitoring programme of french polynesie,1,,0,0,1,0,0,0,,0,0,FAKARAVA,,,,11/27/2018,,,,,,0,,,0,,1,0,0,0,0,0,0,0,0,0,0,,NULL,,Priacanthus hamrur,,,,1/21/2019 10:05,,,FRENCH POLYNESIA,CFP (Ciguatera Fish Poisoning),,,,,,,,,,,,,,,,,,,,,,,,,,,,
PF-18-077,2018,,,1,CFP monitoring programme of french polynesie,1,,0,0,1,0,0,0,,0,0,AHE,,,,8/22/2018,,,,,,0,,,0,,1,0,0,0,0,0,0,0,0,0,0,,NULL,,Cheilinus undulatus,,,,1/21/2019 9:59,,,FRENCH POLYNESIA,CFP (Ciguatera Fish Poisoning),,,,,,,,,,,,,,,,,,,,,,,,,,,,
PF-18-076,2018,Tuamotu archipelago,,1,CFP monitoring programme of french polynesie,1,,0,0,1,0,0,0,,0,0,AHE,,,,8/19/2018,,,,,,0,,,0,,1,0,0,0,0,0,0,0,0,0,0,,NULL,,Cheilinus undulatus,,,,1/21/2019 9:58,,,FRENCH POLYNESIA,CFP (Ciguatera Fish Poisoning),,,,,,,,,,,,,,,,,,,,,,,,,,,,
PF-18-075,2018,Tuamotu archipelago,,1,CFP monitoring programme of french polynesie,1,,0,0,1,0,0,0,,0,0,ANAA,,,,11/7/2018,,,,,,0,,,0,,1,0,0,0,0,0,0,0,0,0,0,,NULL,,Caranx melampygus,,,,1/21/2019 9:53,,,FRENCH POLYNESIA,CFP (Ciguatera Fish Poisoning),,,,,,,,,,,,,,,,,,,,,,,,,,,,
PF-18-074,2018,Tuamotu archipelago,,1,CFP monitoring programme of french polynesie,1,,0,0,1,0,0,0,,0,0,ANAA,,,,7/11/2018,,,,,,0,,,0,,1,0,0,0,0,0,0,0,0,0,0,,NULL,,Scaridae,,,,1/21/2019 9:49,,,FRENCH POLYNESIA,CFP (Ciguatera Fish Poisoning),,,,,,,,,,,,,,,,,,,,,,,,,,,,
PF-18-073,2018,Tuamotu archipelago,,1,,1,,0,0,1,0,0,0,,0,0,ANAA,,,,12/6/2018,,,,,,0,,,0,,1,0,0,0,0,0,0,0,0,0,0,,NULL,,Scaridae,,,,1/21/2019 9:46,,,FRENCH POLYNESIA,CFP (Ciguatera Fish Poisoning),,,,,,,,,,,,,,,,,,,,,,,,,,,,
PF-18-072,2018,Tuamotu archipelago,,1,CFP monitoring programme of french polynesie,1,,0,0,1,0,0,0,,0,0,PUKARUA,,,,6/30/2018,,,,,,0,,,0,,1,0,0,0,0,0,0,0,0,0,0,,NULL,,Lutjanus bohar,,,,1/21/2019 9:40,,,FRENCH POLYNESIA,CFP (Ciguatera Fish Poisoning),,,,,,,,,,,,,,,,,,,,,,,,,,,,
PF-18-071,2018,Tuamotu archipelago,,1,CFP monitoring programme of french polynesie,1,,0,0,1,0,0,0,,0,0,MAKEMO,,,,8/21/2018,,,,,,0,,,0,,1,0,0,0,0,0,0,0,0,0,0,,NULL,,Plectropomus laevis,,,,1/21/2019 9:30,,,FRENCH POLYNESIA,CFP (Ciguatera Fish Poisoning),,,,,,,,,,,,,,,,,,,,,,,,,,,,
PF-18-070,2018,Australes archipelago,,1,CFP monitoring programme of french polynesia,1,,0,0,1,0,0,0,,0,0,RURUTU,,,,9/16/2018,,,,,,0,,,0,,1,0,0,0,0,0,0,0,0,0,0,,NULL,,Plectropomus laevis,,,,1/18/2019 10:04,,,FRENCH POLYNESIA,CFP (Ciguatera Fish Poisoning),,,,,,,,,,,,,,,,,,,,,,,,,,,,
PF-18-069,2018,Australes archipelago,,1,CFP monitoring programme of french polynesia,1,,0,0,1,0,0,0,,0,0,RURUTU,,,,10/1/2018,,,,,,0,,,0,,1,0,0,0,0,0,0,0,0,0,0,,NULL,,Lethrinidae,,,,1/18/2019 10:03,,,FRENCH POLYNESIA,CFP (Ciguatera Fish Poisoning),,,,,,,,,,,,,,,,,,,,,,,,,,,,
PF-18-068,2018,Australes archipelago,,1,CFP monitoring programme of french polynesia,1,,0,0,1,0,0,0,,0,0,RURUTU,,,,10/13/2018,,,,,,0,,,0,,1,0,0,0,0,0,0,0,0,0,0,,NULL,,UNKOWN,,,,1/18/2019 10:02,,,FRENCH POLYNESIA,CFP (Ciguatera Fish Poisoning),,,,,,,,,,,,,,,,,,,,,,,,,,,,
PF-18-067,2018,Marquesas archipelago,,1,CFP monitoring programme of french polynesia,1,,0,0,1,0,0,0,,0,0,NUKU HIVA,,,,11/1/2018,,,,,,0,,,0,,1,0,0,0,0,0,0,0,0,0,0,,NULL,,Caranx lugubris,,,,1/18/2019 9:34,,,FRENCH POLYNESIA,CFP (Ciguatera Fish Poisoning),,,,,,,,,,,,,,,,,,,,,,,,,,,,
PF-18-066,2018,Marquesas archipelago,,1,CFP monitoring programme of french polynesia,1,,0,0,1,0,0,0,,0,0,NUKU HIVA,,,,11/3/2018,,,,,,0,,,0,,1,0,0,0,0,0,0,0,0,0,0,,NULL,,Cephalopholis sexmaculata,,,,1/18/2019 9:33,,,FRENCH POLYNESIA,CFP (Ciguatera Fish Poisoning),,,,,,,,,,,,,,,,,,,,,,,,,,,,
PF-18-065,2018,Marquesas archipelago,,1,CFP monitoring programme of french polynesia,1,,0,0,1,0,0,0,,0,0,NUKU HIVA,,,,11/5/2018,,,,,,0,,,0,,1,0,0,0,0,0,0,0,0,0,0,,NULL,,Naso lituratus,,,,1/18/2019 9:32,,,FRENCH POLYNESIA,CFP (Ciguatera Fish Poisoning),,,,,,,,,,,,,,,,,,,,,,,,,,,,
PF-18-064,2018,Marquesas archipelago,,1,CFP monitoring programme of french polynesia,1,,0,0,1,0,0,0,,0,0,NUKU HIVA,,,,10/16/2018,,,,,,0,,,0,,1,0,0,0,0,0,0,0,0,0,0,,NULL,,Sphyraena barracuda,,,,1/18/2019 9:31,,,FRENCH POLYNESIA,CFP (Ciguatera Fish Poisoning),,,,,,,,,,,,,,,,,,,,,,,,,,,,
PF-18-063,2018,Marquesas archipelago,,1,CFP monitoring programme of french polynesia,1,,0,0,1,0,0,0,,0,0,NUKU HIVA,,,,10/7/2018,,,,,,0,,,0,,1,0,0,0,0,0,0,0,0,0,0,,NULL,,Lutjanus gibbus,,,,1/18/2019 9:30,,,FRENCH POLYNESIA,CFP (Ciguatera Fish Poisoning),,,,,,,,,,,,,,,,,,,,,,,,,,,,
PF-18-062,2018,Marquesas archipelago,,1,CFP monitoring programme of french polynesia,NULL,,0,0,1,0,0,0,,0,0,NUKU HIVA,,,,7/4/2018,,,,,,0,,,0,,1,0,0,0,0,0,0,0,0,0,0,,NULL,,UNKOWN,,,,1/18/2019 9:29,,,FRENCH POLYNESIA,CFP (Ciguatera Fish Poisoning),,,,,,,,,,,,,,,,,,,,,,,,,,,,
PF-18-061,2018,Marquesas archipelago,,1,CFP monitoring programme of french polynesia,1,,0,0,1,0,0,0,,0,0,EIAO,,,,9/29/2018,,,,,,0,,,0,,1,0,0,0,0,0,0,0,0,0,0,,NULL,,Caranx melampygus,,,,1/18/2019 9:22,,,FRENCH POLYNESIA,CFP (Ciguatera Fish Poisoning),,,,,,,,,,,,,,,,,,,,,,,,,,,,
PF-18-060,2018,Marquesas archipelago,,1,CFP monitoring programme of french polynesia,1,,0,0,1,0,0,0,,0,0,HIVA OA,,,,9/12/2018,,,,,,0,,,0,,1,0,0,0,0,0,0,0,0,0,0,,NULL,,UNKOWN,,,,1/18/2019 9:14,,,FRENCH POLYNESIA,CFP (Ciguatera Fish Poisoning),,,,,,,,,,,,,,,,,,,,,,,,,,,,
PF-18-059,2018,Marquesas archipelago,,1,CFP monitoring programme of french polynesia,1,,0,0,1,0,0,0,,0,0,HIVA OA,,,,6/20/2018,,,,,,0,,,0,,1,0,0,0,0,0,0,0,0,0,0,,NULL,,UNKOWN,,,,1/18/2019 9:09,,,FRENCH POLYNESIA,CFP (Ciguatera Fish Poisoning),,,,,,,,,,,,,,,,,,,,,,,,,,,,
PF-18-058,2018,Marquesas archipelago,,0,CFP monitoring programme of french polynesia,1,,0,0,1,0,0,0,,0,0,HIVA OA,,,,8/30/2018,,,,,,0,,,0,,1,0,0,0,0,0,0,0,0,0,0,,NULL,,Lutjanus bohar,,,,1/18/2019 9:06,,,FRENCH POLYNESIA,CFP (Ciguatera Fish Poisoning),,,,,,,,,,,,,,,,,,,,,,,,,,,,
PF-18-057,2018,Marquesas archipelago,,1,CFP monitoring programme of french polynesia,1,,0,0,1,0,0,0,,0,0,HIVA OA,,,,8/15/2018,,,,,,0,,,0,,1,0,0,0,0,0,0,0,0,0,0,,NULL,,Lutjanus gibbus,,,,1/18/2019 9:04,,,FRENCH POLYNESIA,CFP (Ciguatera Fish Poisoning),,,,,,,,,,,,,,,,,,,,,,,,,,,,
PF-18-056,2018,Marquesas archipelago,,1,CFP monitoring programme of french polynesia,1,,0,0,1,0,0,0,,0,0,UA POU,,,,8/9/2018,,,,,,0,,,0,,1,0,0,0,0,0,0,0,0,0,0,,NULL,,Acanthuridae,,,,1/18/2019 8:50,,,FRENCH POLYNESIA,CFP (Ciguatera Fish Poisoning),,,,,,,,,,,,,,,,,,,,,,,,,,,,
PF-18-055,2018,Marquesas archipelago,,1,CFP monitoring programme of french polynesia,1,,0,0,1,0,0,0,,0,0,UA POU,,,,7/20/2018,,,,,,0,,,0,,1,0,0,0,0,0,0,0,0,0,0,,NULL,,UNKOWN,,,,1/18/2019 8:49,,,FRENCH POLYNESIA,CFP (Ciguatera Fish Poisoning),,,,,,,,,,,,,,,,,,,,,,,,,,,,
PF-18-054,2018,Gambier archipelago,,0,CFP monitoring programme of french polynesia,1,,0,0,1,0,0,0,,0,0,MANGAREVA,,,,7/15/2018,,,,,,0,,,0,,1,0,0,0,0,0,0,0,0,0,0,,NULL,,UNKOWN,,,,1/18/2019 8:44,,,FRENCH POLYNESIA,CFP (Ciguatera Fish Poisoning),,,,,,,,,,,,,,,,,,,,,,,,,,,,
PF-18-053,2018,Gambier archipelago,,1,CFP monitoring programme of french polynesia,1,,0,0,1,0,0,0,,0,0,MANGAREVA,,,,7/25/2018,,,,,,0,,,0,,1,0,0,0,0,0,0,0,0,0,0,,NULL,,Cephalopholis argus,,,,1/18/2019 8:35,,,FRENCH POLYNESIA,CFP (Ciguatera Fish Poisoning),,,,,,,,,,,,,,,,,,,,,,,,,,,,
PF-18-052,2018,society archipelago,,1,CFP monitoring programme of french polynesia,NULL,,0,0,1,0,0,0,,0,0,,,,,8/14/2018,,,,,,0,,,0,,1,0,0,0,0,0,0,0,0,0,0,,NULL,,UNKOWN,,,,1/18/2019 8:29,,,FRENCH POLYNESIA,CFP (Ciguatera Fish Poisoning),,,,,,,,,,,,,,,,,,,,,,,,,,,,
PF-18-051,2018,Tuamotu archipelago,,1,CFP monitoring programme of french polynesia,1,,0,0,1,0,0,0,,0,0,,,,,8/2/2018,,,,,,0,,,0,,1,0,0,0,0,0,0,0,0,0,0,,NULL,,UNKOWN,,,,1/18/2019 8:27,,,FRENCH POLYNESIA,CFP (Ciguatera Fish Poisoning),,,,,,,,,,,,,,,,,,,,,,,,,,,,
PF-18-050,2018,,,1,CFP monitoring programme of french polynesia,1,,0,0,1,0,0,0,,0,0,,,,,1/28/2018,,,,,,0,,,0,,1,0,0,0,0,0,0,0,0,0,0,,NULL,,Cephalopholis argus,,,,1/18/2019 7:58,,,FRENCH POLYNESIA,CFP (Ciguatera Fish Poisoning),,,,,,,,,,,,,,,,,,,,,,,,,,,,
PF-18-049,2018,SOCIETY archipelago,,1,CFP monitoring programme of french polynesia,1,,0,0,1,0,0,0,,0,0,TAHITI,,,,8/1/2018,,,,,,0,,,0,,1,0,0,0,0,0,0,0,0,0,0,,NULL,,Lutjanus rivulatus,,,,1/18/2019 7:53,,,FRENCH POLYNESIA,CFP (Ciguatera Fish Poisoning),,,,,,,,,,,,,,,,,,,,,,,,,,,,
PF-18-048,2018,Australes archipelago,,1,CFP monitoring programme of French Polynesia,1,,0,0,1,0,0,0,,0,0,RAPA,,,,5/18/2018,,,,,,0,,,0,,1,0,0,0,0,0,0,0,0,0,0,,NULL,,Epinephelus tauvina,,,,6/27/2018 7:25,,,FRENCH POLYNESIA,CFP (Ciguatera Fish Poisoning),,,,,,,,,,,,,,,,,,,,,,,,,,,,
PF-18-047,2018,Society archipelago,,1,CFP monitoring programme of French Polynesia,1,,0,0,1,0,0,0,,0,0,,,,,5/27/2018,,,,,,0,,,0,,1,0,0,0,0,0,0,0,0,0,0,,NULL,,Balistidae,,,,6/27/2018 7:23,,,FRENCH POLYNESIA,CFP (Ciguatera Fish Poisoning),,,,,,,,,,,,,,,,,,,,,,,,,,,,
PF-18-046,2018,Society archipelago,,1,CFP monitoring programme of French Polynesia,1,,0,0,1,0,0,0,,0,0,MOOREA,,,,5/4/2018,,,,,,0,,,0,,1,0,0,0,0,0,0,0,0,0,0,,NULL,,Unknown,,,,6/27/2018 7:22,,,FRENCH POLYNESIA,CFP (Ciguatera Fish Poisoning),,,,,,,,,,,,,,,,,,,,,,,,,,,,
PF-18-045,2018,Marquesas archipelago,,1,CFP monitoring programme of French Polynesia,1,,0,0,1,0,0,0,,0,0,,,,,5/23/2018,,,,,,0,,,0,,1,0,0,0,0,0,0,0,0,0,0,,NULL,,Unknown,,,,6/27/2018 7:20,,,FRENCH POLYNESIA,CFP (Ciguatera Fish Poisoning),,,,,,,,,,,,,,,,,,,,,,,,,,,,
PF-18-044,2018,Australes archipelago,,1,CFP monitoring programme of French Polynesia,1,,0,0,1,0,0,0,,0,0,RURUTU,,,,5/13/2018,,,,,,0,,,0,,1,0,0,0,0,0,0,0,0,0,0,,NULL,,Epinephelus hexagonatus,,,,6/27/2018 7:17,,,FRENCH POLYNESIA,CFP (Ciguatera Fish Poisoning),,,,,,,,,,,,,,,,,,,,,,,,,,,,
PF-18-043,2018,Marquesas archipelago,,1,CFP monitoring programme of French Polynesia,1,,0,0,1,0,0,0,,0,0,NUKU HIVA,,,,6/12/2018,,,,,,0,,,0,,1,0,0,0,0,0,0,0,0,0,0,,NULL,,Variola louti,,,,6/27/2018 7:15,,,FRENCH POLYNESIA,CFP (Ciguatera Fish Poisoning),,,,,,,,,,,,,,,,,,,,,,,,,,,,
PF-18-042,2018,Tuamotu archipelago,,1,CFP monitoring programme of French Polynesia monitoring programme of French Polynesia,1,,0,0,1,0,0,0,,0,0,MANIHI,,,,,,,,,,0,,,0,,1,0,0,0,0,0,0,0,0,0,0,,NULL,,Unknown,,,,6/27/2018 7:13,,,FRENCH POLYNESIA,CFP (Ciguatera Fish Poisoning),,,,,,,,,,,,,,,,,,,,,,,,,,,,
PF-18-041,2018,Australes archipelago,,1,CFP monitoring programme of French Polynesia,1,,0,0,1,0,0,0,,0,0,RAPA,,,,5/18/2018,,,,,,0,,,0,,1,0,0,0,0,0,0,0,0,0,0,,NULL,,Pseudocaranx dentex,,,,6/8/2018 2:57,,,FRENCH POLYNESIA,CFP (Ciguatera Fish Poisoning),,,,,,,,,,,,,,,,,,,,,,,,,,,,
PF-18-040,2018,Australes archipelago,,1,CFP monitoring programme of French Polynesia,1,,0,0,1,0,0,0,,0,0,RAPA,,,,5/18/2018,,,,,,0,,,0,,1,0,0,0,0,0,0,0,0,0,0,,NULL,,Epinephelus tauvina,,,,6/8/2018 2:55,,,FRENCH POLYNESIA,CFP (Ciguatera Fish Poisoning),,,,,,,,,,,,,,,,,,,,,,,,,,,,
PF-18-039,2018,Australes archipelago,,1,CFP monitoring programme of French Polynesia,1,,0,0,1,0,0,0,,0,0,RAPA,,,,3/22/2018,,,,,,0,,,0,,1,0,0,0,0,0,0,0,0,0,0,,NULL,,Serranidae,,,,6/8/2018 2:53,,,FRENCH POLYNESIA,CFP (Ciguatera Fish Poisoning),,,,,,,,,,,,,,,,,,,,,,,,,,,,
PF-18-038,2018,Marquesas archipe,,1,CFP monitoring programme of French Polynesia,1,,0,0,1,0,0,0,,0,0,NUKU HIVA,,,,5/22/2018,,,,,,0,,,0,,1,0,0,0,0,0,0,0,0,0,0,,NULL,,Chlorurus microrhinos,,,,6/8/2018 2:52,,,FRENCH POLYNESIA,CFP (Ciguatera Fish Poisoning),,,,,,,,,,,,,,,,,,,,,,,,,,,,
PF-18-037,2018,Tuamotu archipelago,,1,CFP monitoring programme of French Polynesia,1,,0,0,1,0,0,0,,0,0,MAKEMO,,,,5/16/2018,,,,,,0,,,0,,1,0,0,0,0,0,0,0,0,0,0,,NULL,,Aprion virescens,,,,6/8/2018 2:49,,,FRENCH POLYNESIA,CFP (Ciguatera Fish Poisoning),,,,,,,,,,,,,,,,,,,,,,,,,,,,
PF-18-036,2018,Marquesas archi,,1,CFP monitoring programme of French Polynesia,1,,0,0,1,0,0,0,,0,0,HIVA OA,,,,5/8/2018,,,,,,0,,,0,,1,0,0,0,0,0,0,0,0,0,0,,NULL,,Plectropomus laevi,,,,6/8/2018 2:48,,,FRENCH POLYNESIA,CFP (Ciguatera Fish Poisoning),,,,,,,,,,,,,,,,,,,,,,,,,,,,
PF-18-035,2018,Marquesas archipelago,,1,CFP monitoring programme of French Polynesia,1,,0,0,1,0,0,0,,0,0,TAHUATA,,,,5/6/2018,,,,,,0,,,0,,1,0,0,0,0,0,0,0,0,0,0,,NULL,,Plectropomus laevis,,,,6/8/2018 2:46,,,FRENCH POLYNESIA,CFP (Ciguatera Fish Poisoning),,,,,,,,,,,,,,,,,,,,,,,,,,,,
PF-18-034,2018,Marquesas archipelago,,1,CFP monitoring programme of French Polynesia,1,,0,0,1,0,0,0,,0,0,HIVA OA,,,,5/20/2018,,,,,,0,,,0,,1,0,0,0,0,0,0,0,0,0,0,,NULL,,?,,,,6/8/2018 2:45,,,FRENCH POLYNESIA,CFP (Ciguatera Fish Poisoning),,,,,,,,,,,,,,,,,,,,,,,,,,,,
PF-18-033,2018,Marquesas archipelago,,1,CFP monitoring programme of French Polynesia,1,,0,0,1,0,0,0,,0,0,HIVA OA,,,,6/4/2018,,,,,,0,,,0,,1,0,0,0,0,0,0,0,0,0,0,,NULL,,Lutjanus bohar,,,,6/8/2018 2:43,,,FRENCH POLYNESIA,CFP (Ciguatera Fish Poisoning),,,,,,,,,,,,,,,,,,,,,,,,,,,,
PF-18-032,2018,Society archipelago,,1,CFP monitoring programme of French Polynesia,1,,0,0,1,0,0,0,,0,0,TAHITI,,,,5/27/2018,,,,,,0,,,0,,1,0,0,0,0,0,0,0,0,0,0,,NULL,,Balistidae,,,,6/8/2018 2:41,,,FRENCH POLYNESIA,CFP (Ciguatera Fish Poisoning),,,,,,,,,,,,,,,,,,,,,,,,,,,,
PF-18-031,2018,Tuamotu archipelago,,1,CFP monitoring programme of French Polynesia,1,,0,0,1,0,0,0,,0,0,RANGIROA,,,,6/3/2018,,,,,,0,,,0,,1,0,0,0,0,0,0,0,0,0,0,,NULL,,Carangidae,,,,6/8/2018 2:40,,,FRENCH POLYNESIA,CFP (Ciguatera Fish Poisoning),,,,,,,,,,,,,,,,,,,,,,,,,,,,
PF-18-030,2018,Australes archipelago,,1,CFP monitoring programme of French Polynesia,1,,0,0,1,0,0,0,,0,0,RURUTU,,,,5/13/2018,,,,,,0,,,0,,1,0,0,0,0,0,0,0,0,0,0,,NULL,,Epinephelus merra,,,,6/8/2018 2:38,,,FRENCH POLYNESIA,CFP (Ciguatera Fish Poisoning),,,,,,,,,,,,,,,,,,,,,,,,,,,,
PF-18-029,2018,Tuamotu archipelago,,1,CFP monitoring programme of French Polynesia,1,,0,0,1,0,0,0,,0,0,ANAA,,,,5/26/2018,,,,,,0,,,0,,1,0,0,0,0,0,0,0,0,0,0,,NULL,,Epinephelus tauvina,,,,6/8/2018 2:36,,,FRENCH POLYNESIA,CFP (Ciguatera Fish Poisoning),,,,,,,,,,,,,,,,,,,,,,,,,,,,
PF-18-028,2018,Marquesas archipelago,,1,CFP monitoring programme of French Polynesia,NULL,,0,0,1,0,0,0,,0,0,,,,,5/16/2018,,,,,,0,,,0,,1,0,0,0,0,0,0,0,0,0,0,,NULL,,Sphyraena barracuda,,,,6/8/2018 2:34,,,FRENCH POLYNESIA,CFP (Ciguatera Fish Poisoning),,,,,,,,,,,,,,,,,,,,,,,,,,,,
PF-18-027,2018,Australes archipelago,,1,CFP monitoring programme of French Polynesia,1,,0,0,1,0,0,0,,0,0,RAPA,,,,5/13/2018,,,,,,0,,,0,,1,0,0,0,0,0,0,0,0,0,0,,NULL,,Cephalopholis argus,,,,6/8/2018 2:29,,,FRENCH POLYNESIA,CFP (Ciguatera Fish Poisoning),,,,,,,,,,,,,,,,,,,,,,,,,,,,
PF-18-026,2018,Marquesas archipelago,,1,CFP monitoring programme of French Polynesia,1,,0,0,1,0,0,0,,0,0,NUKU HIVA,,,,4/26/2018,,,,,,0,,,0,,1,0,0,0,0,0,0,0,0,0,0,,NULL,,Lutjanus bohar,,,,5/1/2018 1:24,,,FRENCH POLYNESIA,CFP (Ciguatera Fish Poisoning),,,,,,,,,,,,,,,,,,,,,,,,,,,,
PF-18-025,2018,Marquesas archipelago,,1,CFP monitoring programme of French polynesia,1,,0,0,1,0,0,0,,0,0,NUKU HIVA,,,,4/16/2018,,,,,,0,,,0,,1,0,0,0,0,0,0,0,0,0,0,,NULL,,Lutjanus bohar,,,,4/19/2018 2:10,,,FRENCH POLYNESIA,CFP (Ciguatera Fish Poisoning),,,,,,,,,,,,,,,,,,,,,,,,,,,,
PF-18-024,2018,Tuamotu archipelago,,1,CFP monitoring programme of French Polynesia,1,,0,0,1,0,0,0,,0,0,APATAKI,,,,4/17/2018,,,,,,0,,,0,,1,0,0,0,0,0,0,0,0,0,0,,NULL,,lethrinus miniatus,,,,4/19/2018 2:08,,,FRENCH POLYNESIA,CFP (Ciguatera Fish Poisoning),,,,,,,,,,,,,,,,,,,,,,,,,,,,
PF-18-023,2018,Marquesas archipelago,,1,CFP moniroting programme of French Polynesia,1,,0,0,1,0,0,0,,0,0,NUKU HIVA,,,,4/15/2018,,,,,,0,,,0,,1,0,0,0,0,0,0,0,0,0,0,,NULL,,Crenimugil crenilabis,,,,4/17/2018 10:08,,,FRENCH POLYNESIA,CFP (Ciguatera Fish Poisoning),,,,,,,,,,,,,,,,,,,,,,,,,,,,
PF-18-022,2018,Marquesas archipelago,,1,CFP monitoring programme of French Polynesia,1,,0,0,1,0,0,0,,0,0,NUKU HIVA,,,,4/16/2018,,,,,,0,,,0,,1,0,0,0,0,0,0,0,0,0,0,,NULL,,Chanos chanos,,,,4/17/2018 10:06,,,FRENCH POLYNESIA,CFP (Ciguatera Fish Poisoning),,,,,,,,,,,,,,,,,,,,,,,,,,,,
PF-18-021,2018,Australes archipelago,,1,CFP monitoring programme of French Polynesia,1,,0,0,1,0,0,0,,0,0,RAPA,,,,4/12/2018,,,,,,0,,,0,,1,0,0,0,0,0,0,0,0,0,0,,NULL,,Seriola lalandi,,,,4/17/2018 10:00,,,FRENCH POLYNESIA,CFP (Ciguatera Fish Poisoning),,,,,,,,,,,,,,,,,,,,,,,,,,,,
PF-18-020,2018,Australes archipelago,,1,CFP monitoring programme of French Polynesia,1,,0,0,1,0,0,0,,0,0,RAIVAVAE,,,,4/14/2018,,,,,,0,,,0,,1,0,0,0,0,0,0,0,0,0,0,,NULL,,Naso unicornis,,,,4/17/2018 9:59,,,FRENCH POLYNESIA,CFP (Ciguatera Fish Poisoning),,,,,,,,,,,,,,,,,,,,,,,,,,,,
PF-18-019,2018,Tuamotu archipelago,,1,CFP monitoring progamme of French Polynesia,1,,0,0,1,0,0,0,,0,0,FAAITE,,,,3/21/2018,,,,,,0,,,0,,1,0,0,0,0,0,0,0,0,0,0,,NULL,,Priacanthus hamrur,,,,4/17/2018 9:57,,,FRENCH POLYNESIA,CFP (Ciguatera Fish Poisoning),,,,,,,,,,,,,,,,,,,,,,,,,,,,
PF-18-018,2018,Tuamotu archipelago,,1,CFP monitoring programme of French Polynesia,1,,0,0,1,0,0,0,,0,0,,,,,3/19/2018,,,,,,0,,,0,,1,0,0,0,0,0,0,0,0,0,0,,NULL,,Unknown,,,,3/27/2018 12:55,,,FRENCH POLYNESIA,CFP (Ciguatera Fish Poisoning),,,,,,,,,,,,,,,,,,,,,,,,,,,,
PF-18-017,2018,Society archipelago,,1,CFP monitoring programme of French Polynesia,1,,0,0,1,0,0,0,,0,0,MOOREA,,,,2/19/2018,,,,,,0,,,0,,1,0,0,0,0,0,0,0,0,0,0,,NULL,,Unknown,,,,3/27/2018 12:32,,,FRENCH POLYNESIA,CFP (Ciguatera Fish Poisoning),,,,,,,,,,,,,,,,,,,,,,,,,,,,
PF-18-016,2018,Australes archipelago,,1,CFP monitoring programme of French Polynesia,1,,0,0,1,0,0,0,,0,0,TUBUAI,,,,3/5/2018,,,,,,0,,,1,,0,0,0,0,0,0,0,0,0,0,0,,NULL,,Carangidae,,,,3/27/2018 12:28,,,FRENCH POLYNESIA,CFP (Ciguatera Fish Poisoning),,,,,,,,,,,,,,,,,,,,,,,,,,,,
PF-18-015,2018,Tuamotu archipelago,,1,CFP monitoring programme of French Polynesia,1,,0,0,1,0,0,0,,0,0,MAKEMO,,,,3/3/2018,,,,,,0,,,0,,1,0,0,0,0,0,0,0,0,0,0,,NULL,,Plectropomus laevis,,,,3/27/2018 12:25,,,FRENCH POLYNESIA,CFP (Ciguatera Fish Poisoning),,,,,,,,,,,,,,,,,,,,,,,,,,,,
PF-18-014,2018,Marquesas archipelago,,1,CFP monitoring programme of French Polynesia,1,,0,0,1,0,0,0,,0,0,FATU HIVA,,,,2/18/2018,,,,,,0,,,0,,1,0,0,0,0,0,0,0,0,0,0,,NULL,,Balistidae,,,,3/27/2018 12:22,,,FRENCH POLYNESIA,CFP (Ciguatera Fish Poisoning),,,,,,,,,,,,,,,,,,,,,,,,,,,,
PF-18-013,2018,Tuamotu archipelago,,1,CFP monitoring programme of French Polynesia,1,,0,0,1,0,0,0,,0,0,HAO,,,,3/15/2018,,,,,,0,,,0,,1,0,0,0,0,0,0,0,0,0,0,,NULL,,Lutjanus monostigma,,,,3/26/2018 11:10,,,FRENCH POLYNESIA,CFP (Ciguatera Fish Poisoning),,,,,,,,,,,,,,,,,,,,,,,,,,,,
PF-18-012,2018,Australes archipelago,,1,CFP monitoring programme of French Polynesia,1,,0,0,1,0,0,0,,0,0,RIMATARA,,,,2/1/2018,,,,,,0,,,0,,1,0,0,0,0,0,0,0,0,0,0,,NULL,,Gymnothorax sp,,,,2/21/2018 7:48,,,FRENCH POLYNESIA,CFP (Ciguatera Fish Poisoning),,,,,,,,,,,,,,,,,,,,,,,,,,,,
PF-18-011,2018,Society archipelago,,1,CFP monitoring programme of French Polynesia,1,,0,0,1,0,0,0,,0,0,BORA BORA,,,,2/6/2018,,,,,,0,,,0,,1,0,0,0,0,0,0,0,0,0,0,,NULL,,Scarus rubroviolaceus,,,,2/21/2018 7:41,,,FRENCH POLYNESIA,CFP (Ciguatera Fish Poisoning),,,,,,,,,,,,,,,,,,,,,,,,,,,,
PF-18-010,2018,Marquesas archipelago,,0,CFP monitoring programme of French Polynesia,1,,0,0,1,0,0,0,,0,0,NUKU HIVA,,,,1/22/2018,,,,,,0,,,0,,1,0,0,0,0,0,0,0,0,0,0,,NULL,,Lutjanus gibbus,,,,2/21/2018 7:32,,,FRENCH POLYNESIA,CFP (Ciguatera Fish Poisoning),,,,,,,,,,,,,,,,,,,,,,,,,,,,
PF-18-009,2018,Marquesas archipelago,,1,CFP monitoring programme of French Polynesia,1,,0,0,1,0,0,0,,0,0,NUKU HIVA,,,,1/28/2018,,,,,,0,,,0,,1,0,0,0,0,0,0,0,0,0,0,,NULL,,Lutjanus bohar,,,,2/21/2018 7:31,,,FRENCH POLYNESIA,CFP (Ciguatera Fish Poisoning),,,,,,,,,,,,,,,,,,,,,,,,,,,,
PF-18-008,2018,Tuamotu archipelago,,1,CFP monitoring programme of French Polynesia,1,,0,0,1,0,0,0,,0,0,MAKEMO,,,,1/28/2018,,,,,,0,,,1,CFP monitoring programme of French Polynesia,1,0,0,0,0,0,0,0,0,0,0,,NULL,,Plectropomus laevis,,,,2/21/2018 7:23,,,FRENCH POLYNESIA,CFP (Ciguatera Fish Poisoning),,,,,,,,,,,,,,,,,,,,,,,,,,,,
PF-18-007,2018,Tuamotu archipelago,,1,CFP monitoring programme of French Polynesia,1,,0,0,1,0,0,0,,0,0,ARUTUA,,,,2/8/2018,,,,,,0,,,0,,1,0,0,0,0,0,0,0,0,0,0,,NULL,,Cheilinus undulatus,,,,2/21/2018 7:18,,,FRENCH POLYNESIA,CFP (Ciguatera Fish Poisoning),,,,,,,,,,,,,,,,,,,,,,,,,,,,
PF-18-006,2018,Tuamotu archipelago,,1,CFP monitoring programme of French Polynesia,1,,0,0,1,0,0,0,,0,0,,,,,2/12/2018,,,,,,0,,,0,,1,0,0,0,0,0,0,0,0,0,0,,NULL,,Lethrinus obsoletus,,,,2/21/2018 6:30,,,FRENCH POLYNESIA,CFP (Ciguatera Fish Poisoning),,,,,,,,,,,,,,,,,,,,,,,,,,,,
PF-18-005,2018,Tuamotu archipelago,,1,CFP monitoring programme of French Polynesia,1,,0,0,1,0,0,0,,0,0,ANAA,,,,1/27/2018,,,,,,0,,,0,,1,0,0,0,0,0,0,0,0,0,0,,NULL,,Caranx melampygus,,,,2/21/2018 6:23,,,FRENCH POLYNESIA,CFP (Ciguatera Fish Poisoning),,,,,,,,,,,,,,,,,,,,,,,,,,,,
PF-18-004,2018,Tuamotu archipelago,,1,CFP monitoring programme of French Polynesia,1,,0,0,1,0,0,0,,0,0,,,,,2/17/2018,,,,,,0,,,0,,1,0,0,0,0,0,0,0,0,0,0,,NULL,,Cephalopholis argus,,,,2/21/2018 6:17,,,FRENCH POLYNESIA,CFP (Ciguatera Fish Poisoning),,,,,,,,,,,,,,,,,,,,,,,,,,,,
PF-18-003,2018,Marquesas archipelago,,1,CFP moniroting programme of French Polynesia,1,,0,0,1,0,0,0,,0,0,TAHUATA,,,,1/19/2018,,,,,,0,,,0,,1,0,0,0,0,0,0,0,0,0,0,,NULL,,Carangoides orthogrammus,,,,1/26/2018 7:55,,,FRENCH POLYNESIA,CFP (Ciguatera Fish Poisoning),,,,,,,,,,,,,,,,,,,,,,,,,,,,
PF-18-002,2018,Marquesas archipelago,,0,CFP monitoring programme pf French Polynesia,1,,0,0,1,0,0,0,,0,0,TAHUATA,,,,1/9/2018,,,,,,0,,,0,,1,0,0,0,0,0,0,0,0,0,0,,NULL,,Lethrinus xanthochilus,,,,1/26/2018 7:53,,,FRENCH POLYNESIA,CFP (Ciguatera Fish Poisoning),,,,,,,,,,,,,,,,,,,,,,,,,,,,
PF-18-001,2018,Tuamotu archipelago,,1,CFP monitoring programme of French Polynesia,1,,0,0,1,0,0,0,,0,0,FAAITE,,,,1/23/2018,,,,,,0,,,0,,1,0,0,0,0,0,0,0,0,0,0,,NULL,,Lutjanus monostigma,,,,1/26/2018 7:42,,,FRENCH POLYNESIA,CFP (Ciguatera Fish Poisoning),,,,,,,,,,,,,,,,,,,,,,,,,,,,
PF-17-099,2017,Tuamoti archipelago,,1,CFP monitoring programme of French Polynesia,1,,0,0,1,0,0,0,,0,0,KAUEHI,,,,10/29/2017,,,,,,0,,,0,,1,0,0,0,0,0,0,0,0,0,0,,NULL,,Unknown,,,,1/26/2018 11:56,,,FRENCH POLYNESIA,CFP (Ciguatera Fish Poisoning),,,,,,,,,,,,,,,,,,,,,,,,,,,,
PF-17-098,2017,Tuamotu archipelago,,1,CFP monitoring programme of French Polynesia,1,,0,0,1,0,0,0,,0,0,HAO,,,,11/4/2017,,,,,,0,,,0,,1,0,0,0,0,0,0,0,0,0,0,,0,,Plectropomus laevis,,,,1/26/2018 12:30,,,FRENCH POLYNESIA,CFP (Ciguatera Fish Poisoning),,,,,,,,,,,,,,,,,,,,,,,,,,,,
PF-17-097,2017,Tuamotu archipelago,,0,CFP monitoring programme of French Polynesia,1,,0,0,1,0,0,0,,0,0,ANAA,,,,1/7/2017,,,,,,0,,,0,,1,0,0,0,0,0,0,0,0,0,0,,NULL,,Epinephelus polyphekadion,,,,1/25/2018 1:28,,,FRENCH POLYNESIA,CFP (Ciguatera Fish Poisoning),,,,,,,,,,,,,,,,,,,,,,,,,,,,
PF-17-096,2017,Australes archipelago,,0,CFP monitoring programme of French polynesia,1,,0,0,1,0,0,0,,0,0,TUBUAI,,,,11/5/2017,,,,,,0,,,0,,1,0,0,0,0,0,0,0,0,0,0,,NULL,,Plectropomus laevis,,,,1/16/2018 9:57,,,FRENCH POLYNESIA,CFP (Ciguatera Fish Poisoning),,,,,,,,,,,,,,,,,,,,,,,,,,,,
PF-17-095,2017,Marquesas archipelago,,1,CHP monitoring programme of French polynesia,1,,0,0,1,0,0,0,,0,0,NUKU HIVA,,,,12/17/2017,,,,,,0,,,0,,1,0,0,0,0,0,0,0,0,0,0,,NULL,,scaridae,,,,1/10/2018 1:01,,,FRENCH POLYNESIA,CFP (Ciguatera Fish Poisoning),,,,,,,,,,,,,,,,,,,,,,,,,,,,
PF-17-094,2017,Tuamotu archipelago,,1,CHP monitoring programme of French polynesia,1,,0,0,1,0,0,0,,0,0,ARUTUA,,,,12/30/2017,,,,,,0,,,0,,1,0,0,0,0,0,0,0,0,0,0,,NULL,,Plaectropomus laevis,,,,1/10/2018 1:00,,,FRENCH POLYNESIA,CFP (Ciguatera Fish Poisoning),,,,,,,,,,,,,,,,,,,,,,,,,,,,
PF-17-093,2017,Marquesas archipelago,,1,CFP monitoring programme of French polynesia,1,,0,0,1,0,0,0,,0,0,NUKU HIVA,,,,11/1/2017,,,,,,0,,,0,,1,0,0,0,0,0,0,0,0,0,0,,NULL,,Lutjanus bohar,,,,12/7/2017 2:59,,,FRENCH POLYNESIA,CFP (Ciguatera Fish Poisoning),,,,,,,,,,,,,,,,,,,,,,,,,,,,
PF-17-092,2017,Tuampotu archipelago,,1,CFP monitoring programme of French Polynesia,1,,0,0,1,0,0,0,,0,0,FAKARAVA,,,,11/29/2017,,,,,,0,,,0,,1,0,0,0,0,0,0,0,0,0,0,,NULL,,Aprion virescens,,,,12/7/2017 2:55,,,FRENCH POLYNESIA,CFP (Ciguatera Fish Poisoning),,,,,,,,,,,,,,,,,,,,,,,,,,,,
PF-17-091,2017,Tuamotu archipelago,,1,CFP monitoring programme of French polynesia,1,,0,0,1,0,0,0,,0,0,KAUKURA,,,,11/18/2017,,,,,,0,,,0,,1,0,0,0,0,0,0,0,0,0,0,,NULL,,Plectropomus laevis,,,,12/7/2017 2:53,,,FRENCH POLYNESIA,CFP (Ciguatera Fish Poisoning),,,,,,,,,,,,,,,,,,,,,,,,,,,,
PF-17-090,2017,Tuamotu archipelago,,1,CFP monitoring programme of French Polynesia,1,,0,0,1,0,0,0,,0,0,KAUKURA,,,,11/5/2017,,,,,,0,,,0,,1,0,0,0,0,0,0,0,0,0,0,,NULL,,Cheilinus undulatus,,,,12/7/2017 2:51,,,FRENCH POLYNESIA,CFP (Ciguatera Fish Poisoning),,,,,,,,,,,,,,,,,,,,,,,,,,,,
PF-17-089,2017,Tuamotu archipelago,,1,CFP monitoring programme of French polynesia,1,,0,0,1,0,0,0,,0,0,AHE,,,,12/1/2017,,,,,,0,,,0,,1,0,0,0,0,0,0,0,0,0,0,,NULL,,Lutjanus bohar,,,,12/7/2017 2:50,,,FRENCH POLYNESIA,CFP (Ciguatera Fish Poisoning),,,,,,,,,,,,,,,,,,,,,,,,,,,,
PF-17-088,2017,Society archipelago,,1,CFP monitoring programme of French Polynesia,1,,0,0,1,0,0,0,,0,0,TAHITI,,,,11/11/2017,,,,,,0,,,0,,1,0,0,0,0,0,0,0,0,0,0,,NULL,,Cheilinus undulatus,,,,12/7/2017 2:47,,,FRENCH POLYNESIA,CFP (Ciguatera Fish Poisoning),,,,,,,,,,,,,,,,,,,,,,,,,,,,
PF-17-087,2017,Society archipelago,,1,CFP monitoring programme of French Polynesia,1,,0,0,1,0,0,0,,0,0,HUAHINE,,,,10/24/2017,,,,,,0,,,0,,1,0,0,0,0,0,0,0,0,0,0,,NULL,,Crananx melampygus,,,,12/7/2017 2:45,,,FRENCH POLYNESIA,CFP (Ciguatera Fish Poisoning),,,,,,,,,,,,,,,,,,,,,,,,,,,,
PF-17-086,2017,Society archipelago,,1,CFP monitoring programme of French Polynesia,1,,0,0,1,0,0,0,,0,0,RAIATEA,,,,11/27/2017,,,,,,0,,,0,,1,0,0,0,0,0,0,0,0,0,0,,NULL,,Lutjanus gibbus,,,,12/7/2017 2:44,,,FRENCH POLYNESIA,CFP (Ciguatera Fish Poisoning),,,,,,,,,,,,,,,,,,,,,,,,,,,,
PF-17-085,2017,Society archipelago,,1,CFP monitoring programme of French Polynesia,1,,0,0,1,0,0,0,,0,0,TAHAA,,,,11/13/2017,,,,,,0,,,0,,1,0,0,0,0,0,0,0,0,0,0,,NULL,,sphyraena barracuda,,,,12/7/2017 2:42,,,FRENCH POLYNESIA,CFP (Ciguatera Fish Poisoning),,,,,,,,,,,,,,,,,,,,,,,,,,,,
PF-17-084,2017,Society archipelago,,1,CFP monitoring programme of French Polynesia,1,,0,0,1,0,0,0,,0,0,Tahiti,,,,11/12/2017,,,,,,0,,,0,,1,0,0,0,0,0,0,0,0,0,0,,NULL,,unkown,,,,12/7/2017 2:41,,,FRENCH POLYNESIA,CFP (Ciguatera Fish Poisoning),,,,,,,,,,,,,,,,,,,,,,,,,,,,
PF-17-083,2017,Marquesas archipelago,,1,CFP monitoring programme of French Polynesia,1,,0,0,1,0,0,0,,0,0,NUKU HIVA,,,,10/24/2017,,,,,,0,,,0,,1,0,0,0,0,0,0,0,0,0,0,,NULL,,Unknwn,,,,11/7/2017 1:59,,,FRENCH POLYNESIA,CFP (Ciguatera Fish Poisoning),,,,,,,,,,,,,,,,,,,,,,,,,,,,
PF-17-082,2017,Marquesas archipelago,,1,CFP monitoring programme of French Polynesia,1,,0,0,1,0,0,0,,0,0,NUKU HIVA,,,,10/30/2017,,,,,,0,,,0,,1,0,0,0,0,0,0,0,0,0,0,,NULL,,Carangidae,,,,11/7/2017 1:58,,,FRENCH POLYNESIA,CFP (Ciguatera Fish Poisoning),,,,,,,,,,,,,,,,,,,,,,,,,,,,
PF-17-081,2017,Marquesas archipelago,,1,CFP monitoring programme of French Polynesia,1,,0,0,1,0,0,0,,0,0,NUKU HIVA,,,,11/1/2017,,,,,,0,,,0,,1,0,0,0,0,0,0,0,0,0,0,,NULL,,Lutjanus bohar,,,,11/7/2017 1:56,,,FRENCH POLYNESIA,CFP (Ciguatera Fish Poisoning),,,,,,,,,,,,,,,,,,,,,,,,,,,,
PF-17-080,2017,Tuamotu archipelago,,1,CFP monitoring programme of French Polynesia,1,,0,0,1,0,0,0,,0,0,,,,,10/26/2017,,,,,,0,,,0,,1,0,0,0,0,0,0,0,0,0,0,,NULL,,Myripristis amena,,,,11/7/2017 1:51,,,FRENCH POLYNESIA,CFP (Ciguatera Fish Poisoning),,,,,,,,,,,,,,,,,,,,,,,,,,,,
PF-17-079,2017,Tuamotu archipelago,,1,CFP monitoring programme of French Polynesia,1,,0,0,1,0,0,0,,0,0,,,,,10/22/2017,,,,,,0,,,0,,1,0,0,0,0,0,0,0,0,0,0,,NULL,,Plectropomus laevis,,,,11/7/2017 1:49,,,FRENCH POLYNESIA,CFP (Ciguatera Fish Poisoning),,,,,,,,,,,,,,,,,,,,,,,,,,,,
PF-17-078,2017,Society archipelago,,1,CFP monitoring programme of French Polynesia,1,,0,0,1,0,0,0,,0,0,TAHAA,,,,11/2/2017,,,,,,0,,,0,,1,0,0,0,0,0,0,0,0,0,0,,NULL,,Lutjanus gibbus,,,,11/7/2017 1:48,,,FRENCH POLYNESIA,CFP (Ciguatera Fish Poisoning),,,,,,,,,,,,,,,,,,,,,,,,,,,,
PF-17-077,2017,Society archipelago,,1,CFP monitoring programme of French Polynesia,1,,0,0,1,0,0,0,,0,0,HUAHINE,,,,11/4/2017,,,,,,0,,,0,,1,0,0,0,0,0,0,0,0,0,0,,NULL,,Sphyraena barracuda,,,,11/7/2017 1:47,,,FRENCH POLYNESIA,CFP (Ciguatera Fish Poisoning),,,,,,,,,,,,,,,,,,,,,,,,,,,,
PF-17-076,2017,,,1,CFP monitoring programme of French Polynesia,1,,0,0,1,0,0,0,,0,0,Society archipelago,,,,10/2/2017,,,,,,0,,,0,,1,0,0,0,0,0,0,0,0,0,0,,NULL,,Sphyraena barracuda,,,,10/27/2017 10:56,,,FRENCH POLYNESIA,CFP (Ciguatera Fish Poisoning),,,,,,,,,,,,,,,,,,,,,,,,,,,,
PF-17-075,2017,Australes archipelago,,1,CFP monitoring programme of French Polynesia,1,,0,0,1,0,0,0,,0,0,RURUTU,,,,10/21/2017,,,,,,0,,,0,,1,0,0,0,0,0,0,0,0,0,0,,NULL,,Acanthurdidae,,,,10/27/2017 10:55,,,FRENCH POLYNESIA,CFP (Ciguatera Fish Poisoning),,,,,,,,,,,,,,,,,,,,,,,,,,,,
PF-17-074,2017,Australes archipelago,,1,CFP monitoring programme of French Polynesia,1,,0,0,1,0,0,0,,0,0,RURUTU,,,,10/21/2017,,,,,,0,,,0,,1,0,0,0,0,0,0,0,0,0,0,,NULL,,Scarus frenatus,,,,10/27/2017 10:54,,,FRENCH POLYNESIA,CFP (Ciguatera Fish Poisoning),,,,,,,,,,,,,,,,,,,,,,,,,,,,
PF-17-073,2017,Australes archipelago,,1,CFP monitoring programme of French Polynesia,1,,0,0,1,0,0,0,,0,0,RURUTU,,,,10/21/2017,,,,,,0,,,0,,1,0,0,0,0,0,0,0,0,0,0,,NULL,,Acanthurus triostegus,,,,10/27/2017 10:53,,,FRENCH POLYNESIA,CFP (Ciguatera Fish Poisoning),,,,,,,,,,,,,,,,,,,,,,,,,,,,
PF-17-072,2017,Australes archipelago,,1,CFP monitoring programme of French Polynesia,1,,0,0,1,0,0,0,,0,0,RURUTU,,,,10/22/2017,,,,,,0,,,0,,1,0,0,0,0,0,0,0,0,0,0,,NULL,,Scarus schlegeli,,,,10/27/2017 10:51,,,FRENCH POLYNESIA,CFP (Ciguatera Fish Poisoning),,,,,,,,,,,,,,,,,,,,,,,,,,,,
PF-17-071,2017,Australes archipelago,,1,CFP monitoring programme of French Polynesia,1,,0,0,1,0,0,0,,0,0,RURUTU,,,,3/20/2017,,,,,,0,,,0,,1,0,0,0,0,0,0,0,0,0,0,,NULL,,Scarus frenatus,,,,10/27/2017 10:49,,,FRENCH POLYNESIA,CFP (Ciguatera Fish Poisoning),,,,,,,,,,,,,,,,,,,,,,,,,,,,
PF-17-070,2017,Marquesas archipelago,,1,CFP monitoring programme of French Polynesia,1,,0,0,1,0,0,0,,0,0,HIVA OA,,,,9/30/2017,,,,,,0,,,0,,1,0,0,0,0,0,0,0,0,0,0,,NULL,,Balistidae,,,,10/16/2017 10:59,,,FRENCH POLYNESIA,CFP (Ciguatera Fish Poisoning),,,,,,,,,,,,,,,,,,,,,,,,,,,,
PF-17-069,2017,Society archipelago,,1,CFP monitoring of French Polynesia,1,,0,0,1,0,0,0,,0,0,MOOREA,,,,10/3/2017,,,,,,0,,,0,,1,0,0,0,0,0,0,0,0,0,0,,NULL,,Balistidae,,,,10/16/2017 10:58,,,FRENCH POLYNESIA,CFP (Ciguatera Fish Poisoning),,,,,,,,,,,,,,,,,,,,,,,,,,,,
PF-17-068,2017,Tuamotu archipelago,,1,CFP monitoring programme of French Polynesia,1,,0,0,1,0,0,0,,0,0,REAO,,,,9/17/2017,,,,,,0,,,0,,1,0,0,0,0,0,0,0,0,0,0,,NULL,,unknown,,,,9/29/2017 10:53,,,FRENCH POLYNESIA,CFP (Ciguatera Fish Poisoning),,,,,,,,,,,,,,,,,,,,,,,,,,,,
PF-17-067,2017,Tuamotu archipelago,,1,CFP monitoring programme of French Polynesia,1,,0,0,1,0,0,0,,0,0,MAKEMO,,,,9/27/2017,,,,,,0,,,0,,1,0,0,0,0,0,0,0,0,0,0,,NULL,,Plaectropomus laevis,,,,9/29/2017 10:45,,,FRENCH POLYNESIA,CFP (Ciguatera Fish Poisoning),,,,,,,,,,,,,,,,,,,,,,,,,,,,
PF-17-066,2017,Tuamotu archipelago,,1,CFP monitoring prorgamme of French Polynesia,1,,0,0,1,0,0,0,,0,0,AMANU,,,,9/25/2017,,,,,,0,,,0,,1,0,0,0,0,0,0,0,0,0,0,,NULL,,Epinephelus polyphekadion,,,,9/29/2017 10:38,,,FRENCH POLYNESIA,CFP (Ciguatera Fish Poisoning),,,,,,,,,,,,,,,,,,,,,,,,,,,,
PF-17-065,2017,Marquesas archipelago,,1,CFP monitoring programme of French Polynesia,1,,0,0,1,0,0,0,,0,0,NUKU HIVA,,,,9/26/2017,,,,,,0,,,0,,1,0,0,0,0,0,0,0,0,0,0,,NULL,,Acanthurus xanthopterus,,,,9/29/2017 10:34,,,FRENCH POLYNESIA,CFP (Ciguatera Fish Poisoning),,,,,,,,,,,,,,,,,,,,,,,,,,,,
PF-17-064,2017,Tuamotu archipelago,,1,CFP monitoring programme of French Polynesia,1,,0,0,1,0,0,0,,0,0,REAO,,,,9/18/2017,,,,,,0,,,0,,1,0,0,0,0,0,0,0,0,0,0,,NULL,,Cheilinus undulatus,,,,9/22/2017 9:56,,,FRENCH POLYNESIA,CFP (Ciguatera Fish Poisoning),,,,,,,,,,,,,,,,,,,,,,,,,,,,
PF-17-063,2017,Tuamotu archipelago,,1,CFP monitoring programme of French Polynesia,1,,0,0,1,0,0,0,,0,0,REAO,,,,9/13/2017,,,,,,0,,,0,,1,0,0,0,0,0,0,0,0,0,0,,NULL,,Scaridae,,,,9/19/2017 9:50,,,FRENCH POLYNESIA,CFP (Ciguatera Fish Poisoning),,,,,,,,,,,,,,,,,,,,,,,,,,,,
PF-17-062,2017,Tuamotu archipelago,,1,CFP monitoring programme of French Polynesia,1,,0,0,1,0,0,0,,0,0,REAO,,,,9/5/2017,,,,,,0,,,0,,1,0,0,0,0,0,0,0,0,0,0,,NULL,,Scaridae,,,,9/19/2017 9:49,,,FRENCH POLYNESIA,CFP (Ciguatera Fish Poisoning),,,,,,,,,,,,,,,,,,,,,,,,,,,,
PF-17-061,2017,Marquesas archipelago,,1,CFP monitoring programme of French Polynesia,1,,0,0,1,0,0,0,,0,0,NUKU HIVA,,,,9/10/2017,,,,,,0,,,0,,1,0,0,0,0,0,0,0,0,0,0,,NULL,,uknwn,,,,9/19/2017 9:48,,,FRENCH POLYNESIA,CFP (Ciguatera Fish Poisoning),,,,,,,,,,,,,,,,,,,,,,,,,,,,
PF-17-060,2017,Marquesas archipelago,,1,CFP monitoring programme of French Polynesia,1,,0,0,1,0,0,0,,0,0,NUKU HIVA,,,,9/2/2017,,,,,,0,,,0,,1,0,0,0,0,0,0,0,0,0,0,,NULL,,Lutjanus bohar,,,,9/19/2017 9:47,,,FRENCH POLYNESIA,CFP (Ciguatera Fish Poisoning),,,,,,,,,,,,,,,,,,,,,,,,,,,,
PF-17-059,2017,Marquesas archipelago,,1,CFP monitoring programme of French Polynesia,NULL,,0,0,1,0,0,0,,0,0,NUKU HIVA,,,,8/20/2017,,,,,,0,,,0,,1,0,0,0,0,0,0,0,0,0,0,,NULL,,Lutjanus gibbus,,,,9/19/2017 9:46,,,FRENCH POLYNESIA,CFP (Ciguatera Fish Poisoning),,,,,,,,,,,,,,,,,,,,,,,,,,,,
PF-17-058,2017,Marquesas archipelago,,1,CFP monitoring programme of French Polynesia,1,,0,0,1,0,0,0,,0,0,NUKU HIVA,,,,8/6/2017,,,,,,0,,,0,,1,0,0,0,0,0,0,0,0,0,0,,NULL,,Kyphosus sp.,,,,9/19/2017 9:45,,,FRENCH POLYNESIA,CFP (Ciguatera Fish Poisoning),,,,,,,,,,,,,,,,,,,,,,,,,,,,
PF-17-057,2017,Tuamotu archipelago,,1,CFP monitoring programme of French Polynesia,1,,0,0,1,0,0,0,,0,0,MAKEMO,,,,8/18/2017,,,,,,0,,,0,,1,0,0,0,0,0,0,0,0,0,0,,NULL,,Plaectropomus laevis,,,,9/19/2017 9:43,,,FRENCH POLYNESIA,CFP (Ciguatera Fish Poisoning),,,,,,,,,,,,,,,,,,,,,,,,,,,,
PF-17-056,2017,Tuamotu archipelago,,1,CFP monitoring programme of French Polynesia,1,,0,0,1,0,0,0,,0,0,ANAA,,,,9/3/2017,,,,,,0,,,0,,1,0,0,0,0,0,0,0,0,0,0,,NULL,,uknwn,,,,9/19/2017 9:42,,,FRENCH POLYNESIA,CFP (Ciguatera Fish Poisoning),,,,,,,,,,,,,,,,,,,,,,,,,,,,
PF-17-055,2017,Society archipelago,,1,CFP monitoring programme of French Polynesia,1,,0,0,1,0,0,0,,0,0,TAHITI,,,,8/4/2017,,,,,,0,,,0,,1,0,0,0,0,0,0,0,0,0,0,,NULL,,Uknwn,,,,9/19/2017 9:41,,,FRENCH POLYNESIA,CFP (Ciguatera Fish Poisoning),,,,,,,,,,,,,,,,,,,,,,,,,,,,
PF-17-054,2017,Australes archipelago,,1,CFP monitoring programme of French Polynesia,1,,0,0,1,0,0,0,,0,0,RAIVAVAE,,,,9/15/2017,,,,,,0,,,0,,1,0,0,0,0,0,0,0,0,0,0,,NULL,,Plaectropomus laevis,,,,9/19/2017 9:39,,,FRENCH POLYNESIA,CFP (Ciguatera Fish Poisoning),,,,,,,,,,,,,,,,,,,,,,,,,,,,
PF-17-053,2017,Tuamotu archipelago,,1,CFP monitoring programme of French Polynesia,NULL,,0,0,1,0,0,0,,0,0,,,,,6/29/2017,,,,,,0,,,0,,1,0,0,0,0,0,0,0,0,0,0,,NULL,,Cheilinus undulatus,,,,9/19/2017 9:38,,,FRENCH POLYNESIA,CFP (Ciguatera Fish Poisoning),,,,,,,,,,,,,,,,,,,,,,,,,,,,
PF-17-052,2017,Society archipelago,,1,CFP monitoring programme of French Polynesia,1,,0,0,1,0,0,0,,0,0,MOOREA,,,,7/14/2017,,,,,,0,,,1,,1,0,0,0,0,0,0,0,0,0,0,,NULL,,Caranx ignobilis,,,,9/19/2017 9:37,,,FRENCH POLYNESIA,CFP (Ciguatera Fish Poisoning),,,,,,,,,,,,,,,,,,,,,,,,,,,,
PF-17-051,2017,Tuamotu archipelago,,1,CFP monitoring programme of French Polynesia,1,,0,0,1,0,0,0,,0,0,KAUKURA,,,,8/7/2017,,,,,,0,,,0,,1,0,0,0,0,0,0,0,0,0,0,,NULL,,Lethrinidae,,,,9/19/2017 9:35,,,FRENCH POLYNESIA,CFP (Ciguatera Fish Poisoning),,,,,,,,,,,,,,,,,,,,,,,,,,,,
PF-17-050,2017,Tuamotu archipelgo,,1,CFP monitoring programme of French Polynesia,1,,0,0,1,0,0,0,,0,0,KATIU,,,,9/6/2017,,,,,,0,,,0,,1,0,0,0,0,0,0,0,0,0,0,,NULL,,Lutjanus monostigma,,,,9/19/2017 9:34,,,FRENCH POLYNESIA,CFP (Ciguatera Fish Poisoning),,,,,,,,,,,,,,,,,,,,,,,,,,,,
PF-17-049,2017,Societe archipelago,,1,CFP monitoring programme of French Polynesia,1,,0,0,1,0,0,0,,0,0,TAHITI,,,,9/13/2017,,,,,,0,,,0,,1,0,0,0,0,0,0,0,0,0,0,,NULL,,Acanthurus xanthopterus,,,,9/19/2017 9:33,,,FRENCH POLYNESIA,CFP (Ciguatera Fish Poisoning),,,,,,,,,,,,,,,,,,,,,,,,,,,,
PF-17-048,2017,Society archipelago,,1,CFP monitoring programme of French Polynesia,1,,0,0,1,0,0,0,,0,0,TAHITI,,,,6/9/2017,,,,,,0,,,0,,1,0,0,0,0,0,0,0,0,0,0,,NULL,,serranidae,,,,8/7/2017 7:52,,,FRENCH POLYNESIA,CFP (Ciguatera Fish Poisoning),,,,,,,,,,,,,,,,,,,,,,,,,,,,
PF-17-047,2017,Society archipelago,,1,CFP monitoring programme of French Polynesia,1,,0,0,1,0,0,0,,0,0,MOOREA,,,,7/14/2017,,,,,,0,,,0,,1,0,0,0,0,0,0,0,0,0,0,,NULL,,unknown,,,,7/25/2017 9:28,,,FRENCH POLYNESIA,CFP (Ciguatera Fish Poisoning),,,,,,,,,,,,,,,,,,,,,,,,,,,,
PF-17-046,2017,Marquesas archipelago,,1,CFP moniroting programme of French Polynesia,1,,0,0,1,0,0,0,,0,0,NUKU HIVA,,,,7/11/2017,,,,,,0,,,0,,1,0,0,0,0,0,0,0,0,0,0,,NULL,,Carangidae,,,,7/25/2017 9:13,,,FRENCH POLYNESIA,CFP (Ciguatera Fish Poisoning),,,,,,,,,,,,,,,,,,,,,,,,,,,,
PF-17-045,2017,Marquesas archipelago,,1,CFP moniroting programme of French Polynesia,1,,0,0,1,0,0,0,,0,0,NUKU HIVA,,,,7/8/2017,,,,,,0,,,1,,1,0,0,0,0,0,0,0,0,0,0,,NULL,,Lutjanus fulvus,,,,7/25/2017 9:12,,,FRENCH POLYNESIA,CFP (Ciguatera Fish Poisoning),,,,,,,,,,,,,,,,,,,,,,,,,,,,
PF-17-044,2017,Marquesas archipelago,,1,CFP moniroting programme of French Polynesia,1,,0,0,1,0,0,0,,0,0,NUKU HIVA,,,,7/19/2017,,,,,,0,,,0,,1,0,0,0,0,0,0,0,0,0,0,,NULL,,Parupeneus sp.,,,,7/25/2017 9:11,,,FRENCH POLYNESIA,CFP (Ciguatera Fish Poisoning),,,,,,,,,,,,,,,,,,,,,,,,,,,,
PF-17-043,2017,Marquesas archipelago,,1,CFP moniroting programme of French Polynesia,1,,0,0,1,0,0,0,,0,0,NUKU HIVA,,,,7/5/2017,,,,,,0,,,0,,1,0,0,0,0,0,0,0,0,0,0,,NULL,,Lutjanus bohar,,,,7/25/2017 9:10,,,FRENCH POLYNESIA,CFP (Ciguatera Fish Poisoning),,,,,,,,,,,,,,,,,,,,,,,,,,,,
PF-17-042,2017,Tuamotu archipelago,,1,CFP monitoring programme of French Polynesia,1,,0,0,1,0,0,0,,0,0,REAO,,,,6/12/2017,,,,,,0,,,0,,1,0,0,0,0,0,0,0,0,0,0,,NULL,,Balistidae,,,,7/25/2017 9:08,,,FRENCH POLYNESIA,CFP (Ciguatera Fish Poisoning),,,,,,,,,,,,,,,,,,,,,,,,,,,,
PF-17-041,2017,Marquesas archipelago,,1,CFP monitoring programme of French Polynesia,1,,0,0,1,0,0,0,,0,0,UA HUKA,,,,6/13/2017,,,,,,0,,,0,,1,0,0,0,0,0,0,0,0,0,0,,NULL,,Lutjanus gibbus,,,,7/25/2017 9:06,,,FRENCH POLYNESIA,CFP (Ciguatera Fish Poisoning),,,,,,,,,,,,,,,,,,,,,,,,,,,,
PF-17-040,2017,Australes archipelago,,1,CFP monitoring programme of French Polynesia,1,,0,0,1,0,0,0,,0,0,RAIVAVAE,,,,6/16/2017,,,,,,0,,,0,,1,0,0,0,0,0,0,0,0,0,0,,NULL,,Unknown,,,,7/25/2017 9:04,,,FRENCH POLYNESIA,CFP (Ciguatera Fish Poisoning),,,,,,,,,,,,,,,,,,,,,,,,,,,,
PF-17-039,2017,Tuamotu archipelago,,1,CFP monitoring programme of French Polynesia,1,,0,0,1,0,0,0,,0,0,PUKARUA,,,,7/3/2017,,,,,,0,,,0,,1,0,0,0,0,0,0,0,0,0,0,,NULL,,Lutjanus bohar,,,,7/25/2017 9:03,,,FRENCH POLYNESIA,CFP (Ciguatera Fish Poisoning),,,,,,,,,,,,,,,,,,,,,,,,,,,,
PF-17-038,2017,Marquesas archipelago,,1,CFP monitoring programme of French Polynesia,1,,0,0,1,0,0,0,,0,0,NUKU HIVA,,,,5/28/2017,,,,,,0,,,0,,1,0,0,0,0,0,0,0,0,0,0,,NULL,,Lutjanus gibbus,,,,6/8/2017 3:30,,,FRENCH POLYNESIA,CFP (Ciguatera Fish Poisoning),,,,,,,,,,,,,,,,,,,,,,,,,,,,
PF-17-037,2017,Australes archipelago,,1,CFP monitoring programme of French Polynesia,1,,0,0,1,0,0,0,,0,0,TUBUAI,,,,5/21/2017,,,,,,0,,,0,,1,0,0,0,0,0,0,0,0,0,0,,NULL,,UNKNOWN,,,,6/8/2017 3:29,,,FRENCH POLYNESIA,CFP (Ciguatera Fish Poisoning),,,,,,,,,,,,,,,,,,,,,,,,,,,,
PF-17-036,2017,Society archipelago,,1,CFP monitoring programme of French Polynesia,1,,0,0,1,0,0,0,,0,0,TAHITI,,,,5/30/2017,,,,,,0,,,0,,1,0,0,0,0,0,0,0,0,0,0,,NULL,,Lutjanus monostigma,,,,6/8/2017 3:28,,,FRENCH POLYNESIA,CFP (Ciguatera Fish Poisoning),,,,,,,,,,,,,,,,,,,,,,,,,,,,
PF-17-035,2017,Society archipelago,,1,CFP monitoring programme of French Polynesia,1,,0,0,1,0,0,0,,0,0,BORA BORA,,,,5/7/2017,,,,,,0,,,0,,1,0,0,0,0,0,0,0,0,0,0,,NULL,,Chlorurus microrhinos,,,,5/23/2017 7:50,,,FRENCH POLYNESIA,CFP (Ciguatera Fish Poisoning),,,,,,,,,,,,,,,,,,,,,,,,,,,,
PF-17-034,2017,Tuamotu archipelago,,1,CFP monitoring programme of French Polynesia,1,,0,0,1,0,0,0,,0,0,TUAMOTU,,,,5/22/2017,,,,,,0,,,0,,1,0,0,0,0,0,0,0,0,0,0,,NULL,,Serranidae,,,,5/23/2017 7:49,,,FRENCH POLYNESIA,CFP (Ciguatera Fish Poisoning),,,,,,,,,,,,,,,,,,,,,,,,,,,,
PF-17-033,2017,Marquesas archipelago,,1,CFP monitoring programme of French Polynesia,1,,0,0,1,0,0,0,,0,0,FATU HIVA,,,,5/14/2017,,,,,,0,,,0,,1,0,0,0,0,0,0,0,0,0,0,,NULL,,Lutjanus bohar,,,,5/23/2017 7:47,,,FRENCH POLYNESIA,CFP (Ciguatera Fish Poisoning),,,,,,,,,,,,,,,,,,,,,,,,,,,,
PF-17-032,2017,Society archipelago,,1,CFP monitoring programme of French Polynesia,1,,0,0,1,0,0,0,,0,0,BORA BORA,,,,5/7/2017,,,,,,0,,,0,,1,0,0,0,0,0,0,0,0,0,0,,NULL,,Scaridae,,,,5/23/2017 7:46,,,FRENCH POLYNESIA,CFP (Ciguatera Fish Poisoning),,,,,,,,,,,,,,,,,,,,,,,,,,,,
PF-17-031,2017,Marquesas archipelago,,1,CFP monitoring programme of French Polynesia,1,,0,0,1,0,0,0,,0,0,NUKU HIVA,,,,4/25/2017,,,,,,0,,,0,,1,0,0,0,0,0,0,0,0,0,0,,NULL,,Naso hexacanthus,,,,5/11/2017 1:06,,,FRENCH POLYNESIA,CFP (Ciguatera Fish Poisoning),,,,,,,,,,,,,,,,,,,,,,,,,,,,
PF-17-030,2017,Marquesas archipelago,,1,CFP monitoring programme of French Polynesia,1,,0,0,1,0,0,0,,0,0,NUKU HIVA,,,,3/12/2017,,,,,,0,,,0,,1,0,0,0,0,0,0,0,0,0,0,,NULL,,Acanthurus xanthopterus,,,,5/11/2017 1:05,,,FRENCH POLYNESIA,CFP (Ciguatera Fish Poisoning),,,,,,,,,,,,,,,,,,,,,,,,,,,,
PF-17-029,2017,Marquesas archipelago,,1,CFP monitoring programme of French Polynesia,1,,0,0,1,0,0,0,,0,0,NUKU HIVA,,,,4/12/2017,,,,,,0,,,0,,1,0,0,0,0,0,0,0,0,0,0,,NULL,,Acanthurus xanthopterus,,,,5/11/2017 1:04,,,FRENCH POLYNESIA,CFP (Ciguatera Fish Poisoning),,,,,,,,,,,,,,,,,,,,,,,,,,,,
PF-17-028,2017,Society archipelago,,1,CFP monitoring programme of French Polynesia,1,,0,0,1,0,0,0,,0,0,BORA BORA,,,,5/7/2017,,,,,,0,,,0,,1,0,0,0,0,0,0,0,0,0,0,,NULL,,Scaridae,,,,5/10/2017 9:55,,,FRENCH POLYNESIA,CFP (Ciguatera Fish Poisoning),,,,,,,,,,,,,,,,,,,,,,,,,,,,
PF-17-027,2017,Marquesas archipelago,,1,CFP monitoring programme of French Polynesia,1,,0,0,1,0,0,0,,0,0,UA HUKA,,,,5/9/2017,,,,,,0,,,0,,1,0,0,0,0,0,0,0,0,0,0,,NULL,,Lutjanus bohar,,,,5/10/2017 9:34,,,FRENCH POLYNESIA,CFP (Ciguatera Fish Poisoning),,,,,,,,,,,,,,,,,,,,,,,,,,,,
PF-17-026,2017,Marquesas archipelago,,1,CFP monitoring programme opf French Polynesia,1,,0,0,1,0,0,0,,0,0,NUKU HIVA,,,,4/22/2017,,,,,,0,,,0,,1,0,0,0,0,0,0,0,0,0,0,,NULL,,Caranx melampigus,,,,4/27/2017 10:00,,,FRENCH POLYNESIA,CFP (Ciguatera Fish Poisoning),,,,,,,,,,,,,,,,,,,,,,,,,,,,
PF-17-025,2017,Tuamotu archipelago,,1,CFP monitoring programme of French Polynesia,1,,0,0,1,0,0,0,,0,0,TOAU,,,,4/19/2017,,,,,,0,,,0,,1,0,0,0,0,0,0,0,0,0,0,,NULL,,Lutjanus miniatus,,,,4/24/2017 9:30,,,FRENCH POLYNESIA,CFP (Ciguatera Fish Poisoning),,,,,,,,,,,,,,,,,,,,,,,,,,,,
PF-17-024,2017,Society archipelago,,1,CFP monitoring programme of French Polynesia,1,,0,0,1,0,0,0,,0,0,TAHITI,,,,4/2/2017,,,,,,0,,,0,,1,0,0,0,0,0,0,0,0,0,0,,NULL,,Cephalopholis argus,,,,4/12/2017 10:42,,,FRENCH POLYNESIA,CFP (Ciguatera Fish Poisoning),,,,,,,,,,,,,,,,,,,,,,,,,,,,
PF-17-023,2017,Society archipelago,,1,CFP monitoring programme of French Polynesia,1,,0,0,1,0,0,0,,0,0,RAIATEA,,,,4/3/2017,,,,,,0,,,0,,1,0,0,0,0,0,0,0,0,0,0,,NULL,,Decapterus macarellus,,,,4/10/2017 9:28,,,FRENCH POLYNESIA,CFP (Ciguatera Fish Poisoning),,,,,,,,,,,,,,,,,,,,,,,,,,,,
PF-17-022,2017,Marquesas archipelago,,1,CFP monitoring programme of French Polynesia,1,,0,0,1,0,0,0,,0,0,TAHUATA,,,,2/17/2017,,,,,,0,,,0,,1,0,0,0,0,0,0,0,0,0,0,,NULL,,Decapterus macarellus,,,,4/10/2017 9:24,,,FRENCH POLYNESIA,CFP (Ciguatera Fish Poisoning),,,,,,,,,,,,,,,,,,,,,,,,,,,,
PF-17-021,2017,Tuamotu archipelago,,1,CFP monitoring programme of French Polynesia,1,,0,0,1,0,0,0,,0,0,APATAKI,,,,4/5/2017,,,,,,0,,,0,,1,0,0,0,0,0,0,0,0,0,0,,NULL,,Plectropomus laevis,,,,4/5/2017 8:31,,,FRENCH POLYNESIA,CFP (Ciguatera Fish Poisoning),,,,,,,,,,,,,,,,,,,,,,,,,,,,
PF-17-020,2017,Australes archipelago,,1,CFP monitoring programme of French Polynesia,1,,0,0,1,0,0,0,,0,0,RURUTU,,,,3/3/2017,,,,,,0,,,0,,1,0,0,0,0,0,0,0,0,0,0,,NULL,,not specified,,,,3/24/2017 1:53,,,FRENCH POLYNESIA,CFP (Ciguatera Fish Poisoning),,,,,,,,,,,,,,,,,,,,,,,,,,,,
PF-17-019,2017,Australes archipelago,,1,CFP monitoring programme of French polynesia,1,,0,0,1,0,0,0,,0,0,RAIVAVAE,,,,3/20/2017,,,,,,0,,,0,,1,0,0,0,0,0,0,0,0,0,0,,NULL,,Acanthutidae,,,,3/24/2017 1:48,,,FRENCH POLYNESIA,CFP (Ciguatera Fish Poisoning),,,,,,,,,,,,,,,,,,,,,,,,,,,,
PF-17-018,2017,Society archipelago,,1,CFP monitoring programme of French Polynesia,1,,0,0,1,0,0,0,,0,0,TAHITI,,,,3/12/2017,,,,,,0,,,0,,1,0,0,0,0,0,0,0,0,0,0,,NULL,,Muraenidae,,,,3/14/2017 1:36,,,FRENCH POLYNESIA,CFP (Ciguatera Fish Poisoning),,,,,,,,,,,,,,,,,,,,,,,,,,,,
PF-17-017,2017,Society archipelago,,1,CFP monitoring programme of French Polynesia,1,,0,0,1,0,0,0,,0,0,TAHITI,,,,3/7/2017,,,,,,0,,,0,,1,0,0,0,0,0,0,0,0,0,0,,NULL,,Caranguidae,,,,3/14/2017 1:35,,,FRENCH POLYNESIA,CFP (Ciguatera Fish Poisoning),,,,,,,,,,,,,,,,,,,,,,,,,,,,
PF-17-016,2017,Tuamotu archipelago,,1,CFP monitoring programme of French Polynesia,1,,0,0,1,0,0,0,,0,0,MAKEMO,,,,3/8/2017,,,,,,0,,,1,,1,0,0,0,0,0,0,0,0,0,0,,NULL,,Cephalopholis argus,,,,3/14/2017 1:33,,,FRENCH POLYNESIA,CFP (Ciguatera Fish Poisoning),,,,,,,,,,,,,,,,,,,,,,,,,,,,
PF-17-015,2017,Australes archipelago,,1,CFP monitoring programme of French Polynesia,1,,0,0,1,0,0,0,,0,0,RURUTU,,,,2/26/2017,,,,,,0,,,0,,1,0,0,0,0,0,0,0,0,0,0,,NULL,,Istiophoridae,,,,3/6/2017 10:45,,,FRENCH POLYNESIA,CFP (Ciguatera Fish Poisoning),,,,,,,,,,,,,,,,,,,,,,,,,,,,
PF-17-014,2017,Tuamotu archipelago,,1,CFP monitoring programme of French Polynesia,1,,0,0,1,0,0,0,,0,0,FAKARAVA,,,,2/19/2017,,,,,,0,,,0,,1,0,0,0,0,0,0,0,0,0,0,,NULL,,Scarus schlegeli,,,,2/24/2017 2:42,,,FRENCH POLYNESIA,CFP (Ciguatera Fish Poisoning),,,,,,,,,,,,,,,,,,,,,,,,,,,,
PF-17-013,2017,Marquisas archipelago,,1,CFP monitoring programme of French Polynesia,1,,0,0,1,0,0,0,,0,0,FATU HIVA,,,,2/22/2017,,,,,,0,,,0,,1,0,0,0,0,0,0,0,0,0,0,,NULL,,Aprion virescens,,,,2/24/2017 2:41,,,FRENCH POLYNESIA,CFP (Ciguatera Fish Poisoning),,,,,,,,,,,,,,,,,,,,,,,,,,,,
PF-17-012,2017,,,1,CFP monitoring programme of French Polynesia,1,,0,0,1,0,0,0,,0,0,,,,,2/14/2017,,,,,,0,,,0,,1,0,0,0,0,0,0,0,0,0,0,,NULL,,Plectropomus laevis,,,,2/22/2017 1:49,,,FRENCH POLYNESIA,CFP (Ciguatera Fish Poisoning),,,,,,,,,,,,,,,,,,,,,,,,,,,,
PF-17-011,2017,Tuamotu archipelago,,1,CFP monitoring programme of French polynesia,1,,0,0,1,0,0,0,,0,0,FAKARAVA,,,,2/15/2017,,,,,,0,,,0,,1,0,0,0,0,0,0,0,0,0,0,,NULL,,Cephalopholis sexmaculata,,,,2/21/2017 11:55,,,FRENCH POLYNESIA,CFP (Ciguatera Fish Poisoning),,,,,,,,,,,,,,,,,,,,,,,,,,,,
PF-17-010,2017,Tuamotu archipelago,,1,CFP monitoring programme of French polynesia,1,,0,0,1,0,0,0,,0,0,TAKAROA,,,,1/3/2017,,,,,,0,,,0,,1,0,0,0,0,0,0,0,0,0,0,,NULL,,Plectropomus laevis,,,,2/21/2017 11:53,,,FRENCH POLYNESIA,CFP (Ciguatera Fish Poisoning),,,,,,,,,,,,,,,,,,,,,,,,,,,,
PF-17-009,2017,Tuamotu archipelago,,1,CFP monitoring programme of French Polynesia,1,,0,0,1,0,0,0,,0,0,FAAITE,,,,1/7/2017,,,,,,0,,,0,,1,0,0,0,0,0,0,0,0,0,0,,NULL,,Cheilinus undulatus,,,,2/21/2017 11:51,,,FRENCH POLYNESIA,CFP (Ciguatera Fish Poisoning),,,,,,,,,,,,,,,,,,,,,,,,,,,,
PF-17-008,2017,Marquisas archipelago,,1,CFP monitoring programme of French Polynesia,1,,0,0,1,0,0,0,,0,0,NUKU HIVA,,,,1/16/2017,,,,,,0,,,0,,1,0,0,0,0,0,0,0,0,0,0,,NULL,,Acanthurus xanthopterus,,,,2/21/2017 9:09,,,FRENCH POLYNESIA,CFP (Ciguatera Fish Poisoning),,,,,,,,,,,,,,,,,,,,,,,,,,,,
PF-17-007,2017,Marquises archipelago,,1,CFP monitoring programme of French Polynesia,1,,0,0,1,0,0,0,,0,0,NUKU HIVA,,,,1/19/2017,,,,,,0,,,0,,1,0,0,0,0,0,0,0,0,0,0,,NULL,,Lutjanus bohar,,,,2/21/2017 9:05,,,FRENCH POLYNESIA,CFP (Ciguatera Fish Poisoning),,,,,,,,,,,,,,,,,,,,,,,,,,,,
PF-17-006,2017,MARQUESAS archipelago,,1,CFP monitoring programme of French Polynesia,1,,0,0,1,0,0,0,,0,0,Hiva Oa,,,,1/26/2017,,,,,,0,,,0,,1,0,0,0,0,0,0,0,0,0,0,,NULL,,Caranx lugubris,,,,2/21/2017 9:02,,,FRENCH POLYNESIA,CFP (Ciguatera Fish Poisoning),,,,,,,,,,,,,,,,,,,,,,,,,,,,
PF-17-005,2017,Tuamotu archipelago,,1,French Polynesia CFP monitoring programme,1,,0,0,1,0,0,0,,0,0,KAUKURA,,,,1/31/2017,,,,,,0,,,0,,1,0,0,0,0,0,0,0,0,0,0,,NULL,,Lutjanus gibbus,,,,2/6/2017 6:39,,,FRENCH POLYNESIA,CFP (Ciguatera Fish Poisoning),,,,,,,,,,,,,,,,,,,,,,,,,,,,
PF-17-004,2017,Marquesas archipelago,,0,French Polynesia CFP monitoring programme,1,,0,0,1,0,0,0,,0,0,TAHUATA,,,,1/21/2017,,,,,,0,,,0,,1,0,0,0,0,0,0,0,0,0,0,,NULL,,Lutjanus monostigma,,,,2/6/2017 6:22,,,FRENCH POLYNESIA,CFP (Ciguatera Fish Poisoning),,,,,,,,,,,,,,,,,,,,,,,,,,,,
PF-17-003,2017,Tuamotu archipelago,,1,CFP monitoring programme of French Polynesia,1,,0,0,1,0,0,0,,0,0,FAAITE,,,,1/7/2017,,,,,,0,,,0,,1,0,0,0,0,0,0,0,0,0,0,,NULL,,Cheilinus undulatus,,,,1/10/2017 10:25,,,FRENCH POLYNESIA,CFP (Ciguatera Fish Poisoning),,,,,,,,,,,,,,,,,,,,,,,,,,,,
PF-17-002,2017,Tuamotu archipelago,,1,CFP monitoring programme of French Polynesia,1,,0,0,1,0,0,0,,0,0,TAKAROA,,,,1/3/2017,,,,,,0,,,0,,1,0,0,0,0,0,0,0,0,0,0,,NULL,,Plectropomus laevis,,,,1/6/2017 12:22,,,FRENCH POLYNESIA,CFP (Ciguatera Fish Poisoning),,,,,,,,,,,,,,,,,,,,,,,,,,,,
PF-17-001,2017,Marquesas archipelago,,1,CFP moniroting programme of french polynesia,1,,0,0,1,0,0,0,,0,0,NUKU HIVA,,,,1/3/2017,,,,,,0,,,0,,1,0,0,0,0,0,0,0,0,0,0,,NULL,,Scaridae,,,,1/3/2017 9:32,,,FRENCH POLYNESIA,CFP (Ciguatera Fish Poisoning),,,,,,,,,,,,,,,,,,,,,,,,,,,,
PF-16-148,2016,Tuamotu archipelago,,1,CFP monitoring programme of French Polynesia,1,,0,0,1,0,0,0,,0,0,TAKAPOTO,,,,9/12/2016,,,,,,0,,,0,,1,0,0,0,0,0,0,0,0,0,0,,NULL,,Cheilinus undulatus,,,,2/7/2017 11:53,,,FRENCH POLYNESIA,CFP (Ciguatera Fish Poisoning),,,,,,,,,,,,,,,,,,,,,,,,,,,,
PF-16-147,2016,Tuamotu archipelago,,1,French Polynesia CFP monitoring programme,1,,0,0,1,0,0,0,,0,0,KAUKURA,,,,12/31/2016,,,,,,0,,,0,,1,0,0,0,0,0,0,0,0,0,0,,NULL,,Scarus ghobban,,,,2/6/2017 6:36,,,FRENCH POLYNESIA,CFP (Ciguatera Fish Poisoning),,,,,,,,,,,,,,,,,,,,,,,,,,,,
PF-16-146,2016,Tuamotu archipelago,,1,French Polynesia CFP monitoring programme,1,,0,0,1,0,0,0,,0,0,KAUKURA,,,,10/6/2016,,,,,,0,,,0,,1,0,0,0,0,0,0,0,0,0,0,,NULL,,Litjanus gibbus,,,,2/6/2017 6:33,,,FRENCH POLYNESIA,CFP (Ciguatera Fish Poisoning),,,,,,,,,,,,,,,,,,,,,,,,,,,,
PF-16-145,2016,Tuamotu archipelago,,1,French Polynesia CFP monitoring programme,1,,0,0,1,0,0,0,,0,0,KAUKURA,,,,12/28/2016,,,,,,0,,,0,,1,0,0,0,0,0,0,0,0,0,0,,NULL,,Scarus ghobban,,,,2/6/2017 6:30,,,FRENCH POLYNESIA,CFP (Ciguatera Fish Poisoning),,,,,,,,,,,,,,,,,,,,,,,,,,,,
PF-16-144,2016,Tuamotu archipelago,,1,French Polynesia CFP monitoring programme,1,,0,0,1,0,0,0,,0,0,KAUKURA,,,,9/30/2016,,,,,,0,,,0,,1,0,0,0,0,0,0,0,0,0,0,,NULL,,Lutjanus gibbus,,,,2/6/2017 6:26,,,FRENCH POLYNESIA,CFP (Ciguatera Fish Poisoning),,,,,,,,,,,,,,,,,,,,,,,,,,,,
PF-16-143,2016,Marquesas archipelago,,1,CFP monitoring programme of French Polynesia,1,,0,0,1,0,0,0,,0,0,HIVA OA,,,,9/14/2016,,,,,,0,,,0,,1,0,0,0,0,0,0,0,0,0,0,,NULL,,Lutjanus gibbus,,,,1/12/2017 1:40,,,FRENCH POLYNESIA,CFP (Ciguatera Fish Poisoning),,,,,,,,,,,,,,,,,,,,,,,,,,,,
PF-16-142,2016,Marquesas archipelago,,1,CFP monitoring programme of French Polynesia,1,,0,0,1,0,0,0,,0,0,HIVA OA,,,,9/26/2016,,,,,,0,,,0,,1,0,0,0,0,0,0,0,0,0,0,,NULL,,monotaxis granducolis,,,,1/12/2017 1:39,,,FRENCH POLYNESIA,CFP (Ciguatera Fish Poisoning),,,,,,,,,,,,,,,,,,,,,,,,,,,,
PF-16-141,2016,Society archipelago,,1,CFP monitoring programme of French Polynesia,1,,0,0,1,0,0,0,,0,0,TAHAA,,,,12/31/2016,,,,,,0,,,0,,1,0,0,0,0,0,0,0,0,0,0,,NULL,,Sphyraena barracuda,,,,1/10/2017 10:23,,,FRENCH POLYNESIA,CFP (Ciguatera Fish Poisoning),,,,,,,,,,,,,,,,,,,,,,,,,,,,
PF-16-140,2016,Australes archipelago,,1,CFP monitoring programme of french Polynesia,1,,0,0,1,0,0,0,,0,0,TUBUAI,,,,12/11/2016,,,,,,0,,,0,,1,0,0,0,0,0,0,0,0,0,0,,NULL,,Seranidae,,,,1/6/2017 12:31,,,FRENCH POLYNESIA,CFP (Ciguatera Fish Poisoning),,,,,,,,,,,,,,,,,,,,,,,,,,,,
PF-16-139,2016,Australes archipelago,,1,CFP monitoring programme of French Polynesia,1,,0,0,1,0,0,0,,0,0,TUBUAI,,,,8/27/2016,,,,,,0,,,0,,1,0,0,0,0,0,0,0,0,0,0,,NULL,,Scarus altipinnis,,,,1/6/2017 12:29,,,FRENCH POLYNESIA,CFP (Ciguatera Fish Poisoning),,,,,,,,,,,,,,,,,,,,,,,,,,,,
PF-16-138,2016,Tuamotu archipelago,,1,CFP monitoring programme of French Polynesia,1,,0,0,1,0,0,0,,0,0,,,,,12/20/2016,,,,,,0,,,0,,1,0,0,0,0,0,0,0,0,0,0,,NULL,,Unknown fish species,,,,1/6/2017 12:24,,,FRENCH POLYNESIA,CFP (Ciguatera Fish Poisoning),,,,,,,,,,,,,,,,,,,,,,,,,,,,
PF-16-137,2016,Tuamotu archipelago,,1,CFP monitoring programme of French polynesia,1,,0,0,1,0,0,0,,0,0,RAROIA,,,,7/15/2016,,,,,,0,,,0,,1,0,0,0,0,0,0,0,0,0,0,,NULL,,Caranx ignobilis,,,,1/3/2017 9:29,,,FRENCH POLYNESIA,CFP (Ciguatera Fish Poisoning),,,,,,,,,,,,,,,,,,,,,,,,,,,,
PF-16-135,2016,Tuamotu archipelgo,,1,CFP monitoring programme of French Polynesia,1,,0,0,1,0,0,0,,0,0,RAROIA,,,,12/5/2016,,,,,,0,,,0,,0,0,0,0,0,0,0,0,0,0,0,,NULL,,Plectropomus laevis,,,,12/14/2016 1:07,,,FRENCH POLYNESIA,CFP (Ciguatera Fish Poisoning),,,,,,,,,,,,,,,,,,,,,,,,,,,,
PF-16-134,2016,Society archipelgo,,1,CFP monitoring programme of French Polynesia,1,,0,0,1,0,0,0,,0,0,TAHITI,,,,11/29/2016,,,,,,0,,,0,,0,0,0,0,0,0,0,0,0,0,0,,0,,Lethrinus miniatus,,,,12/7/2016 11:26,,,FRENCH POLYNESIA,CFP (Ciguatera Fish Poisoning),,,,,,,,,,,,,,,,,,,,,,,,,,,,
PF-16-133,2016,Tuamotu archipelago,,1,CFP monitoring programme of French polynesia,1,,0,0,1,0,0,0,,0,0,TAHANEA,,,,12/3/2016,,,,,,0,,,0,,0,0,0,0,0,0,0,0,0,0,0,,NULL,,Plectropomus laevis,,,,12/7/2016 9:08,,,FRENCH POLYNESIA,CFP (Ciguatera Fish Poisoning),,,,,,,,,,,,,,,,,,,,,,,,,,,,
PF-16-132,2016,Tuamotu archipelago,,1,CFP moniroting programme of French polynesia,1,,0,0,1,0,0,0,,0,0,ANAA,,,,,,,,,,0,,,0,,0,0,0,0,0,0,0,0,0,0,0,,NULL,,Lutjanus monostigma,,,,12/7/2016 9:07,,,FRENCH POLYNESIA,CFP (Ciguatera Fish Poisoning),,,,,,,,,,,,,,,,,,,,,,,,,,,,
PF-16-131,2016,Tuamotu archipelago,,1,CFP monitoring programme of French Polynesia,1,,0,0,1,0,0,0,,0,0,APATAKI,,,,12/5/2016,,,,,,0,,,0,,0,0,0,0,0,0,0,0,0,0,0,,NULL,,Lutjanus monostigma,,,,12/6/2016 8:22,,,FRENCH POLYNESIA,CFP (Ciguatera Fish Poisoning),,,,,,,,,,,,,,,,,,,,,,,,,,,,
PF-16-130,2016,Society archipelago,,1,CFP monitoring programme of French Polynesia,1,,0,0,1,0,0,0,,0,0,BORA BORA,,,,12/1/2016,,,,,,0,,,0,,0,0,0,0,0,0,0,0,0,0,0,,NULL,,Lethrinidae,,,,12/6/2016 7:35,,,FRENCH POLYNESIA,CFP (Ciguatera Fish Poisoning),,,,,,,,,,,,,,,,,,,,,,,,,,,,
PF-16-129,2016,Society archipelago,,1,CFP monitoring programme of French Polynesia,1,,0,0,1,0,0,0,,0,0,BORA BORA,,,,12/1/2016,,,,,,0,,,0,,0,0,0,0,0,0,0,0,0,0,0,,NULL,,Lethrinus xanthochilus,,,,12/6/2016 7:29,,,FRENCH POLYNESIA,CFP (Ciguatera Fish Poisoning),,,,,,,,,,,,,,,,,,,,,,,,,,,,
PF-16-128,2016,Society archipelago,,1,CFP monitoring  programme of French Polynesia,1,,0,0,1,0,0,0,,0,0,MOOREA,,,,11/28/2016,,,,,,0,,,0,,0,0,0,0,0,0,0,0,0,0,0,,NULL,,Ctenochaetus striatus,,,,12/6/2016 7:22,,,FRENCH POLYNESIA,CFP (Ciguatera Fish Poisoning),,,,,,,,,,,,,,,,,,,,,,,,,,,,
PF-16-127,2016,Tuamotu archipelago,,1,CFP monitoring programme of French Polynesia,1,,0,0,1,0,0,0,,0,0,Tuamotu,,,,10/13/2016,,,,,,0,,,0,,1,0,0,0,0,0,0,0,0,0,0,,NULL,,Unknown,,,,11/21/2016 11:42,,,FRENCH POLYNESIA,CFP (Ciguatera Fish Poisoning),,,,,,,,,,,,,,,,,,,,,,,,,,,,
PF-16-126,2016,Tuamotu archipelago,,1,CFP monitoring programme of French polynesia,1,,0,0,1,0,0,0,,0,0,ANAA,,,,9/27/2016,,,,,,0,,,0,,1,0,0,0,0,0,0,0,0,0,0,,NULL,,Lutjanus monostigma,,,,11/21/2016 10:02,,,FRENCH POLYNESIA,CFP (Ciguatera Fish Poisoning),,,,,,,,,,,,,,,,,,,,,,,,,,,,
PF-16-125,2016,Tuamotu archipelago,,1,CFP monitoring programme of French Polynesia,1,,0,0,1,0,0,0,,0,0,ANAA,,,,6/3/2016,,,,,,0,,,0,,1,0,0,0,0,0,0,0,0,0,0,,NULL,,Plectropomus laevis,,,,11/21/2016 10:00,,,FRENCH POLYNESIA,CFP (Ciguatera Fish Poisoning),,,,,,,,,,,,,,,,,,,,,,,,,,,,
PF-16-124,2016,Australes archipelago,,1,CFP monitoring programme of French Polynesia,1,,0,0,1,0,0,0,,0,0,RAIVAVAE,,,,11/7/2016,,,,,,0,,,0,,1,0,0,0,0,0,0,0,0,0,0,,NULL,,Carangidae,,,,11/18/2016 7:02,,,FRENCH POLYNESIA,CFP (Ciguatera Fish Poisoning),,,,,,,,,,,,,,,,,,,,,,,,,,,,
PF-16-123,2016,Tuamotu archipelago,,1,CFP monitoring programme of French Polynesia,1,,0,0,1,0,0,0,,0,0,ANAA,,,,11/15/2016,,,,,,0,,,0,,1,0,0,0,0,0,0,0,0,0,0,,NULL,,Epinephelus polyphekadion,,,,11/18/2016 7:01,,,FRENCH POLYNESIA,CFP (Ciguatera Fish Poisoning),,,,,,,,,,,,,,,,,,,,,,,,,,,,
PF-16-122,2016,Tuamotu archipelago,,1,CFP monitoring programme of French Polynesia,1,,0,0,1,0,0,0,,0,0,APATAKI,,,,11/3/2016,,,,,,0,,,0,,1,0,0,0,0,0,0,0,0,0,0,,NULL,,Lethrinidae,,,,11/5/2016 2:05,,,FRENCH POLYNESIA,CFP (Ciguatera Fish Poisoning),,,,,,,,,,,,,,,,,,,,,,,,,,,,
PF-16-121,2016,Tuamotu archipelago,,1,CFP moniroting programme of French Polynesia,1,,0,0,1,0,0,0,,0,0,HAO,,,,10/28/2016,,,,,,0,,,0,,1,0,0,0,0,0,0,0,0,0,0,,NULL,,Scaridae,,,,11/3/2016 8:01,,,FRENCH POLYNESIA,CFP (Ciguatera Fish Poisoning),,,,,,,,,,,,,,,,,,,,,,,,,,,,
PF-16-120,2016,Tuamotu archipelago,,1,CFP monitoring programme of French Polynesia,1,,0,0,1,0,0,0,,0,0,KAUKURA,,,,10/29/2016,,,,,,0,,,0,,1,0,0,0,0,0,0,0,0,0,0,,NULL,,Cephalopholis sexmaculata,,,,11/3/2016 8:00,,,FRENCH POLYNESIA,CFP (Ciguatera Fish Poisoning),,,,,,,,,,,,,,,,,,,,,,,,,,,,
PF-16-119,2016,Australes archipelago,,1,CFP moniroting programme of French polynesia,1,,0,0,1,0,0,0,,0,0,Rapa island,,,,10/17/2016,,,,,,0,,,0,,1,0,0,0,0,0,0,0,0,0,0,,NULL,,Kyphosus pacificus,,,,10/27/2016 1:21,,,FRENCH POLYNESIA,CFP (Ciguatera Fish Poisoning),,,,,,,,,,,,,,,,,,,,,,,,,,,,
PF-16-118,2016,Tuamotu archipelago,,1,,NULL,,0,0,1,0,0,0,,0,0,Katiu island,,,,9/28/2016,,,,,,0,,,0,,1,0,0,0,0,0,0,0,0,0,0,,NULL,,Plectropomus laevis,,,,10/27/2016 1:20,,,FRENCH POLYNESIA,CFP (Ciguatera Fish Poisoning),,,,,,,,,,,,,,,,,,,,,,,,,,,,
PF-16-117,2016,Tuamotu archipelago,,1,CFP monitoring programme of French Polynesia,1,,0,0,1,0,0,0,,0,0,Marutea,,,,7/18/2016,,,,,,0,,,0,,1,0,0,0,0,0,0,0,0,0,0,,NULL,,Cheilinus undulatus,,,,10/27/2016 1:18,,,FRENCH POLYNESIA,CFP (Ciguatera Fish Poisoning),,,,,,,,,,,,,,,,,,,,,,,,,,,,
PF-16-116,2016,Tuamotu archipelago,,1,CFP monitoring programme of French Polynesia,1,,0,0,1,0,0,0,,0,0,Hao island,,,,10/16/2016,,,,,,0,,,0,,1,0,0,0,0,0,0,0,0,0,0,,0,,Cephalopholis argus,,,,10/27/2016 1:17,,,FRENCH POLYNESIA,CFP (Ciguatera Fish Poisoning),,,,,,,,,,,,,,,,,,,,,,,,,,,,
PF-16-115,2016,Tuamotu archipelago,,1,CFP monitoring programme of French Polynesia,1,,0,0,1,0,0,0,,0,0,Hao island,,,,10/16/2016,,,,,,0,,,0,,1,0,0,0,0,0,0,0,0,0,0,,NULL,,Plectropomus laevis,,,,10/27/2016 1:16,,,FRENCH POLYNESIA,CFP (Ciguatera Fish Poisoning),,,,,,,,,,,,,,,,,,,,,,,,,,,,
PF-16-114,2016,Tuamotu archipelago,,1,CFP monitoring programme of French Polynesia,1,,0,0,1,0,0,0,,0,0,Hao island,,,,10/18/2016,,,,,,0,,,0,,1,0,0,0,0,0,0,0,0,0,0,,NULL,,Plectopomus laevis,,,,10/27/2016 1:15,,,FRENCH POLYNESIA,CFP (Ciguatera Fish Poisoning),,,,,,,,,,,,,,,,,,,,,,,,,,,,
PF-16-113,2016,Marquesas archipelago,,1,CFP monitoring programme of French Polynesia,1,,0,0,1,0,0,0,,0,0,Ua-Pou island,,,,10/18/2016,,,,,,0,,,0,,1,0,0,0,0,0,0,0,0,0,0,,NULL,,unknown,,,,10/27/2016 1:13,,,FRENCH POLYNESIA,CFP (Ciguatera Fish Poisoning),,,,,,,,,,,,,,,,,,,,,,,,,,,,
PF-16-112,2016,Society archipelago,,1,CFP monitoring programme of French Polynesia,1,,0,0,1,0,0,0,,0,0,Tahiti island,,,,10/3/2016,,,,,,0,,,0,,1,0,0,0,0,0,0,0,0,0,0,,NULL,,Lethrinus obsoletus,,,,10/27/2016 1:12,,,FRENCH POLYNESIA,CFP (Ciguatera Fish Poisoning),,,,,,,,,,,,,,,,,,,,,,,,,,,,
PF-16-111,2016,Tuamotu archipelago,,1,CFP monitoring programme of French Polynesia,1,,0,0,1,0,0,0,,0,0,Faaite island,,,,10/19/2016,,,,,,0,,,0,,1,0,0,0,0,0,0,0,0,0,0,,NULL,,Cheilinus undulatus,,,,10/25/2016 3:37,,,FRENCH POLYNESIA,CFP (Ciguatera Fish Poisoning),,,,,,,,,,,,,,,,,,,,,,,,,,,,
PF-16-110,2016,Tuamotu archipelago,,1,CFP monitoring programme of French Polynesia,1,,0,0,1,0,0,0,,0,0,Faaite island,,,,10/16/2016,,,,,,0,,,0,,1,0,0,0,0,0,0,0,0,0,0,,1,,Cheilinus undulatus,,,,10/25/2016 3:36,,,FRENCH POLYNESIA,CFP (Ciguatera Fish Poisoning),,,,,,,,,,,,,,,,,,,,,,,,,,,,
PF-16-109,2016,Tuamotu archipelago,,1,CFP monitoring programme of French Polynesia,1,,0,0,1,0,0,0,,0,0,Hao island,,,,10/23/2016,,,,,,0,,,0,,1,0,0,0,0,0,0,0,0,0,0,,NULL,,Balistidae,,,,10/25/2016 3:28,,,FRENCH POLYNESIA,CFP (Ciguatera Fish Poisoning),,,,,,,,,,,,,,,,,,,,,,,,,,,,
PF-16-108,2016,Australes archipelago,,1,CFP monitoring programme of French Polynesia,1,,0,0,1,0,0,0,,0,0,Rurutu island,,,,10/18/2016,,,,,,0,,,1,,1,0,0,0,0,0,0,0,0,0,0,,NULL,,Scarus altipinnis,,,,10/24/2016 10:59,,,FRENCH POLYNESIA,CFP (Ciguatera Fish Poisoning),,,,,,,,,,,,,,,,,,,,,,,,,,,,
PF-16-107,2016,,,1,CFP monitoring programme of French Polynesia,1,,0,0,1,0,0,0,,0,0,French Polynesia,,,,10/3/2016,,,,,,0,,,0,,1,0,0,0,0,0,0,0,0,0,0,,NULL,,unknown,,,,10/24/2016 10:12,,,FRENCH POLYNESIA,CFP (Ciguatera Fish Poisoning),,,,,,,,,,,,,,,,,,,,,,,,,,,,
PF-16-106,2016,Tuamotu archipelago,,1,CFP monitoring programme of French Polynesia,1,,0,0,1,0,0,0,,0,0,Hao island,,,,10/22/2016,,,,,,0,,,0,,1,0,0,0,0,0,0,0,0,0,0,,NULL,,Plectropomus laevis,,,,10/24/2016 10:08,,,FRENCH POLYNESIA,CFP (Ciguatera Fish Poisoning),,,,,,,,,,,,,,,,,,,,,,,,,,,,
PF-16-105,2016,Society archipelago,,1,CFP monitoring programme of French Polynesia,1,,0,0,1,0,0,0,,0,0,Moorea island,,,,10/20/2016,,,,,,0,,,0,,1,0,0,0,0,0,0,0,0,0,0,,NULL,,unknown,,,,10/24/2016 8:45,,,FRENCH POLYNESIA,CFP (Ciguatera Fish Poisoning),,,,,,,,,,,,,,,,,,,,,,,,,,,,
PF-16-104,2016,Society archipelago,,1,CFP monitoring of French Polynesia,1,,0,0,1,0,0,0,,0,0,TAHITI,,,,9/30/2016,,,,,,0,,,0,,1,0,0,0,0,0,0,0,0,0,0,,NULL,,Caranx melampygus,,,,10/4/2016 8:38,,,FRENCH POLYNESIA,CFP (Ciguatera Fish Poisoning),,,,,,,,,,,,,,,,,,,,,,,,,,,,
PF-16-103,2016,Society archipelago,,1,CFP monitoring programme of French Polynesia,1,,0,0,1,0,0,0,,0,0,TAHITI,,,,,,,,,,0,,,0,,1,0,0,0,0,0,0,0,0,0,0,,NULL,,,,,,9/30/2016 2:29,,,FRENCH POLYNESIA,CFP (Ciguatera Fish Poisoning),,,,,,,,,,,,,,,,,,,,,,,,,,,,
PF-16-102,2016,Tuamotu archipelago,,1,CFP monitoring programme of French Polynesia,1,,0,0,1,0,0,0,,0,0,ARUTUA,,,,9/22/2016,,,,,,0,,,0,,1,0,0,0,0,0,0,0,0,0,0,,NULL,,Cheilinus undulatus,,,,9/23/2016 9:26,,,FRENCH POLYNESIA,CFP (Ciguatera Fish Poisoning),,,,,,,,,,,,,,,,,,,,,,,,,,,,
PF-16-101,2016,Tuamotu archipelago,,1,CFP monitoring Programme of French Polynesia,1,,0,0,1,0,0,0,,0,0,ARUTUA,,,,9/17/2016,,,,,,0,,,0,,1,0,0,0,0,0,0,0,0,0,0,,NULL,,Mullidae,,,,9/23/2016 9:25,,,FRENCH POLYNESIA,CFP (Ciguatera Fish Poisoning),,,,,,,,,,,,,,,,,,,,,,,,,,,,
PF-16-100,2016,Tuamotu archipelago,,1,CFP monitoring programme of French Polynesia,1,,0,0,1,0,0,0,,0,0,ARURUTA,,,,9/9/2016,,,,,,0,,,0,,1,0,0,0,0,0,0,0,0,0,0,,NULL,,Acanthurus xanthopterus,,,,9/16/2016 9:31,,,FRENCH POLYNESIA,CFP (Ciguatera Fish Poisoning),,,,,,,,,,,,,,,,,,,,,,,,,,,,
PF-16-099,2016,Marquesas archipelago,,1,CFP monitoring programme of French Polynesia,1,,0,0,1,0,0,0,,0,0,UA-HUKA island,,,,9/11/2016,,,,,,0,,,0,,1,0,0,0,0,0,0,0,0,0,0,,NULL,,Lutjanus bohar,,,,9/13/2016 8:03,,,FRENCH POLYNESIA,CFP (Ciguatera Fish Poisoning),,,,,,,,,,,,,,,,,,,,,,,,,,,,
PF-16-098,2016,Marquesas archipelago,,1,CFP monitoring programme of French Polynesia,1,,0,0,1,0,0,0,,0,0,EIAO island,,,,9/6/2016,,,,,,0,,,0,,1,0,0,0,0,0,0,0,0,0,0,,NULL,,Lutjanus bohar,,,,9/10/2016 2:06,,,FRENCH POLYNESIA,CFP (Ciguatera Fish Poisoning),,,,,,,,,,,,,,,,,,,,,,,,,,,,
PF-16-097,2016,SOCIETY archipelago,,1,CFP monitoring programme of French Polynesia,NULL,,0,0,1,0,0,0,,0,0,HUAHINE,,,,8/29/2016,,,,,,0,,,0,,1,0,0,0,0,0,0,0,0,0,0,,NULL,,Scaridae,,,,9/8/2016 1:20,,,FRENCH POLYNESIA,CFP (Ciguatera Fish Poisoning),,,,,,,,,,,,,,,,,,,,,,,,,,,,
PF-16-096,2016,MARQUESAS archipelago,,1,CFP monitoring programm of French Polynesia,1,,0,0,1,0,0,0,,0,0,NUKU HIVA,,,,9/5/2016,,,,,,0,,,0,,1,0,0,0,0,0,0,0,0,0,0,,NULL,,Lutjanus gibbus,,,,9/8/2016 1:15,,,FRENCH POLYNESIA,CFP (Ciguatera Fish Poisoning),,,,,,,,,,,,,,,,,,,,,,,,,,,,
PF-16-095,2016,SOCIETY archipelago,,1,CFP monitoring programme of French Polynesia,1,,0,0,1,0,0,0,,0,0,MOOREA island,,,,9/2/2016,,,,,,0,,,0,,1,0,0,0,0,0,0,0,0,0,0,,NULL,,Tetraodontidae,,,,9/6/2016 1:23,,,FRENCH POLYNESIA,CFP (Ciguatera Fish Poisoning),,,,,,,,,,,,,,,,,,,,,,,,,,,,
PF-16-094,2016,Marquesas archipelago,,1,CFP monitoring programme of French Polynesia,1,,0,0,1,0,0,0,,0,0,UA HUKA,,,,8/29/2016,,,,,,0,,,0,,1,0,0,0,0,0,0,0,0,0,0,,NULL,,Lutjanus gibbus,,,,8/31/2016 7:46,,,FRENCH POLYNESIA,CFP (Ciguatera Fish Poisoning),,,,,,,,,,,,,,,,,,,,,,,,,,,,
PF-16-093,2016,Tuamotu archipelago,,1,CFP monitoring programme of French Polynesia,1,,0,0,1,0,0,0,,0,0,REAO,,,,8/25/2016,,,,,,0,,,0,,1,0,0,0,0,0,0,0,0,0,0,,NULL,,Naso unicornis,,,,8/31/2016 7:44,,,FRENCH POLYNESIA,CFP (Ciguatera Fish Poisoning),,,,,,,,,,,,,,,,,,,,,,,,,,,,
PF-16-092,2016,Australes archipelago,,1,CFP monitoring programme of French Polynesia,1,,0,0,1,0,0,0,,0,0,RAIVAVAE,,,,8/29/2016,,,,,,0,,,0,,1,0,0,0,0,0,0,0,0,0,0,,NULL,,Chlorurus microrhinos,,,,8/31/2016 7:43,,,FRENCH POLYNESIA,CFP (Ciguatera Fish Poisoning),,,,,,,,,,,,,,,,,,,,,,,,,,,,
PF-16-091,2016,Australes archipelago,,1,CFP monitoring programme of French polynesia,1,,0,0,1,0,0,0,,0,0,Rapa island,,,,8/22/2016,,,,,,0,,,0,,1,0,0,0,0,0,0,0,0,0,0,,NULL,,Kiphosus cinerascens,,,,8/29/2016 10:21,,,FRENCH POLYNESIA,CFP (Ciguatera Fish Poisoning),,,,,,,,,,,,,,,,,,,,,,,,,,,,
PF-16-090,2016,Society archipelago,,1,CFP monitoring programme of French Polynesia,1,,0,0,1,0,0,0,,0,0,Tahaa,,,,8/13/2016,,,,,,0,,,0,,1,0,0,0,0,0,0,0,0,0,0,,NULL,,Cheilinus undulatus,,,,8/17/2016 11:15,,,FRENCH POLYNESIA,CFP (Ciguatera Fish Poisoning),,,,,,,,,,,,,,,,,,,,,,,,,,,,
PF-16-089,2016,Tuamotu archipelago,,1,CFP monitoring progamme of French Polynesia,1,,0,0,1,0,0,0,,0,0,,,,,8/4/2016,,,,,,0,,,0,,1,0,0,0,0,0,0,0,0,0,0,,NULL,,Lethrinidae,,,,8/9/2016 7:21,,,FRENCH POLYNESIA,CFP (Ciguatera Fish Poisoning),,,,,,,,,,,,,,,,,,,,,,,,,,,,
PF-16-087,2016,Tuamotu archipelago,,1,CFP monitoring programme of French Polynesia,1,,0,0,1,0,0,0,,0,0,Apataki,,,,7/28/2016,,,,,,0,,,0,,1,0,0,0,0,0,0,0,0,0,0,,NULL,,Plectropomus laevis,,,,8/8/2016 7:27,,,FRENCH POLYNESIA,CFP (Ciguatera Fish Poisoning),,,,,,,,,,,,,,,,,,,,,,,,,,,,
PF-16-086,2016,Tuamotu archipelago,,1,CFP monitoring programme of French Polynesia,1,,0,0,1,0,0,0,,0,0,Arutua,,,,8/1/2016,,,,,,0,,,0,,1,0,0,0,0,0,0,0,0,0,0,,NULL,,Caranx melampygus,,,,8/8/2016 7:26,,,FRENCH POLYNESIA,CFP (Ciguatera Fish Poisoning),,,,,,,,,,,,,,,,,,,,,,,,,,,,
PF-16-085,2016,Society archipelago,,1,CFP monitoing programme of French Polynesia,1,,0,0,1,0,0,0,,0,0,French Polynesia,,,,8/2/2016,,,,,,0,,,0,,1,0,0,0,0,0,0,0,0,0,0,,NULL,,Selar crumenophthalmus,,,,8/5/2016 2:11,,,FRENCH POLYNESIA,CFP (Ciguatera Fish Poisoning),,,,,,,,,,,,,,,,,,,,,,,,,,,,
PF-16-084,2016,Tuamotu archipelago,,1,CFP monitoring programme of French Polynesia,1,,0,0,1,0,0,0,,0,0,FAKARAVA,,,,1/10/2016,,,,,,0,,,0,,1,0,0,0,0,0,0,0,0,0,0,,NULL,,Caranc melampygus,,,,7/29/2016 9:22,,,FRENCH POLYNESIA,CFP (Ciguatera Fish Poisoning),,,,,,,,,,,,,,,,,,,,,,,,,,,,
PF-16-083,2016,Marquesas archipelago,,1,CFP monitoring programme of French Polynesia,1,,0,0,1,0,0,0,,0,0,HIVA OA,,,,1/16/2016,,,,,,0,,,0,,1,0,0,0,0,0,0,0,0,0,0,,NULL,,Chlorurus microrhinos,,,,7/29/2016 9:21,,,FRENCH POLYNESIA,CFP (Ciguatera Fish Poisoning),,,,,,,,,,,,,,,,,,,,,,,,,,,,
PF-16-082,2016,Marquesas archipelago,,1,CFP monitoring programme of French Polynesia,1,,0,0,1,0,0,0,,0,0,HIVA OA,,,,1/17/2016,,,,,,0,,,0,,1,0,0,0,0,0,0,0,0,0,0,,NULL,,Lethrinus xanthochilus,,,,7/29/2016 9:19,,,FRENCH POLYNESIA,CFP (Ciguatera Fish Poisoning),,,,,,,,,,,,,,,,,,,,,,,,,,,,
PF-16-081,2016,Marquesas archipelago,,1,CFP monitoring programme of French Polynesia,1,,0,0,1,0,0,0,,0,0,HIVA OA,,,,1/17/2016,,,,,,0,,,0,,1,0,0,0,0,0,0,0,0,0,0,,NULL,,Chlorurus microrhinos,,,,7/29/2016 9:18,,,FRENCH POLYNESIA,CFP (Ciguatera Fish Poisoning),,,,,,,,,,,,,,,,,,,,,,,,,,,,
PF-16-080,2016,Society archipelago,,1,CFP monitoring programme of French Polynesia,1,,0,0,1,0,0,0,,0,0,RAIATEA,,,,1/27/2016,,,,,,0,,,0,,1,0,0,0,0,0,0,0,0,0,0,,NULL,,Caranx melampygus,,,,7/29/2016 9:16,,,FRENCH POLYNESIA,CFP (Ciguatera Fish Poisoning),,,,,,,,,,,,,,,,,,,,,,,,,,,,
PF-16-079,2016,Society archipelago,,1,CFP monitoring programme of French Polynesia,1,,0,0,1,0,0,0,,0,0,TETIAROA,,,,2/14/2016,,,,,,0,,,0,,1,0,0,0,0,0,0,0,0,0,0,,NULL,,Lutjanus rivulatus,,,,7/29/2016 9:15,,,FRENCH POLYNESIA,CFP (Ciguatera Fish Poisoning),,,,,,,,,,,,,,,,,,,,,,,,,,,,
PF-16-078,2016,Gambier archipelago,,1,CFP monitoring programme of French Polynesia,1,,0,0,1,0,0,0,,0,0,MANGAREVA,,,,2/14/2016,,,,,,0,,,0,,1,0,0,0,0,0,0,0,0,0,0,,NULL,,Lethrinus atkinsoni,,,,7/29/2016 9:13,,,FRENCH POLYNESIA,CFP (Ciguatera Fish Poisoning),,,,,,,,,,,,,,,,,,,,,,,,,,,,
PF-16-077,2016,Marquesas archipelago,,1,CFP monitoring programme of French Polynesia,1,,0,0,1,0,0,0,,0,0,HIVA OA,,,,3/23/2016,,,,,,0,,,0,,1,0,0,0,0,0,0,0,0,0,0,,NULL,,Caranx melampygus,,,,7/29/2016 9:11,,,FRENCH POLYNESIA,CFP (Ciguatera Fish Poisoning),,,,,,,,,,,,,,,,,,,,,,,,,,,,
PF-16-076,2016,Marquesas archipelago,,1,CFP monitoring programme of French Polynesia,1,,0,0,1,0,0,0,,0,0,HIVA OA,,,,4/4/2016,,,,,,0,,,0,,1,0,0,0,0,0,0,0,0,0,0,,NULL,,Lutjanus gibbus,,,,7/29/2016 9:10,,,FRENCH POLYNESIA,CFP (Ciguatera Fish Poisoning),,,,,,,,,,,,,,,,,,,,,,,,,,,,
PF-16-075,2016,Marquesas archipelago,,1,CFP monitoring of French Polynesia,1,,0,0,1,0,0,0,,0,0,HIVA OA,,,,4/9/2016,,,,,,0,,,0,,1,0,0,0,0,0,0,0,0,0,0,,NULL,,Sphyraena helleri,,,,7/29/2016 9:09,,,FRENCH POLYNESIA,CFP (Ciguatera Fish Poisoning),,,,,,,,,,,,,,,,,,,,,,,,,,,,
PF-16-074,2016,Australes archipelago,,1,CFP monitoring programme of French Polynesia,1,,0,0,1,0,0,0,,0,0,RAPA,,,,6/8/2016,,,,,,0,,,0,,1,0,0,0,0,0,0,0,0,0,0,,NULL,,Caranx ignobilis,,,,7/29/2016 9:08,,,FRENCH POLYNESIA,CFP (Ciguatera Fish Poisoning),,,,,,,,,,,,,,,,,,,,,,,,,,,,
PF-16-073,2016,Tuamotu archipelago,,1,CFP monitoring programme of French Polynesia,1,,0,0,1,0,0,0,,0,0,TIKEHAU,,,,6/18/2016,,,,,,0,,,0,,1,0,0,0,0,0,0,0,0,0,0,,NULL,,Myripristis amena,,,,7/29/2016 9:07,,,FRENCH POLYNESIA,CFP (Ciguatera Fish Poisoning),,,,,,,,,,,,,,,,,,,,,,,,,,,,
PF-16-072,2016,Tuamotu archipelago,,1,CFP monitoring programme of French Polynesia,1,,0,0,1,0,0,0,,0,0,FAKARAVA,,,,5/1/2016,,,,,,0,,,0,,1,0,0,0,0,0,0,0,0,0,0,,NULL,,Lethrinus miniatus,,,,7/29/2016 9:06,,,FRENCH POLYNESIA,CFP (Ciguatera Fish Poisoning),,,,,,,,,,,,,,,,,,,,,,,,,,,,
PF-16-071,2016,Tuamotu archipelago,,1,CFP monitoring programme of French Polynesia,1,,0,0,1,0,0,0,,0,0,FAKARAVA,,,,5/14/2016,,,,,,0,,,0,,1,0,0,0,0,0,0,0,0,0,0,,NULL,,Chlorurus microrhinos,,,,7/29/2016 9:04,,,FRENCH POLYNESIA,CFP (Ciguatera Fish Poisoning),,,,,,,,,,,,,,,,,,,,,,,,,,,,
PF-16-070,2016,,,1,CFP monitoring programme of French Polynesia,1,,0,0,1,0,0,0,,0,0,FAKARAVA,,,,6/16/2016,,,,,,0,,,0,,1,0,0,0,0,0,0,0,0,0,0,,0,,Plectropomus laevis,,,,7/29/2016 9:02,,,FRENCH POLYNESIA,CFP (Ciguatera Fish Poisoning),,,,,,,,,,,,,,,,,,,,,,,,,,,,
PF-16-069,2016,Tuamotu archipelago,,1,CFP monitoring programme of French polynesia,1,,0,0,1,0,0,0,,0,0,FAKARAVA,,,,6/26/2016,,,,,,0,,,0,,1,0,0,0,0,0,0,0,0,0,0,,NULL,,Lutjanus fulvus,,,,7/29/2016 9:01,,,FRENCH POLYNESIA,CFP (Ciguatera Fish Poisoning),,,,,,,,,,,,,,,,,,,,,,,,,,,,
PF-16-068,2016,Society archipelago,,1,CFP monitoring programme of French Polynesia,1,,0,0,1,0,0,0,,0,0,MOOREA,,,,1/27/2016,,,,,,0,,,0,,1,0,0,0,0,0,0,0,0,0,0,,NULL,,Carangidae,,,,7/29/2016 8:50,,,FRENCH POLYNESIA,CFP (Ciguatera Fish Poisoning),,,,,,,,,,,,,,,,,,,,,,,,,,,,
PF-16-067,2016,Tuamotu archipelago,,1,CFP monitoring programme of French Polynesia,1,,0,0,1,0,0,0,,0,0,,,,,1/23/2016,,,,,,0,,,0,,1,0,0,0,0,0,0,0,0,0,0,,NULL,,Myripristis amena,,,,7/29/2016 8:48,,,FRENCH POLYNESIA,CFP (Ciguatera Fish Poisoning),,,,,,,,,,,,,,,,,,,,,,,,,,,,
PF-16-066,2016,Tuamotu archipelago,,1,CFP monitoring programme of French Polynesia,1,,0,0,1,0,0,0,,0,0,,,,,2/17/2016,,,,,,0,,,0,,1,0,0,0,0,0,0,0,0,0,0,,NULL,,Cheilinus undulatus,,,,7/29/2016 8:46,,,FRENCH POLYNESIA,CFP (Ciguatera Fish Poisoning),,,,,,,,,,,,,,,,,,,,,,,,,,,,
PF-16-065,2016,Tuamotu archipelago,,1,CFP moniroting programme of French Polynesia,1,,0,0,1,0,0,0,,0,0,APATAKI,,,,6/13/2016,,,,,,0,,,0,,1,0,0,0,0,0,0,0,0,0,0,,NULL,,Sphyraena barracuda,,,,7/29/2016 8:41,,,FRENCH POLYNESIA,CFP (Ciguatera Fish Poisoning),,,,,,,,,,,,,,,,,,,,,,,,,,,,
PF-16-064,2016,Tuamotu archipelago,,1,CFP monitoring programme of French Polynesia,1,,0,0,1,0,0,0,,0,0,APATAKI,,,,6/11/2016,,,,,,0,,,0,,1,0,0,0,0,0,0,0,0,0,0,,NULL,,Lethrinus xanthochilus,,,,7/29/2016 8:40,,,FRENCH POLYNESIA,CFP (Ciguatera Fish Poisoning),,,,,,,,,,,,,,,,,,,,,,,,,,,,
PF-16-063,2016,Tuamotu archipelago,,1,CFP monitoring programme of French Polynesia,1,,0,0,1,0,0,0,,0,0,APATAKI,,,,6/2/2016,,,,,,0,,,0,,1,0,0,0,0,0,0,0,0,0,0,,NULL,,Plectropomus laevis,,,,7/29/2016 8:38,,,FRENCH POLYNESIA,CFP (Ciguatera Fish Poisoning),,,,,,,,,,,,,,,,,,,,,,,,,,,,
PF-16-062,2016,Tuamotu archipelago,,1,CFP monitoring programme of French Polynesia,1,,0,0,1,0,0,0,,0,0,APATAKI,,,,4/9/2016,,,,,,0,,,0,,1,0,0,0,0,0,0,0,0,0,0,,NULL,,Epinephelus polyphekadion,,,,7/29/2016 8:37,,,FRENCH POLYNESIA,CFP (Ciguatera Fish Poisoning),,,,,,,,,,,,,,,,,,,,,,,,,,,,
PF-16-061,2016,Tuamotu archipelago,,1,CFP monitoring programme of French Polynesia,1,,0,0,1,0,0,0,,0,0,APATAKI,,,,3/30/2016,,,,,,0,,,0,,1,0,0,0,0,0,0,0,0,0,0,,NULL,,Cheilinus undulatus,,,,7/29/2016 8:35,,,FRENCH POLYNESIA,CFP (Ciguatera Fish Poisoning),,,,,,,,,,,,,,,,,,,,,,,,,,,,
PF-16-060,2016,Tuamotu archipelago,,1,CFP moniroting programme of French Polynesia,1,,0,0,1,0,0,0,,0,0,APATAKI,,,,2/14/2016,,,,,,0,,,0,,1,0,0,0,0,0,0,0,0,0,0,,NULL,,Scaridae,,,,7/29/2016 8:33,,,FRENCH POLYNESIA,CFP (Ciguatera Fish Poisoning),,,,,,,,,,,,,,,,,,,,,,,,,,,,
PF-16-059,2016,,,1,CFP monitoring programme of French Polynesia,1,,0,0,1,0,0,0,,0,0,REAO,,,,6/3/2016,,,,,,0,,,0,,1,0,0,0,0,0,0,0,0,0,0,,NULL,,Acanthuridae,,,,7/29/2016 8:31,,,FRENCH POLYNESIA,CFP (Ciguatera Fish Poisoning),,,,,,,,,,,,,,,,,,,,,,,,,,,,
PF-16-058,2016,Tuamotu archipelago,,1,CFP monitoring programme of French Polynesia,1,,0,0,1,0,0,0,,0,0,MANIHI,,,,2/24/2016,,,,,,0,,,0,,1,0,0,0,0,0,0,0,0,0,0,,NULL,,Aprion virescens,,,,7/29/2016 8:28,,,FRENCH POLYNESIA,CFP (Ciguatera Fish Poisoning),,,,,,,,,,,,,,,,,,,,,,,,,,,,
PF-16-057,2016,Tuamotu  archipelago,,1,CFP monitoring programme of French Polynesia,1,,0,0,1,0,0,0,,0,0,MAKEMO,,,,2/2/2016,,,,,,0,,,0,,1,0,0,0,0,0,0,0,0,0,0,,NULL,,Plectropomus laevis,,,,7/29/2016 8:27,,,FRENCH POLYNESIA,CFP (Ciguatera Fish Poisoning),,,,,,,,,,,,,,,,,,,,,,,,,,,,
PF-16-056,2016,Tuamotu archipelago,,1,CFP monitoring programme of French Polynesia,1,,0,0,1,0,0,0,,0,0,KAUKURA,,,,1/24/2016,,,,,,0,,,0,,1,0,0,0,0,0,0,0,0,0,0,,NULL,,Sacrus ghobban,,,,7/29/2016 8:25,,,FRENCH POLYNESIA,CFP (Ciguatera Fish Poisoning),,,,,,,,,,,,,,,,,,,,,,,,,,,,
PF-16-055,2016,Tuamotu archipelago,,1,CFP monitoring programme of French Polynesia,1,,0,0,1,0,0,0,,0,0,KAUEHI,,,,6/19/2016,,,,,,0,,,0,,1,0,0,0,0,0,0,0,0,0,0,,NULL,,Plectropomus laevis,,,,7/29/2016 8:22,,,FRENCH POLYNESIA,CFP (Ciguatera Fish Poisoning),,,,,,,,,,,,,,,,,,,,,,,,,,,,
PF-16-054,2016,Tuamotu archipelago,,1,CFP monitoring programme of French Polynesia,1,,0,0,1,0,0,0,,0,0,KAUEHI,,,,4/4/2016,,,,,,0,,,0,,1,0,0,0,0,0,0,0,0,0,0,,NULL,,?,,,,7/29/2016 8:21,,,FRENCH POLYNESIA,CFP (Ciguatera Fish Poisoning),,,,,,,,,,,,,,,,,,,,,,,,,,,,
PF-16-053,2016,Tuamotu archipelago,,1,CFP monitoring programme of French Polynesia,1,,0,0,1,0,0,0,,0,0,HAO,,,,3/13/2016,,,,,,0,,,0,,1,0,0,0,0,0,0,0,0,0,0,,NULL,,Scaridae,,,,7/29/2016 8:19,,,FRENCH POLYNESIA,CFP (Ciguatera Fish Poisoning),,,,,,,,,,,,,,,,,,,,,,,,,,,,
PF-16-052,2016,Marquesas archipelago,,1,CFP monitoring programme of French Polynesia,1,,0,0,1,0,0,0,,0,0,Nuku Hiva,,,,6/30/2016,,,,,,0,,,0,,1,0,0,0,0,0,0,0,0,0,0,,NULL,,Carangidae,,,,7/29/2016 8:09,,,FRENCH POLYNESIA,CFP (Ciguatera Fish Poisoning),,,,,,,,,,,,,,,,,,,,,,,,,,,,
PF-16-051,2016,Society archipelago,,1,CFP monitoring programme of French Polynesia,1,,0,0,1,0,0,0,,0,0,Bora bora,,,,7/21/2016,,,,,,0,,,0,,1,0,0,0,0,0,0,0,0,0,0,,NULL,,Lutjanus monostigma,,,,7/29/2016 8:08,,,FRENCH POLYNESIA,CFP (Ciguatera Fish Poisoning),,,,,,,,,,,,,,,,,,,,,,,,,,,,
PF-16-050,2016,Tuamotu archipelago,,1,CFP monitoring programme of French Polynesia,1,,0,0,1,0,0,0,,0,0,Ahe,,,,7/11/2016,,,,,,0,,,0,,1,0,0,0,0,0,0,0,0,0,0,,NULL,,Plectropomus laevis,,,,7/29/2016 8:06,,,FRENCH POLYNESIA,CFP (Ciguatera Fish Poisoning),,,,,,,,,,,,,,,,,,,,,,,,,,,,
PF-16-049,2016,,,1,CFP monitoring programme of French Polynesia,1,,0,0,1,0,0,0,,0,0,French Polynesia,,,,7/4/2016,,,,,,0,,,0,,1,0,0,0,0,0,0,0,0,0,0,,NULL,,?,,,,7/15/2016 10:46,,,FRENCH POLYNESIA,CFP (Ciguatera Fish Poisoning),,,,,,,,,,,,,,,,,,,,,,,,,,,,
PF-16-048,2016,Society archipelago,,1,CFP monitoring programme of French polynesia,1,,0,0,1,0,0,0,,0,0,Raiatea,,,,3/1/2016,,,,,,0,,,0,,1,0,0,0,0,0,0,0,0,0,0,,NULL,,Lethrinidae,,,,7/15/2016 10:45,,,FRENCH POLYNESIA,CFP (Ciguatera Fish Poisoning),,,,,,,,,,,,,,,,,,,,,,,,,,,,
PF-16-047,2016,Marquesas archipelago,,1,CFP monitoring programme of French Polynesia,1,,0,0,1,0,0,0,,0,0,Nuku Hiva,,,,6/30/2016,,,,,,0,,,0,,1,0,0,0,0,0,0,0,0,0,0,,NULL,,Carangidae,,,,7/15/2016 10:43,,,FRENCH POLYNESIA,CFP (Ciguatera Fish Poisoning),,,,,,,,,,,,,,,,,,,,,,,,,,,,
PF-16-046,2016,Tuamotu archipelago,,1,CFP monitoring programme of French Polynesia,1,,0,0,1,0,0,0,,0,0,Arutua,,,,4/8/2016,,,,,,0,,,0,,1,0,0,0,0,0,0,0,0,0,0,,NULL,,Cheilinus undulatus,,,,7/13/2016 2:25,,,FRENCH POLYNESIA,CFP (Ciguatera Fish Poisoning),,,,,,,,,,,,,,,,,,,,,,,,,,,,
PF-16-045,2016,Tuamotu archipelago,,1,CFP monitoring programme of French Polynesia,1,,0,0,1,0,0,0,,0,0,Arutua,,,,2/12/2016,,,,,,0,,,0,,1,0,0,0,0,0,0,0,0,0,0,,NULL,,Cheilinus undulatus,,,,7/13/2016 2:24,,,FRENCH POLYNESIA,CFP (Ciguatera Fish Poisoning),,,,,,,,,,,,,,,,,,,,,,,,,,,,
PF-16-044,2016,Tuamotu archipelago,,1,CFP monitoring programme of French Polynesia,1,,0,0,1,0,0,0,,0,0,,,,,5/31/2016,,,,,,0,,,0,,1,0,0,0,0,0,0,0,0,0,0,,NULL,,Cheilinus undulatus,,,,7/13/2016 2:22,,,FRENCH POLYNESIA,CFP (Ciguatera Fish Poisoning),,,,,,,,,,,,,,,,,,,,,,,,,,,,
PF-16-043,2016,Tuamotu archipelago,,1,CFP moniroting programme of French Polynesia,1,,0,0,1,0,0,0,,0,0,,,,,5/23/2016,,,,,,0,,,0,,1,0,0,0,0,0,0,0,0,0,0,,NULL,,Serranidae,,,,7/13/2016 2:21,,,FRENCH POLYNESIA,CFP (Ciguatera Fish Poisoning),,,,,,,,,,,,,,,,,,,,,,,,,,,,
PF-16-042,2016,Tuamotu archipelago,,1,CFP monitoring programme of French Polynesia,1,,0,0,1,0,0,0,,0,0,,,,,5/15/2016,,,,,,0,,,0,,1,0,0,0,0,0,0,0,0,0,0,,NULL,,Cheilinus undulatus,,,,7/13/2016 2:19,,,FRENCH POLYNESIA,CFP (Ciguatera Fish Poisoning),,,,,,,,,,,,,,,,,,,,,,,,,,,,
PF-16-041,2016,Tuamotu archipelago,,1,CFP monitoring programme of French Polynesia,1,,0,0,1,0,0,0,,0,0,Anaa,,,,6/3/2016,,,,,,0,,,0,,1,0,0,0,0,0,0,0,0,0,0,,NULL,,Plectropomus laevis,,,,7/13/2016 2:17,,,FRENCH POLYNESIA,CFP (Ciguatera Fish Poisoning),,,,,,,,,,,,,,,,,,,,,,,,,,,,
PF-16-040,2016,Tuamotu archipelago,,1,CFP monitoring programme of French Polynesia,1,,0,0,1,0,0,0,,0,0,Anaa,,,,4/19/2016,,,,,,0,,,0,,1,0,0,0,0,0,0,0,0,0,0,,NULL,,Lutjanus gibbus,,,,7/13/2016 2:15,,,FRENCH POLYNESIA,CFP (Ciguatera Fish Poisoning),,,,,,,,,,,,,,,,,,,,,,,,,,,,
PF-16-039,2016,Tuamotu archipelago,,1,CFP monitoring programme of French Polynesia,1,,0,0,1,0,0,0,,0,0,Anaa,,,,3/8/2016,,,,,,0,,,0,,1,0,0,0,0,0,0,0,0,0,0,,NULL,,Balistidae,,,,7/13/2016 2:14,,,FRENCH POLYNESIA,CFP (Ciguatera Fish Poisoning),,,,,,,,,,,,,,,,,,,,,,,,,,,,
PF-16-038,2016,Tuamotu archipelago,,1,CFP monitoring programme of French Polynesia,1,,0,0,1,0,0,0,,0,0,Anaa,,,,2/12/2016,,,,,,0,,,0,,1,0,0,0,0,0,0,0,0,0,0,,NULL,,Cheilinus undulatus,,,,7/13/2016 2:12,,,FRENCH POLYNESIA,CFP (Ciguatera Fish Poisoning),,,,,,,,,,,,,,,,,,,,,,,,,,,,
PF-16-037,2016,Tuamotu archipelago,,1,CFPO monitoring programme of French Polynesia,1,,0,0,1,0,0,0,,0,0,Anaa,,,,4/10/2016,,,,,,0,,,0,,1,0,0,0,0,0,0,0,0,0,0,,NULL,,Cephalopholis argus,,,,7/13/2016 2:10,,,FRENCH POLYNESIA,CFP (Ciguatera Fish Poisoning),,,,,,,,,,,,,,,,,,,,,,,,,,,,
PF-16-036,2016,Tuamotu archipelago,,1,CFP monitoring programme of French Polynesia,1,,0,0,1,0,0,0,,0,0,Anaa,,,,5/18/2016,,,,,,0,,,0,,1,0,0,0,0,0,0,0,0,0,0,,NULL,,Naso unicornis,,,,7/13/2016 2:09,,,FRENCH POLYNESIA,CFP (Ciguatera Fish Poisoning),,,,,,,,,,,,,,,,,,,,,,,,,,,,
PF-16-035,2016,Marquesas archipelago,,1,CFP monitoring programme of French Polynesia,1,,0,0,1,0,0,0,,0,0,Nuku Hiva,,,,7/8/2016,,,,,,0,,,0,,1,0,0,0,0,0,0,0,0,0,0,,NULL,,Carangidae,,,,7/13/2016 2:05,,,FRENCH POLYNESIA,CFP (Ciguatera Fish Poisoning),,,,,,,,,,,,,,,,,,,,,,,,,,,,
PF-16-034,2016,Society archipelago,,1,CFP monitoring programme of French Polynesia,NULL,,0,0,1,0,0,0,,0,0,Tahiti,,,,5/23/2016,,,,,,0,,,0,,1,0,0,0,0,0,0,0,0,0,0,,NULL,,caranx melampygus,,,,7/12/2016 3:00,,,FRENCH POLYNESIA,CFP (Ciguatera Fish Poisoning),,,,,,,,,,,,,,,,,,,,,,,,,,,,
PF-16-033,2016,,,1,CFP monitoring programme of French Polynesia,NULL,,0,0,1,0,0,0,,0,0,,,,,6/20/2016,,,,,,0,,,0,,1,0,0,0,0,0,0,0,0,0,0,,NULL,,?,,,,7/12/2016 2:59,,,FRENCH POLYNESIA,CFP (Ciguatera Fish Poisoning),,,,,,,,,,,,,,,,,,,,,,,,,,,,
PF-16-032,2016,,,1,CFP monitoring programme of French Polynesia,1,,0,0,1,0,0,0,,0,0,,,,,6/6/2016,,,,,,0,,,0,,1,0,0,0,0,0,0,0,0,0,0,,NULL,,?,,,,7/12/2016 2:57,,,FRENCH POLYNESIA,CFP (Ciguatera Fish Poisoning),,,,,,,,,,,,,,,,,,,,,,,,,,,,
PF-16-031,2016,Society archipelago,,1,CFP monitoring programme of French Polynesia,1,,0,0,1,0,0,0,,0,0,Tahaa,,,,2/17/2016,,,,,,0,,,0,,1,0,0,0,0,0,0,0,0,0,0,,NULL,,Lethrinidae,,,,7/12/2016 2:45,,,FRENCH POLYNESIA,CFP (Ciguatera Fish Poisoning),,,,,,,,,,,,,,,,,,,,,,,,,,,,
PF-16-030,2016,Society archipelgo,,1,CFP monitoring programme of French Polynesia,1,,0,0,1,0,0,0,,0,0,Raiataea,,,,4/10/2016,,,,,,0,,,0,,1,0,0,0,0,0,0,0,0,0,0,,NULL,,Lutjanus monostigma,,,,7/12/2016 2:44,,,FRENCH POLYNESIA,CFP (Ciguatera Fish Poisoning),,,,,,,,,,,,,,,,,,,,,,,,,,,,
PF-16-029,2016,Society archipelago,,1,CFP monitoring programme of French Polynesia,NULL,,0,0,1,0,0,0,,0,0,Raiatea,,,,4/10/2016,,,,,,0,,,0,,1,0,0,0,0,0,0,0,0,0,0,,NULL,,Lutjanus monostigma,,,,7/12/2016 2:42,,,FRENCH POLYNESIA,CFP (Ciguatera Fish Poisoning),,,,,,,,,,,,,,,,,,,,,,,,,,,,
PF-16-028,2016,Society archipelago,,1,CFP monitoring programme of French Polynesia,1,,0,0,1,0,0,0,,0,0,Raiatea,,,,3/27/2016,,,,,,0,,,0,,1,0,0,0,0,0,0,0,0,0,0,,NULL,,Lethrinidae,,,,7/12/2016 2:40,,,FRENCH POLYNESIA,CFP (Ciguatera Fish Poisoning),,,,,,,,,,,,,,,,,,,,,,,,,,,,
PF-16-027,2016,Society archipelago,,1,CFP monitoring programme of French Polynesia,1,,0,0,1,0,0,0,,0,0,Raiatea,,,,1/15/2016,,,,,,0,,,0,,1,0,0,0,0,0,0,0,0,0,0,,NULL,,Sphyraena barracuda,,,,7/12/2016 2:38,,,FRENCH POLYNESIA,CFP (Ciguatera Fish Poisoning),,,,,,,,,,,,,,,,,,,,,,,,,,,,
PF-16-026,2016,Society archipelago,,1,CFP monitoring programme of French Polynesia,1,,0,0,1,0,0,0,,0,0,Huahine,,,,3/20/2016,,,,,,0,,,0,,1,0,0,0,0,0,0,0,0,0,0,,NULL,,Balistidae,,,,7/12/2016 2:37,,,FRENCH POLYNESIA,CFP (Ciguatera Fish Poisoning),,,,,,,,,,,,,,,,,,,,,,,,,,,,
PF-16-025,2016,Society archipelago,,1,CFP monitoring programme of French Polynesia,1,,0,0,1,0,0,0,,0,0,Huahine,,,,3/19/2016,,,,,,0,,,0,,1,0,0,0,0,0,0,0,0,0,0,,NULL,,Lethrinidae,,,,7/12/2016 2:34,,,FRENCH POLYNESIA,CFP (Ciguatera Fish Poisoning),,,,,,,,,,,,,,,,,,,,,,,,,,,,
PF-16-024,2016,Australes archipelago,,1,CFP monitoring programme of French Polynesia,1,,0,0,1,0,0,0,,0,0,Raivavae,,,,3/6/2016,,,,,,0,,,0,,1,0,0,0,0,0,0,0,0,0,0,,0,,?,,,,7/12/2016 2:33,,,FRENCH POLYNESIA,CFP (Ciguatera Fish Poisoning),,,,,,,,,,,,,,,,,,,,,,,,,,,,
PF-16-023,2016,Australes archipelago,,1,CFP monitoring programme of French Polynesia,1,,0,0,1,0,0,0,,0,0,Raivavae,,,,2/13/2016,,,,,,0,,,0,,1,0,0,0,0,0,0,0,0,0,0,,NULL,,Ctenochaetus striatus,,,,7/12/2016 2:30,,,FRENCH POLYNESIA,CFP (Ciguatera Fish Poisoning),,,,,,,,,,,,,,,,,,,,,,,,,,,,
PF-16-022,2016,,,1,CFP monitoring programme of French Polynesia,1,,0,0,1,0,0,0,,0,0,Rurutu,,,,5/2/2016,,,,,,0,,,0,,1,0,0,0,0,0,0,0,0,0,0,,NULL,,Lutjanus monostigma,,,,7/12/2016 2:27,,,FRENCH POLYNESIA,CFP (Ciguatera Fish Poisoning),,,,,,,,,,,,,,,,,,,,,,,,,,,,
PF-16-021,2016,Australes archipelago,,1,CFP monitoring programme of French Polynesia,1,,0,0,1,0,0,0,,0,0,Rurutu,,,,4/10/2016,,,,,,0,,,0,,1,0,0,0,0,0,0,0,0,0,0,,0,,?,,,,7/12/2016 2:25,,,FRENCH POLYNESIA,CFP (Ciguatera Fish Poisoning),,,,,,,,,,,,,,,,,,,,,,,,,,,,
PF-16-020,2016,Australes archipelago,,1,CFP monitoring programme of French Polynesia,1,,0,0,1,0,0,0,,0,0,Rapa,,,,6/20/2016,,,,,,0,,,0,,1,0,0,0,0,0,0,0,0,0,0,,NULL,,Carangidae,,,,7/12/2016 2:24,,,FRENCH POLYNESIA,CFP (Ciguatera Fish Poisoning),,,,,,,,,,,,,,,,,,,,,,,,,,,,
PF-16-019,2016,Australes archipelago,,1,CFP monitoring programme of French Polynesia,1,,0,0,1,0,0,0,,0,0,Rapa,,,,3/24/2016,,,,,,0,,,0,,1,0,0,0,0,0,0,0,0,0,0,,NULL,,Scaridae,,,,7/12/2016 2:22,,,FRENCH POLYNESIA,CFP (Ciguatera Fish Poisoning),,,,,,,,,,,,,,,,,,,,,,,,,,,,
PF-16-018,2016,Australes archipalego,,1,CFP monitoring programme of french Polynesia,1,,0,0,1,0,0,0,,0,0,Rapa,,,,3/14/2016,,,,,,0,,,0,,1,0,0,0,0,0,0,0,0,0,0,,NULL,,Seriola lalandi,,,,7/12/2016 2:21,,,FRENCH POLYNESIA,CFP (Ciguatera Fish Poisoning),,,,,,,,,,,,,,,,,,,,,,,,,,,,
PF-16-017,2016,Marquesas archipelago,,1,CFP monitoring programme of French Polynesia,1,,0,0,1,0,0,0,,0,0,Hiva Oa,,,,5/11/2016,,,,,,0,,,0,,1,0,0,0,0,0,0,0,0,0,0,,NULL,,Carangidae,,,,7/12/2016 2:17,,,FRENCH POLYNESIA,CFP (Ciguatera Fish Poisoning),,,,,,,,,,,,,,,,,,,,,,,,,,,,
PF-16-016,2016,Marquesas archipelago,,1,CFP monitoring programme of French Polynesia,1,,0,0,1,0,0,0,,0,0,Hiva Oa,,,,5/14/2016,,,,,,0,,,0,,1,0,0,0,0,0,0,0,0,0,0,,NULL,,Scarus rubroviolaceus,,,,7/12/2016 2:15,,,FRENCH POLYNESIA,CFP (Ciguatera Fish Poisoning),,,,,,,,,,,,,,,,,,,,,,,,,,,,
PF-16-015,2016,Marquesas archipelago,,1,CFP monitoring programme of French Polynesia,1,,0,0,1,0,0,0,,0,0,Nuku Hiva,,,,5/11/2016,,,,,,0,,,0,,1,0,0,0,0,0,0,0,0,0,0,,NULL,,Lutjanus bohar,,,,7/12/2016 2:13,,,FRENCH POLYNESIA,CFP (Ciguatera Fish Poisoning),,,,,,,,,,,,,,,,,,,,,,,,,,,,
PF-16-014,2016,Marquesas archipelago,,1,CFP monitoring programme of French Polynesia,1,,0,0,1,0,0,0,,0,0,Nuku Hiva,,,,5/6/2016,,,,,,0,,,0,,1,0,0,0,0,0,0,0,0,0,0,,NULL,,Carangidae,,,,7/12/2016 2:11,,,FRENCH POLYNESIA,CFP (Ciguatera Fish Poisoning),,,,,,,,,,,,,,,,,,,,,,,,,,,,
PF-16-013,2016,Marquesas archipelago,,1,CFP monitoring programme of French polynesia,1,,0,0,1,0,0,0,,0,0,Nuku Hiva,,,,3/15/2016,,,,,,0,,,0,,1,0,0,0,0,0,0,0,0,0,0,,NULL,,Lutjanus gibbus,,,,7/12/2016 2:09,,,FRENCH POLYNESIA,CFP (Ciguatera Fish Poisoning),,,,,,,,,,,,,,,,,,,,,,,,,,,,
PF-16-012,2016,Marquesas archipelago,,1,CFP monitoring programme of French Polynesia,1,,0,0,1,0,0,0,,0,0,Nuku Hiva,,,,3/4/2016,,,,,,0,,,0,,1,0,0,0,0,0,0,0,0,0,0,,NULL,,?,,,,7/12/2016 2:08,,,FRENCH POLYNESIA,CFP (Ciguatera Fish Poisoning),,,,,,,,,,,,,,,,,,,,,,,,,,,,
PF-16-011,2016,Marquesas archipelago,,1,CFP monitoring programme of French Polynesia,1,,0,0,1,0,0,0,,0,0,Nuku Hiva,,,,2/7/2016,,,,,,0,,,0,,1,0,0,0,0,0,0,0,0,0,0,,NULL,,Lutjanus bohar,,,,7/12/2016 2:07,,,FRENCH POLYNESIA,CFP (Ciguatera Fish Poisoning),,,,,,,,,,,,,,,,,,,,,,,,,,,,
PF-16-010,2016,Marquesas archipelago,,1,CFP monitoring programme of French Polynesia,1,,0,0,1,0,0,0,,0,0,Nuku Hiva,,,,2/2/2016,,,,,,0,,,0,,1,0,0,0,0,0,0,0,0,0,0,,NULL,,Naso hexacanthus,,,,7/12/2016 2:05,,,FRENCH POLYNESIA,CFP (Ciguatera Fish Poisoning),,,,,,,,,,,,,,,,,,,,,,,,,,,,
PF-16-009,2016,Society archipelago,,1,CFP moninoring programme of French Polynesia,1,,0,0,1,0,0,0,,0,0,Tahiti,,,,6/25/2016,,,,,,0,,,0,,1,0,0,0,0,0,0,0,0,0,0,,NULL,,Cephalopholis argus,,,,7/12/2016 2:02,,,FRENCH POLYNESIA,CFP (Ciguatera Fish Poisoning),,,,,,,,,,,,,,,,,,,,,,,,,,,,
PF-16-008,2016,Marquesas archipelago,,1,CFP monitoring programme of French Polynesia,1,,0,0,1,0,0,0,,0,0,Nuku Hiva,,,,7/8/2016,,,,,,0,,,0,,1,0,0,0,0,0,0,0,0,0,0,,NULL,,Myripristis amena,,,,7/12/2016 1:59,,,FRENCH POLYNESIA,CFP (Ciguatera Fish Poisoning),,,,,,,,,,,,,,,,,,,,,,,,,,,,
PF-16-007,2016,Society archipelago,,1,French Polynesia CFP monitoring program,1,,0,0,1,0,0,0,,0,0,Tahiti,,,,4/12/2016,,,,,,0,,,0,,1,0,0,0,0,0,0,0,0,0,0,,NULL,,Lethrinidae,,,,7/7/2016 3:28,,,FRENCH POLYNESIA,CFP (Ciguatera Fish Poisoning),,,,,,,,,,,,,,,,,,,,,,,,,,,,
PF-16-006,2016,Society archipelago,,1,French Polynesia CFP monitoring program,1,,0,0,1,0,0,0,,0,0,Tahiti,,,,3/24/2016,,,,,,0,,,0,,1,0,0,0,0,0,0,0,0,0,0,,NULL,,Crenimugil crenilabis,,,,7/7/2016 3:26,,,FRENCH POLYNESIA,CFP (Ciguatera Fish Poisoning),,,,,,,,,,,,,,,,,,,,,,,,,,,,
PF-16-005,2016,Society archipelago,,1,French Polynesia CFP monitoring program,1,,0,0,1,0,0,0,,0,0,Tahiti,,,,3/3/2016,,,,,,0,,,0,,1,0,0,0,0,0,0,0,0,0,0,,NULL,,,,,,7/7/2016 3:24,,,FRENCH POLYNESIA,CFP (Ciguatera Fish Poisoning),,,,,,,,,,,,,,,,,,,,,,,,,,,,
PF-16-004,2016,Society arhchipelago,,1,French Polynesia CFP monitoring program,1,,0,0,1,0,0,0,,0,0,Moorea,,,,6/14/2016,,,,,,0,,,0,,1,0,0,0,0,0,0,0,0,0,0,,NULL,,Selar crumenophthalmus,,,,7/7/2016 3:23,,,FRENCH POLYNESIA,CFP (Ciguatera Fish Poisoning),,,,,,,,,,,,,,,,,,,,,,,,,,,,
PF-16-003,2016,,,1,CFP monitoring program of French Polynesia,1,,0,0,1,0,0,0,,0,0,,,,,7/4/2016,,,,,,0,,,0,,1,0,0,0,0,0,0,0,0,0,0,,NULL,,Acanthurus xanthopterus,,,,7/7/2016 3:17,,,FRENCH POLYNESIA,CFP (Ciguatera Fish Poisoning),,,,,,,,,,,,,,,,,,,,,,,,,,,,
PF-16-002,2016,,,1,French Polynesia CFP monitoring network,1,,0,0,1,0,0,0,,0,0,TUAMOTU,,,,5/31/2016,,,,,,0,,,0,,1,0,0,0,0,0,0,0,0,0,0,,NULL,,Cheilinus undulatus,,,,6/28/2016 9:49,,,FRENCH POLYNESIA,CFP (Ciguatera Fish Poisoning),,,,,,,,,,,,,,,,,,,,,,,,,,,,
PF-16-001,2016,Tuamotu archipelago,,1,French Polynesia CFP Monitoring Program,1,,0,0,1,0,0,0,,0,0,Anaa,-17.691667,,,1/13/2016,,,,,,0,,,0,,1,0,0,0,0,0,0,0,0,0,0,,0,,Lutjanus monostigma,,,,6/27/2016 9:15,,,FRENCH POLYNESIA,CFP (Ciguatera Fish Poisoning),,,,,,,,Gambierdiscus spp.,,,,,,,,,,,,,,,,,,,,
MYT-98-001,1998,,,1,Mayotte ciguatera monitoring programme,1,monitoring started in 1999,0,1,0,0,0,1,suspected to affect the food chain,0,0,Surprise inner reef,-12.640833,45.1325,lagoonal inner reef,12/11/1998,10/30/1998,12/18/1998,,,,1,,,0,,0,0,0,0,0,1,0,0,0,0,0,,NULL,,,"Turquet et al (2000), link: https://www.researchgate.net/publication/259382393_Example_of_a_Gambierdiscus_toxicus_flare-up_following_the_1998_coral_bleaching_event_in_Mayotte_island_Comoros_South-West_Indian_Ocean",,,9/27/2017 11:39,,,MAYOTTE,CFP (Ciguatera Fish Poisoning),,,,,,,,Gambierdiscus sp.,,"60,463/g",Ostreopsis sp.,,965/g,,,,,,,,,,Prorocentrum spp.,,10/g,,,
MX-96-002,1996,Quintana Roo,,0,,NULL,,0,1,0,0,0,0,,0,0,Laguna Catoche,19.914722,-87.449722,,,,,,,,1,,,0,,0,0,0,0,1,1,0,0,0,0,0,,NULL,,,"Hernández-Becerril, D. U., Almazán-Becerril, A. 2004. Especies de dinoflagelados del género Gambierdiscus (Dinophyceae) del Mar Caribe Mexicano. Rev. Biol. Trop. 52(Suppl. 1): 77-87.",,,2/8/2018 9:06,,,MEXICO,CFP (Ciguatera Fish Poisoning),,,,,,,,Gambierdiscus toxicus Adachi et Fukuyo 1979,,,,,,,,,,,,,,,,,,,,
MX-96-001,1996,Quintana Roo,,0,,NULL,,0,1,0,0,0,0,,0,0,Boca Paila,20.011667,,,,,,,,,1,,"First record of Gambierdiscus yasumotoi Holmes, 1998 at Mexican Caribean Coasts.",0,,0,0,1,0,1,1,0,0,0,0,0,,NULL,,,"Hernández-Becerril, D. U., Almazán-Becerril, A. 2004. Especies de dinoflagelados del género Gambierdiscus (Dinophyceae) del Mar Caribe Mexicano. Rev. Biol. Trop. 52(Suppl. 1): 77-87.",,,2/8/2018 8:58,2/8/2018 9:04,,MEXICO,CFP (Ciguatera Fish Poisoning),,,,,,,,Gambierdiscus toxicus Adachi et Fukuyo 1979,,,,,,Gambierdiscus yasumotoi Holmes 1998,,,,,,,,,,,,,,
MX-94-001,1994,Quintana Roo,,0,,NULL,,0,0,1,0,0,0,,0,0,Isla Mujeres,21.239167,-86.741667,,7/10/1994,,,,,,0,,,0,,1,0,1,0,0,0,0,0,0,0,0,,1,,Sphyraena sphyraena,"Arcila-Herrera, H., Castello-Navarrete, A., Mendoza-Ayora, J., Montero-Cervantes, L., González-Franco, M. F., Brito-Villanueva, W. O. 1998. Ten cases of Ciguatera Fish Poisoning in Yucatan. Rev Invest Clin. 50: 149-152.",,,2/22/2018 6:59,,,MEXICO,CFP (Ciguatera Fish Poisoning),,,,,,,,,,,,,,,,,,,,,,,,,,,,
MX-92-001,1992,Baja California Sur,,0,,NULL,,0,0,1,0,0,0,,0,0,Alijos Rocks,,-115.749722,,,,,,,,1,,,0,,1,0,1,1,0,1,0,0,0,0,0,,0,,Epinephelus labriformias,"Barton, E. D., Tanner, P., Turchen, S. G., Tunget, C. L., Manoguerra, A., Clark, R. F. 1995. Ciguatera Fish Poisoning-A Southern California Epidemic. West J Med. 163: 31-35.",,,2/8/2018 9:34,,,MEXICO,CFP (Ciguatera Fish Poisoning),,,,,,,,Gambierdiscus toxicus,,,,,,,,,,,,,,,,,,,,
MX-91-002,1991,Quintana Roo,,0,,NULL,,0,1,0,0,0,0,,0,0,Punta Cancún,,-86.75,,,,,,,,1,,,0,,0,0,0,0,1,1,0,0,0,0,0,,NULL,,,"Hernández-Becerril, D. U., Almazán-Becerril, A. 2004. Especies de dinoflagelados del género Gambierdiscus (Dinophyceae) del Mar Caribe Mexicano. Rev. Biol. Trop. 52(Suppl. 1): 77-87.",,,2/8/2018 9:09,,,MEXICO,CFP (Ciguatera Fish Poisoning),,,,,,,,Gambierdiscus toxicus Adachi et Fukuyo 1979,,,,,,,,,,,,,,,,,,,,
MX-91-001,1991,Quintana Roo,,0,,NULL,,0,1,0,0,0,0,,0,0,Holbox,,-87.418611,,,,,,,,1,,,0,,0,0,0,0,1,1,0,0,0,0,0,,NULL,,,"Hernández-Becerril, D. U., Almazán-Becerril, A. 2004. Especies de dinoflagelados del género Gambierdiscus (Dinophyceae) del Mar Caribe Mexicano. Rev. Biol. Trop. 52(Suppl. 1): 77-87.",,,2/8/2018 9:03,,,MEXICO,CFP (Ciguatera Fish Poisoning),,,,,,,,Gambierdiscus toxicus Adachi et Fukuyo 1979,,,,,,,,,,,,,,,,,,,,
MX-13-010,2013,Yucatán,,0,,NULL,,0,0,1,0,0,0,,0,0,Celestún,20.863056,-90.403056,,,,,,,,0,,,1,,0,0,1,0,0,0,0,0,0,0,0,,0,,H. plumierii,"Ley-Martínez, T. C., Núñez-Vázquez, E. J., Almazán-Becerril, A., Baron-Campis, S., Ramírez-Camarena, C., Caballero-Vázquez, J. A., Balar, E. F. 2014. Bioprospección de toxinas tipo ciguatoxinas en peces carnívoros del Caribe Mexicano y aguas adyacentes. XXI Congreso Nacional de Ciencia y Tecnología del Mar, Cozumel, Quinta Roo: Recursos y Medio Ambiente. Octubre 2014. DOI: 10.13140/2.1.3105.8884",,,2/6/2018 9:56,12/29/2018 8:40,,MEXICO,CFP (Ciguatera Fish Poisoning),H. plumierii,,,,LC-UV,50 ng,Ciguatoxins,,,,,,,,,,,,,,,,,,,,,
MX-13-009,2013,Yucatán,,0,,NULL,,0,0,1,0,0,0,,0,0,Dzilam de Bravo,21.405278,-88.891667,,9/26/2013,,,,,,0,,,1,,0,0,1,0,0,0,0,0,0,0,0,,0,,"C. nebulosus, L. synagris, H. plumierii","Ley-Martínez, T. C., Núñez-Vázquez, E. J., Almazán-Becerril, A., Baron-Campis, S., Ramírez-Camarena, C., Caballero-Vázquez, J. A., Balar, E. F. 2014. Bioprospección de toxinas tipo ciguatoxinas en peces carnívoros del Caribe Mexicano y aguas adyacentes. XXI Congreso Nacional de Ciencia y Tecnología del Mar, Cozumel, Quinta Roo: Recursos y Medio Ambiente. Octubre 2014. DOI: 10.13140/2.1.3105.8884",,,2/6/2018 9:42,,,MEXICO,CFP (Ciguatera Fish Poisoning),H. plumierii,,,,LC-UV,25 ng,Ciguatoxins,,,,,,,,,,,,,,,,,,,,,
MX-13-008,2013,Yucatán,,0,,NULL,,0,0,1,0,0,0,,0,0,San Felipe,21.566667,-88.216667,,9/27/2013,,,,,,0,,,1,,0,0,1,0,0,0,0,0,0,0,0,,0,,"R. terraenovael, E. morio","Ley-Martínez, T. C., Núñez-Vázquez, E. J., Almazán-Becerril, A., Baron-Campis, S., Ramírez-Camarena, C., Caballero-Vázquez, J. A., Balar, E. F. 2014. Bioprospección de toxinas tipo ciguatoxinas en peces carnívoros del Caribe Mexicano y aguas adyacentes. XXI Congreso Nacional de Ciencia y Tecnología del Mar, Cozumel, Quinta Roo: Recursos y Medio Ambiente. Octubre 2014. DOI: 10.13140/2.1.3105.8884",,,2/6/2018 9:34,,,MEXICO,CFP (Ciguatera Fish Poisoning),E. morio,,,,LC-UV,25 ng,Ciguatoxins,,,,,,,,,,,,,,,,,,,,,
MX-13-007,2013,Yucatán,,0,,NULL,,0,0,1,0,0,0,,0,0,San Felipe,21.566667,-88.216667,,6/29/2013,,,,,,0,,,1,,0,0,1,0,0,0,0,0,0,0,0,,0,,"L. synagris, O. chrysurus","Ley-Martínez, T. C., Núñez-Vázquez, E. J., Almazán-Becerril, A., Baron-Campis, S., Ramírez-Camarena, C., Caballero-Vázquez, J. A., Balar, E. F. 2014. Bioprospección de toxinas tipo ciguatoxinas en peces carnívoros del Caribe Mexicano y aguas adyacentes. XXI Congreso Nacional de Ciencia y Tecnología del Mar, Cozumel, Quinta Roo: Recursos y Medio Ambiente. Octubre 2014. DOI: 10.13140/2.1.3105.8884",,,2/6/2018 9:32,2/6/2018 9:35,,MEXICO,CFP (Ciguatera Fish Poisoning),L. synagris,,,,LC-UV,25 ng,Ciguatoxins,,,,,,,,,,,,,,,,,,,,,
MX-13-006,2013,Quintana Roo,,0,,NULL,,0,0,1,0,0,0,,0,0,Puerto Morelos,20.85,-86.883333,,9/26/2013,,,,,,0,,,1,,0,0,1,0,0,0,0,0,0,0,0,,0,,P. volitans,"Ley-Martínez, T. C., Núñez-Vázquez, E. J., Almazán-Becerril, A., Baron-Campis, S., Ramírez-Camarena, C., Caballero-Vázquez, J. A., Balar, E. F. 2014. Bioprospección de toxinas tipo ciguatoxinas en peces carnívoros del Caribe Mexicano y aguas adyacentes. XXI Congreso Nacional de Ciencia y Tecnología del Mar, Cozumel, Quinta Roo: Recursos y Medio Ambiente. Octubre 2014. DOI: 10.13140/2.1.3105.8884",,,2/6/2018 9:26,,,MEXICO,CFP (Ciguatera Fish Poisoning),,,,,LC-UV,25 ng,Ciguatoxins,,,,,,,,,,,,,,,,,,,,,
MX-13-005,2013,Quintana Roo,,0,,NULL,,0,0,1,0,0,0,,0,0,Cancún,21.166667,-86.8,,9/28/2013,,,,,,0,,,1,,0,0,1,0,0,0,0,0,0,0,0,,NULL,,S. barracuda,"Ley-Martínez, T. C., Núñez-Vázquez, E. J., Almazán-Becerril, A., Baron-Campis, S., Ramírez-Camarena, C., Caballero-Vázquez, J. A., Balar, E. F. 2014. Bioprospección de toxinas tipo ciguatoxinas en peces carnívoros del Caribe Mexicano y aguas adyacentes. XXI Congreso Nacional de Ciencia y Tecnología del Mar, Cozumel, Quinta Roo: Recursos y Medio Ambiente. Octubre 2014. DOI: 10.13140/2.1.3105.8884",,,2/6/2018 9:22,,,MEXICO,CFP (Ciguatera Fish Poisoning),,,,,LC-UV,25 ng,Ciguatoxins,,,,,,,,,,,,,,,,,,,,,
MX-13-004,2013,Quintana Roo,,0,,NULL,,0,0,1,0,0,0,,0,0,"Puerto Juárez, Cancún",20.616667,-87.066667,,9/28/2013,,,,,,0,,,1,,0,0,1,0,0,0,0,0,0,0,0,,NULL,,S. barracuda,"Ley-Martínez, T. C., Núñez-Vázquez, E. J., Almazán-Becerril, A., Baron-Campis, S., Ramírez-Camarena, C., Caballero-Vázquez, J. A., Balar, E. F. 2014. Bioprospección de toxinas tipo ciguatoxinas en peces carnívoros del Caribe Mexicano y aguas adyacentes. XXI Congreso Nacional de Ciencia y Tecnología del Mar, Cozumel, Quinta Roo: Recursos y Medio Ambiente. Octubre 2014. DOI: 10.13140/2.1.3105.8884",,,2/6/2018 9:16,2/6/2018 9:23,,MEXICO,CFP (Ciguatera Fish Poisoning),,,,,LC-UV,8.35 ng,Ciguatoxins,,,,,,,,,,,,,,,,,,,,,
MX-13-002,2013,Peninsula de Yucatán and Mexican Caribbean,,0,,NULL,,0,0,1,0,0,0,,0,0,,,,,,6/29/2013,11/14/2013,,,Fish sampling dates,0,,,0,> 10 MU,0,0,1,0,0,0,0,0,0,0,0,,NULL,,,"Ley-Martínez, Tai-Coh; Erick J., Núñez-Vázquez; Antonio, Almazán-Becerril; Sofía Baron-Campis; Casimiro Ramírez-Camarena; J. Adán, Caballero-Vázquez, Eduardo F., Balart. 2014.BIOPROSPECCIÓN DE TOXINAS TIPO CIGUATOXINAS EN PECES CARNÍVOROS DEL CARIBE MEXICANO Y AGUAS ADYACENTES. XXI Congreso Nacional de Ciencia y Tecnología del Mar, Cozumel, Q. Roo, 8 al 11 de octubre de 2014",,,11/25/2015 6:21,,,MEXICO,CFP (Ciguatera Fish Poisoning),,,,,,,,,,,,,,,,,,,,,,,,,,,,
MX-13-001,2013,Yucatan,,0,,NULL,,0,0,1,0,0,0,,0,0,"Progreso, Dzilam de Bravo and San Felipe",21.313056,-88.234167,San Felipe,,5/1/2013,10/31/2013,,,,1,,,1,10 UR,0,0,1,1,0,0,0,0,0,0,0,,NULL,,,"Barón-Campis, S. A., Okolodkov, Y., Ríos-Lara, G.V.,  Vázquez-Gómez, N., Rubio-Sánchez, V., Arce-Rocha, G., González-López, W. A., Núñez-Vázquez, E. J.2013 Conference Paper XXI Congreso Nacional de Ciencia y Tecnología del Mar , Cozumel, Quintana Roo http://xxi-congreso.webcindario.com/mesas.html",,,10/28/2015 5:21,10/29/2015 5:01,,MEXICO,CFP (Ciguatera Fish Poisoning),,,,,,,,Gambierdiscus sp.,404,,Karenia brevis,874,,,,,,,,,,,,,,,,
MX-11-002,2011,Colima,,0,,NULL,,0,0,0,0,0,1,Part of a project,0,0,"Socorro Island, Revillagigedo Archipielago",18.805556,-111.048333,,2/25/2011,,,,,,1,,,0,,0,0,1,0,1,0,0,0,0,0,0,,NULL,,,"Cortés-Altamirano, R. 2012. Two new localities for Gambierdiscus toxicus in the Mexican Pacific. Harmful Algae News. 45: 10-11",,,2/7/2018 9:21,,,MEXICO,CFP (Ciguatera Fish Poisoning),,,,,,,,Gambierdiscus toxicus,,,,,,,,,,,,,,,,,,,,
MX-11-001,2011,Nayarit,,0,,NULL,,0,0,0,0,0,1,Part of a project,0,0,Isabel Island,21.843611,-105.884167,,2/25/2011,,,,,,1,,,0,,0,0,1,0,0,0,0,0,0,0,0,,NULL,,,"Cortés-Altamirano, R. 2012. Two new localities for Gambierdiscus toxicus in the Mexican Pacific. Harmful Algae News. 45: 10-11",,,2/7/2018 9:17,,,MEXICO,CFP (Ciguatera Fish Poisoning),,,,,,,,Ostreopsis siamensis,,,,,,Gambierdiscus toxicus,,,,,,,,,,,,,,
MX-10-002,2010,,,1,Mesoamerican Reef System,NULL,,0,0,0,0,0,0,,0,0,Mexican Caribbean Coast,20.284167,-87.256667,,,,,,,,1,,,0,,0,0,1,0,0,0,0,0,0,0,0,,NULL,,,"Almazán-Becerril, A., Escobar-Morales, S., Rosiles-González, G., Valadez, F. 2015. Botanica Marina. 58(2): 115-128.",,,2/3/2018 8:35,2/3/2018 8:39,,MEXICO,CFP (Ciguatera Fish Poisoning),,,,,,,,Gambierdiscus toxicus,,,,,,,,,,,,,,,,,,,,
MX-04-001,2004,Colima,,0,,NULL,,1,1,0,0,0,0,,0,0,Manzanillo,19.133333,-104.6,,5/10/2004,,,,,,0,20.8,,0,,0,0,1,0,1,0,0,0,0,0,0,,0,,,"Sosa-Ávalos, R., Millán-Núñez, E., Quijano-Scheggia, S. I., Lara-Lara, J. R., Silva-Iñiguez, L. 2015. Variavility of the adsorption coefficient for phytoplankton influence of red tide in Manzanillo and Santiado Bays, Mexico. Revista de Biología Marina y Oceanografía. 50 (3): 427-438.",,,2/3/2018 7:17,,,MEXICO,CFP (Ciguatera Fish Poisoning),,,,,,,,Ceratium sp.,1.19 x 10^6,balechi,Prorocentrum micans,3.88 x 10^4,,,,,,,,,,,,,,,,
IND-16-001,2016,South India,,1,HAB programme CMLRE,NULL,,0,0,1,0,0,0,,0,0,"Vizhinjam, trivandrum, Kerala",,,,1/4/2016,,,,,HAB events not mentioned/ recorded,0,,"The authors are reporting their findings of Ciguatera toxins, from the fish collected from Local markets of trivandrum, there is no authenticity regarding the incident due to HAB in the Indian region",1,,1,0,0,0,0,0,0,0,0,0,0,,0,,Lutjanus sp.,"Incidence of ciguatoxin fish poisoning in Trivandrum, India, Indian J. Fish., 64(4): 129-133, 2017 129",,,11/29/2018 10:05,,,INDIA,CFP (Ciguatera Fish Poisoning),,,,,,,,,,,,,,,,,,,,,,,,,,,,
IND-15-001,2015,South India,,0,,0,,0,0,1,0,0,0,,0,0,Mangalore,,,,6/8/2015,,,,,,0,,,1,Ciguatera toxin,1,0,0,0,0,0,0,0,0,0,0,,0,,Lutjanus bohar,"Presumptive case of ciguatera fish poisoning in Mangalore, India Moger Rajeish, Malathi Shekar, Hoovinahalli Nataraju Madhushree and Moleyur Nagarajappa Venugopal*CURRENT SCIENCE, VOL. 111, NO. 9, 10 NOVEMBER 2016",,,11/29/2018 9:56,,,INDIA,CFP (Ciguatera Fish Poisoning),,,,,,,,,,,,,,,,,,,,,,,,,,,,
GT-16-002,2016,"Caribe, Guatemala",,0,,NULL,,0,1,0,0,0,0,,0,0,Cabo Tres Puntas,,,,,,,,,,1,,"Gambierdiscus spp, Prorocentrum spp, Coolia sp and Ostreopsis sp.",0,No toxicity for human,0,0,0,0,0,1,0,0,0,0,0,,NULL,,,,,,5/15/2018 6:49,,,GUATEMALA,CFP (Ciguatera Fish Poisoning),,,,,,,,,,,,,,,,,,,,,,,,,,,,
GT-16-001,2016,"Caribe, Guatemala",,0,,0,,0,1,0,0,0,0,,0,0,Motagüilla,,,,,,,,,,1,,"We found Gambierdiscus spp, Prorocentrum spp, Coolia sp and Ostreopsis sp.",0,,0,0,0,0,0,0,0,0,0,0,0,,NULL,,,,,,5/15/2018 4:41,5/15/2018 4:49,,GUATEMALA,CFP (Ciguatera Fish Poisoning),,,,,,,,,,,,,,,,,,,,,,,,,,,,
FR-17-001,2017,Marquesas archipelago,,0,CFP monitoring programme of French Polynesia,1,,0,0,1,0,0,0,,0,0,NUKU-HIVA,,,,1/3/2017,,,,,,0,,,0,,1,0,0,0,0,0,0,0,0,0,0,,NULL,,Scaridae,,,,1/3/2017 9:08,,,FRANCE,CFP (Ciguatera Fish Poisoning),,,,,,,,,,,,,,,,,,,,,,,,,,,,
CO-07-001,2007,San Andres island,,0,,1,There are some evidences about ciguatera in the region,0,0,1,0,0,0,,0,0,"Archipielago San Andres, Providencia and St. Catalina",12.966667,,Oceanic samll island,4/2/2007,,,,,end of the first rainy season,0,,,0,,1,0,0,0,0,0,0,0,0,0,0,,NULL,,Sphyraena barracuda AphiaID 345843,IOC Regional Science Planning Workshop on IOCARIBE ANCA IV. 2007.,,,10/28/2015 8:47,,,COLOMBIA,CFP (Ciguatera Fish Poisoning),,,,,,,,,,,,,,,,,,,,,,,,,,,,
CN-14-005,2014,Tianjin,,0,,NULL,,1,0,0,0,0,0,,0,0,Tianjin coastal tourist area,,,The coverage of bloom is about 300Km2,,8/26/2014,9/25/2014,,,,1,,,1,,0,0,0,0,0,0,0,0,0,0,0,,NULL,,,More details in China Disaster Bulletin,,,9/13/2015 3:16,9/15/2015 3:43,,CHINA,CFP (Ciguatera Fish Poisoning),,,,,,,,Thalassiosira eccentrica (Ehrenberg) Cleve 1904,,,Cochlodinium polykrikoides,,,,,,,,,,,,Ceratium furca,,,,,
AU-97-002,1997,Queensland,,0,,0,,0,0,1,0,0,0,,0,0,Trunk Reef,-18.352778,146.8275,,9/15/1997,,,,,,1,,,1,,1,0,0,0,0,0,0,0,0,0,0,poisoning by eating fish,NULL,,Maori Wrasse,"Ng & Gregory, 2000. Commun Dis Intell 24: 344-346",,,2/7/2017 3:28,2/10/2017 6:59,,AUSTRALIA,CFP (Ciguatera Fish Poisoning),,,,,,,,Gambierdiscus sp.,,,,,,,,,,,,,,,,,,,,
AU-67-001,1967,Queensland,,0,,1,1965,0,0,1,0,0,0,,0,0,Bustard Head,-24.028333,151.771667,poisonings occurred in  Brisbane from fish originating from Bustard Head.,10/1/1967,,,,,,1,,,1,,1,0,0,0,0,0,0,0,0,0,0,,NULL,,Spanish mackerel,"Tonge et al., 1967. The Medical Journal of Australia 2: 1088.",,,2/7/2017 3:41,2/10/2017 8:08,,AUSTRALIA,CFP (Ciguatera Fish Poisoning),,,,,,,,Gambierdiscus sp.,,,,,,,,,,,,,,,,,,,,
AU-66-001,1966,Queensland,,0,,1,1965,0,0,1,0,0,0,,0,0,Gladstone,-23.826667,151.264444,"Fish caught at Gladstone, poisonings were at Roma, Miles and Dalby.",10/25/1966,,,,,,1,,,1,,1,0,0,0,0,0,0,0,0,0,0,poisoning by eating fish,NULL,,Spanish mackerel,"Tonge et al., 1967. The Medical Journal of Australia 2: 1088.",,,2/7/2017 3:44,2/10/2017 8:09,,AUSTRALIA,CFP (Ciguatera Fish Poisoning),,,,,,,,Gambierdiscus sp.,,,,,,,,,,,,,,,,,,,,
AU-65-001,1965,Queensland,,0,,0,,0,0,1,0,0,0,,0,0,Cardwell,-18.258889,146.042222,,12/24/1965,,,,,,1,,,1,,1,0,0,0,0,0,0,0,1,0,0,"1 mortality event, 1 human poisoning, 1 dog poisoning",NULL,,Spanish mackerel,"Tonge et al., 1967. The Medical Journal of Australia 2: 1088.",,,2/7/2017 3:35,2/10/2017 8:11,,AUSTRALIA,CFP (Ciguatera Fish Poisoning),,,,,,,,Gambierdiscus sp.,,,,,,,,,,,,,,,,,,,,
AU-17-004,2017,,,0,,NULL,,0,0,1,0,0,0,,0,0,Lizard Island,,145.466667,grouper caught between Cooktown and Lizard Island,,,,,,,0,,,0,,1,0,0,0,0,0,0,0,0,0,0,,NULL,,grouper,"Farrell et al. 2017. Toxins 9, 367",,,3/5/2018 7:01,3/5/2018 7:11,,AUSTRALIA,CFP (Ciguatera Fish Poisoning),,,,,,,,Gambierdiscus spp.,,,,,,,,,,,,,,,,,,,,
AU-16-005,2016,,,0,,NULL,,0,0,1,0,0,0,,0,0,Crescent Head,,,,4/1/2016,,,,,,0,,,1,"0.11, 037 P-CTX-1B ug/kg",1,0,0,0,0,0,0,0,0,0,0,,NULL,,Spanish mackerel,"Farrell et al. 2017. Toxins 9, 367",,,3/5/2018 7:47,,,AUSTRALIA,CFP (Ciguatera Fish Poisoning),,4 human poisonings,4 human poisonings,,LC-UV,0.11; 0.37 ug/kg,Ciguatoxins,,,,,,,,,,,,,,,,,,,,,
AU-16-004,2016,,,0,,NULL,,0,0,1,0,0,0,,0,0,Crowdy Head,,,,3/1/2016,,,,,,0,,,1,0.93 P-CTX-1B ug/kg,1,0,0,0,0,0,0,0,0,0,0,,NULL,,Spanish mackerel,"Farrell et al. 2017. Toxins 9, 367",,,3/5/2018 7:43,3/11/2018 10:46,,AUSTRALIA,CFP (Ciguatera Fish Poisoning),,3 human poisonings,3 human poisonings,,LC-UV,0.93 ug/kg,Ciguatoxins,,,,,,,,,,,,,,,,,,,,,
AU-16-003,2016,,,0,,1,,0,0,1,0,0,0,,0,0,Capel Bank Seamount,,,,2/1/2016,,,,,,0,,,1,P-CTX-1B,1,0,0,0,0,0,0,0,0,0,0,,NULL,,green job fish,"Farrell et al. 2017. Toxins 9, 367",,,3/5/2018 7:38,,,AUSTRALIA,CFP (Ciguatera Fish Poisoning),,5 human poisonings from soup from fish imported in NSW,5 human poisonings from soup from fish imported in NSW,,LC-UV,0.006;0.036;0.02 ug/,Ciguatoxins,,,,,,,,,,,,,,,,,,,,,
AU-15-005,2015,,,0,,1,,0,0,1,0,0,0,,0,0,Capel Bank Seamount,,,,9/15/2015,,,,,,0,,,1,0.069 ug/kg P-CTX-1B,1,0,0,0,0,0,0,0,0,0,0,,NULL,,purple rock cod,"Farrell et al. 2017. Toxins 9, 367",,,3/5/2018 7:35,,,AUSTRALIA,CFP (Ciguatera Fish Poisoning),,1 human poisoning from fish imported in NSW,1 human poisoning from fish imported in NSW,,LC-UV,0.026 ug/kg,Ciguatoxins,,,,,,,,,,,,,,,,,,,,,
AU-15-004,2015,,,0,,NULL,,0,0,1,0,0,0,,0,0,Capel Bank Seamount,,,,9/15/2015,,,,,,1,,,1,0.023 P-CTX-1B ug/kg,1,0,0,0,0,0,0,0,0,0,0,,NULL,,red throat emperor,"Farrell et al. 2017. Toxins 9, 367",,,3/5/2018 7:29,3/5/2018 7:31,,AUSTRALIA,CFP (Ciguatera Fish Poisoning),,3 human poisonings; 1 reported to hospital with worsening symptoms,3 human poisonings; 1 reported to hospital with worsening symptoms,,LC-UV,0.023 ug/kg,Ciguatoxins,Gambierdiscus spp.,,,,,,,,,,,,,,,,,,,,
AU-15-003,2015,,,0,,0,,0,0,1,0,0,0,,0,0,South West Rocks,,,,4/10/2015,,,,,,1,,,0,,1,0,0,0,0,0,0,0,0,0,0,,NULL,,Spanish mackerel,"Farrell et al. 2017. Toxins 9, 367",,,3/5/2018 7:19,,,AUSTRALIA,CFP (Ciguatera Fish Poisoning),,,,,,,,Gambierdiscus spp.,,,,,,,,,,,,,,,,,,,,
AU-15-002,2015,NSW,,0,,1,2014,0,0,1,0,0,0,,0,0,South West Rocks,-30.872778,153.046667,,4/3/2015,,,,,Date of poisoning,1,,,1,,1,0,0,0,0,0,0,0,0,0,0,poisoning by eating fish,NULL,,Spanish mackerel,"Farrell et al., 2016. Commun Dis Intell 40(1): E1-E6",,,2/7/2017 3:14,3/5/2018 6:48,,AUSTRALIA,CFP (Ciguatera Fish Poisoning),,,,,,,,Gambierdiscus sp.,,,,,,,,,,,,,,,,,,,,
AU-14-003,2014,,,0,,NULL,,0,0,1,0,0,0,,0,0,Evans Head,,,,2/1/2014,,,,,,1,,,1,0.6; 1 ug/kg P-CTX-1B,1,0,0,0,0,0,0,0,0,0,0,,NULL,,Spanish mackerel,"Farrell et al. 2017. Toxins 9, 367",,,3/5/2018 7:10,,,AUSTRALIA,CFP (Ciguatera Fish Poisoning),,4 human poisonings; 1 individual with symptoms 7 months later,4 human poisonings; 1 individual with symptoms 7 months later,,LC-UV,1 µg/kg,Ciguatoxins,Gambierdiscus spp.,,,,,,,,,,,,,,,,,,,,
AU-14-002,2014,NSW,,0,,0,,0,0,1,0,0,0,,0,0,Scotts Head,-30.750556,153.009167,,3/2/2014,,,,,date of  poisoning event,1,,,1,,1,0,0,0,0,0,0,0,0,0,0,poisoning by eating fish,0,,Spanish mackerel,"Farrell et al., 2016. Commun Dis Intell 40(1): E1-E6",,,2/7/2017 3:08,9/26/2017 1:56,,AUSTRALIA,CFP (Ciguatera Fish Poisoning),Gambierdiscus sp.,,,,LC-UV,1 µg/kg,Ciguatoxins,Gambierdiscus sp.,,,,,,,,,,,,,,,,,,,,
AU-08-001,2008,,,0,,1,,0,0,1,0,0,0,,0,0,Brisbane,,,reef fish purchased in Brisbane,,,,,,,1,,,1,0.14ppb P-CTX-1 in human liver,1,0,0,0,0,0,0,0,0,0,0,,NULL,,,"Hamilton et al. 2010. Toxicon 56, 668-673",,,9/10/2018 6:44,9/10/2018 6:46,,AUSTRALIA,CFP (Ciguatera Fish Poisoning),barracuda,"1 male 87yr, 88kg, 164 died; his wife and son survived","1 male 87yr, 88kg, 164 died; his wife and son survived",CREM-LC/MS-MS,LC-UV,0.14 ppb,Ciguatoxins,Gambierdiscus spp.,,,,,,,,,,,,,,,,,,,,
